district,schoolName,schoolAddress,medianResult,unit,lead,status,city,county,latitude,longitude
Los Angeles Unified,Abraham Lincoln Senior High,3501 North Broadway Los Angeles CA 90031-2856,NA,NA,NA,not tested,LA,Los Angeles County,34.073776,-118.20622
Los Angeles Unified,Abram Friedman Occupational,1646 South Olive Street Los Angeles CA 90015-3507,NA,NA,NA,not tested,LA,Los Angeles County,34.034804,-118.265582
Los Angeles Unified,Academia Moderna,2410 Broadway Walnut Park CA 90255-6342,NA,NA,NA,not tested,NA,Los Angeles County,33.967093,-118.229852
Los Angeles Unified,Academies of Education and Empowerment at Carson High,22328 South Main St Carson CA 90745-4525,NA,NA,NA,not tested,Carson,Los Angeles County,33.857968,-118.276641
Los Angeles Unified,Academy for Enriched Sciences,17551 Miranda Street Encino CA 91316-1250,NA,NA,NA,not tested,LA,Los Angeles County,34.174616,-118.51526
Los Angeles Unified,Academy for Multilingual Arts and Science at Mervyn M. Dymally High,8800 South San Pedro Street Los Angeles CA 90003-3541,NA,NA,NA,not tested,LA,Los Angeles County,34.041848,-118.245602
Los Angeles Unified,Academy of Medical Arts at Carson High,22328 S Main Street Carson CA 90745-4525,NA,NA,NA,not tested,Carson,Los Angeles County,33.857968,-118.276641
Los Angeles Unified,Academy of Science and Engineering,5753 Rodeo Road Los Angeles CA 90016-5013,NA,NA,NA,not tested,LA,Los Angeles County,34.02154,-118.357683
Los Angeles Unified,Accelerated Charter Elementary,119 East 37th Street Los Angeles CA 90011-2603,NA,NA,FALSE,tested,LA,Los Angeles County,34.01498,-118.273367
Los Angeles Unified,Aggeler Community Day,21050 Plummer St Chatsworth CA 91311-4903,NA,NA,NA,not tested,LA,Los Angeles County,34.242635,-118.591635
Los Angeles Unified,Alain Leroy Locke College Preparatory Academy,325 East 111th Street Los Angeles CA 90061-3003,NA,NA,NA,not tested,LA,Los Angeles County,33.934879,-118.268907
Los Angeles Unified,Albert Einstein Continuation,15938 Tupper Street North Hills CA 91343-3149,NA,NA,NA,not tested,LA,Los Angeles County,34.23915,-118.479278
Los Angeles Unified,Albion Street Elementary,322 South Avenue 18 Los Angeles CA 90031-2507,NA,NA,NA,not tested,Los Angeles,Los Angeles County,34.069147,-118.220476
Los Angeles Unified,Aldama Elementary,632 North Avenue 50 Los Angeles CA 90042-3205,NA,NA,NA,not tested,LA,Los Angeles County,34.12716,-118.205313
Los Angeles Unified,Alexander Fleming Middle,25425 Walnut Street Lomita CA 90717-2610,NA,NA,FALSE,tested,Lomita,Los Angeles County,33.793161,-118.311937
Los Angeles Unified,Alexander Hamilton Senior High,2955 Robertson Boulevard Los Angeles CA 90034-3116,NA,NA,NA,not tested,LA,Los Angeles County,34.03483,-118.389326
Los Angeles Unified,Alexandria Avenue Elementary,4211 Oakwood Avenue Los Angeles CA 90004-3214,NA,NA,NA,not tested,LA,Los Angeles County,34.077744,-118.29843
Los Angeles Unified,Alfonso B. Perez Special Education Center,4540 Michigan Avenue Los Angeles CA 90022-1130,NA,NA,NA,not tested,NA,Los Angeles County,34.038672,-118.16827
Los Angeles Unified,Alfred B. Nobel Charter Middle,9950 Tampa Avenue Northridge CA 91324-1142,NA,NA,NA,not tested,LA,Los Angeles County,34.241776,-118.553575
Los Angeles Unified,Allesandro Elementary,2210 Riverside Drive Los Angeles CA 90039-4009,NA,NA,NA,not tested,LA,Los Angeles County,34.103359,-118.252513
Los Angeles Unified,Alliance 6-12 College-Ready Academy #21,8926 Sunland Boulevard Sun Valley CA 91352-2843,NA,NA,FALSE,tested,LA,Los Angeles County,34.23118,-118.366565
Los Angeles Unified,Alliance Alice M. Baxter College-Ready High,461 West 9th Street San Pedro CA 90731-3211,NA,NA,FALSE,tested,LA,Los Angeles County,33.73595,-118.287028
Los Angeles Unified,Alliance Cindy and Bill Simon Technology Academy High,10720 South Wilmington Avenue Los Angeles CA 90059-1236,NA,NA,FALSE,tested,NA,Los Angeles County,33.938704,-118.238923
Los Angeles Unified,Alliance College-Ready Academy High 16,1552 W. Rockwood Street Los Angeles CA 90026-5520,NA,NA,NA,not tested,Los Angeles,Los Angeles County,34.063479,-118.261535
Los Angeles Unified,Alliance College-Ready Middle Academy 12,100 East 49th Street Los Angeles CA 90011-3928,NA,NA,FALSE,tested,LA,Los Angeles County,33.998246,-118.273809
Los Angeles Unified,Alliance College-Ready Middle Academy 4,9719 South Main Street Los Angeles CA 90003-4135,NA,NA,FALSE,tested,LA,Los Angeles County,33.948051,-118.273972
Los Angeles Unified,Alliance College-Ready Middle Academy 5,211 South Ave 20 Los Angeles CA 90031-2508,NA,NA,FALSE,tested,Los Angeles,Los Angeles County,34.072226,-118.220407
Los Angeles Unified,Alliance College-Ready Middle Academy 8,113 S Rowan Ave Los Angeles CA 90063,NA,NA,NA,not tested,NA,Los Angeles County,34.03547,-118.187333
Los Angeles Unified,Alliance Dr. Olga Mohan High,644 West 17th Street Los Angeles CA 90015-3400,NA,NA,NA,not tested,LA,Los Angeles County,34.036624,-118.27097
Los Angeles Unified,Alliance Gertz-Ressler Richard Merkin 6-12 Complex,2023 South Union Ave Los Angeles CA 90007-1326,NA,NA,FALSE,tested,LA,Los Angeles County,34.036989,-118.282249
Los Angeles Unified,Alliance Health Services Academy High,10616 South Western Avenue Los Angeles CA 90047-4449,NA,NA,NA,not tested,LA,Los Angeles County,33.939788,-118.308921
Los Angeles Unified,Alliance Jack H. Skirball Middle,603 East 115th Street Los Angeles CA 90059-2322,NA,NA,FALSE,tested,LA,Los Angeles County,33.930183,-118.264957
Los Angeles Unified,Alliance Judy Ivie Burton Technology Academy High,10101 South Broadway Los Angeles CA 90003-4534,NA,NA,FALSE,tested,LA,Los Angeles County,33.964168,-118.278301
Los Angeles Unified,Alliance Kory Hunter Middle,5886 Compton Avenue Los Angeles CA 90001-1345,NA,NA,NA,not tested,NA,Los Angeles County,33.987301,-118.247627
Los Angeles Unified,Alliance Leadership Middle Academy,2941 West 70th Street Los Angeles CA 90043-4420,NA,NA,FALSE,tested,LA,Los Angeles County,33.976453,-118.324985
Los Angeles Unified,Alliance Leichtman-Levine Family Foundation Environmental Science High,2930 Fletcher Drive Los Angeles CA 90065-1407,NA,NA,NA,not tested,LA,Los Angeles County,34.113873,-118.247218
Los Angeles Unified,Alliance Marc & Eva Stern Math and Science,5151 State University Drive Lot 2 Los Angeles CA 90032-4226,NA,NA,NA,not tested,Los Angeles,Los Angeles County,34.062039,-118.173659
Los Angeles Unified,Alliance Margaret M. Bloomfield Technology Academy High,7907 Santa Fe Avenue Huntington Park CA 90255-6630,NA,NA,NA,not tested,NA,Los Angeles County,33.987144,-118.230308
Los Angeles Unified,Alliance Morgan McKinzie High,113 South Rowan Avenue Los Angeles CA 90063-2434,NA,NA,NA,not tested,NA,Los Angeles County,34.03547,-118.187333
Los Angeles Unified,Alliance Ouchi-O'Donovan 6-12 Complex,5356 South Fifth Avenue Los Angeles CA 90043-2622,NA,NA,FALSE,tested,Los Angeles,Los Angeles County,33.993473,-118.322223
Los Angeles Unified,Alliance Patti And Peter Neuwirth Leadership Academy,4610 South Main Street Los Angeles CA 90037-2736,NA,NA,FALSE,tested,LA,Los Angeles County,34.001819,-118.273873
Los Angeles Unified,Alliance Renee and Meyer Luskin Academy High,2941 West 70th St Los Angeles CA 90043-4420,NA,NA,FALSE,tested,LA,Los Angeles County,33.976453,-118.324985
Los Angeles Unified,Alliance Susan and Eric Smidt Technology High,211 South Avenue 20 Los Angeles CA 90031-2508,NA,NA,FALSE,tested,Los Angeles,Los Angeles County,34.072226,-118.220407
Los Angeles Unified,Alta California Elementary,14859 Rayen Street Panorama City CA 91402-1508,NA,NA,NA,not tested,LA,Los Angeles County,34.231909,-118.456551
Los Angeles Unified,Alta Loma Elementary,1745 Vineyard Avenue Los Angeles CA 90019-5753,NA,NA,NA,not tested,LA,Los Angeles County,34.042596,-118.33883
Los Angeles Unified,Amanecer Primary Center,832 South Eastman Avenue Los Angeles CA 90023-1929,NA,NA,NA,not tested,NA,Los Angeles County,34.024986,-118.186124
Los Angeles Unified,Ambler Avenue Elementary,319 East Sherman Drive Carson CA 90746-1158,NA,NA,NA,not tested,Carson,Los Angeles County,33.877537,-118.271397
Los Angeles Unified,Amelia Earhart Continuation,5355 Colfax Avenue North Hollywood CA 91601-3045,NA,NA,NA,not tested,LA,Los Angeles County,34.167979,-118.38786
Los Angeles Unified,Amestoy Elementary,1048 West 149th Street Gardena CA 90247-3008,NA,NA,NA,not tested,Gardena,Los Angeles County,33.896367,-118.292907
Los Angeles Unified,Anatola Avenue Elementary,7364 Anatola Avenue Van Nuys CA 91406-2350,NA,NA,NA,not tested,Los Angeles,Los Angeles County,34.203923,-118.514521
Los Angeles Unified,Andasol Avenue Elementary,10126 Encino Avenue Northridge CA 91325-1404,NA,NA,NA,not tested,LA,Los Angeles County,34.254255,-118.515372
Los Angeles Unified,Andres and Maria Cardenas Elementary,6900 Calhoun Avenue Van Nuys CA 91405-3209,NA,NA,NA,not tested,LA,Los Angeles County,34.196067,-118.442072
Los Angeles Unified,Andrew Carnegie Middle,21820 Bonita Street Carson CA 90745-3404,NA,NA,NA,not tested,Carson,Los Angeles County,33.83048,-118.259222
Los Angeles Unified,Angel's Gate (Continuation),3607 South Gaffey Street San Pedro CA 90731-6969,NA,NA,NA,not tested,LA,Los Angeles County,33.737466,-118.292337
Los Angeles Unified,Angeles Mesa Elementary,2611 West 52nd Street Los Angeles CA 90043-1917,NA,NA,NA,not tested,LA,Los Angeles County,33.995109,-118.321656
Los Angeles Unified,Animo College Preparatory Academy,2265 East 103rd Street Los Angeles CA 90002-3132,NA,NA,NA,not tested,LA,Los Angeles County,33.943026,-118.231326
Los Angeles Unified,Animo Ellen Ochoa Charter Middle,5156 Whittier Boulevard Los Angeles CA 90022-3932,NA,NA,NA,not tested,NA,Los Angeles County,34.020526,-118.158248
Los Angeles Unified,Animo Florence Firestone Charter Middle,155 West 69th St Los Angeles CA 90003-1823,NA,NA,NA,not tested,LA,Los Angeles County,33.977453,-118.275189
Los Angeles Unified,Animo Jackie Robinson High,3500 South Hill St. Los Angeles CA 90007-4333,NA,NA,NA,not tested,LA,Los Angeles County,34.01816,-118.275729
Los Angeles Unified,Animo James B. Taylor Charter Middle,810 East 111th Place Los Angeles CA 90059-1520,NA,NA,FALSE,tested,LA,Los Angeles County,33.934124,-118.263764
Los Angeles Unified,Animo Jefferson Charter Middle,1655 East 27th Street Suite A Los Angeles CA 90011-2202,NA,NA,FALSE,tested,Los Angeles,Los Angeles County,34.01271,-118.243982
Los Angeles Unified,Animo Mae Jemison Charter Middle,12700 Avalon Boulevard Los Angeles CA 90061-2730,NA,NA,FALSE,tested,NA,Los Angeles County,33.917521,-118.265149
Los Angeles Unified,Animo Pat Brown,8255 Beach Street Los Angeles CA 90001-4014,NA,NA,FALSE,tested,NA,Los Angeles County,33.963384,-118.242163
Los Angeles Unified,Animo Phillis Wheatley Charter Middle,12226 South Western Avenue Los Angeles CA 90047-5240,NA,NA,NA,not tested,LA,Los Angeles County,33.946335,-118.308982
Los Angeles Unified,Animo Ralph Bunche Charter High,1655 East 27th Street Suite B Los Angeles CA 90011-2202,NA,NA,FALSE,tested,Los Angeles,Los Angeles County,34.01271,-118.243982
Los Angeles Unified,Animo South Los Angeles Charter,12226 South Western Ave Los Angeles CA 90047-5240,NA,NA,NA,not tested,LA,Los Angeles County,33.946335,-118.308982
Los Angeles Unified,Animo Venice Charter High,820 Broadway Street Venice CA 90291-3408,NA,NA,NA,not tested,LA,Los Angeles County,33.996911,-118.463812
Los Angeles Unified,Animo Watts College Preparatory Academy,12628 Avalon Boulevard Los Angeles CA 90061-2728,NA,NA,FALSE,tested,NA,Los Angeles County,33.918463,-118.265137
Los Angeles Unified,Animo Westside Charter Middle,5456 McConnell Avenue Los Angeles CA 90066-2056,NA,NA,FALSE,tested,LA,Los Angeles County,33.977596,-118.418731
Los Angeles Unified,Ann Street Elementary,126 East Bloom Street Los Angeles CA 90012-1902,NA,NA,NA,not tested,Los Angeles,Los Angeles County,34.064325,-118.230276
Los Angeles Unified,Annalee Avenue Elementary,19410 South Annalee Avenue Carson CA 90746-2687,NA,NA,NA,not tested,Carson,Los Angeles County,33.854773,-118.252871
Los Angeles Unified,Annandale Elementary,6125 Poppy Peak Drive Los Angeles CA 90042-1331,NA,NA,NA,not tested,LA,Los Angeles County,34.128431,-118.186745
Los Angeles Unified,APEX Academy,1309 North Wilton Place 3rd Floor Los Angeles CA 90028-8526,NA,NA,NA,not tested,Los Angeles,Los Angeles County,34.096271,-118.314839
Los Angeles Unified,Apperson Street Elementary,10233 Woodward Avenue Sunland CA 91040-3343,NA,NA,NA,not tested,LA,Los Angeles County,34.255144,-118.307127
Los Angeles Unified,Apple Academy Charter Public,4920 South Western Avenue Los Angeles CA 90062-2326,NA,NA,NA,not tested,LA,Los Angeles County,33.998789,-118.308822
Los Angeles Unified,Aragon Avenue Elementary,1118 Aragon Avenue Los Angeles CA 90065-1704,NA,NA,NA,not tested,LA,Los Angeles County,34.09495,-118.224767
Los Angeles Unified,Ararat Charter,6555 Sylmar Avenue Van Nuys CA 91401-6202,NA,NA,NA,not tested,LA,Los Angeles County,34.189224,-118.446434
Los Angeles Unified,Arleta High,14200 Van Nuys Boulevard Arleta CA 91331-5103,NA,NA,NA,not tested,LA,Los Angeles County,34.251452,-118.442013
Los Angeles Unified,Arlington Heights Elementary,1717 Seventh Avenue Los Angeles CA 90019-6098,NA,NA,NA,not tested,Los Angeles,Los Angeles County,34.041192,-118.325023
Los Angeles Unified,Arminta Street Elementary,11530 Strathern Street North Hollywood CA 91605-1619,NA,NA,NA,not tested,LA,Los Angeles County,34.215789,-118.38274
Los Angeles Unified,Arroyo Seco Museum Science,4805 Sycamore Terrace Los Angeles CA 90042-4482,NA,NA,NA,not tested,LA,Los Angeles County,34.101876,-118.203346
Los Angeles Unified,Arts In Action Community Charter,1241 Soto Street Suite 212 Los Angeles CA 90023-2671,NA,NA,NA,not tested,Los Angeles,Los Angeles County,34.027525,-118.219859
Los Angeles Unified,Arts in Action Community Middle,1241 South Soto St Suite 212 Los Angeles CA 90023-2672,NA,NA,NA,not tested,Los Angeles,Los Angeles County,34.027525,-118.219859
Los Angeles Unified,Ascot Avenue Elementary,1447 East 45th Street Los Angeles CA 90011-3813,NA,NA,NA,not tested,LA,Los Angeles County,34.003074,-118.248177
Los Angeles Unified,Aspire Centennial College Preparatory Academy,2079 Saturn Avenue Huntington Park CA 90255-3635,NA,NA,FALSE,tested,NA,Los Angeles County,33.977002,-118.233739
Los Angeles Unified,Aspire Firestone Academy Charter,8929 Kauffman Avenue South Gate CA 90280-3422,NA,NA,FALSE,tested,South Gate,Los Angeles County,33.951685,-118.189167
Los Angeles Unified,Aspire Gateway Academy Charter,8929 Kauffman Avenue South Gate CA 90280-3422,NA,NA,NA,not tested,South Gate,Los Angeles County,33.951685,-118.189167
Los Angeles Unified,Aspire Huntington Park Charter,6005 Stafford Avenue Huntington Park CA 90255,NA,NA,NA,not tested,NA,Los Angeles County,33.987025,-118.221467
Los Angeles Unified,Aspire Inskeep Academy Charter,123 West 59th Street Los Angeles CA 90003-1103,NA,NA,NA,not tested,LA,Los Angeles County,33.987027,-118.2745
Los Angeles Unified,Aspire Juanita Tate Academy Charter,123 West 59th St Los Angeles CA 90003-1103,NA,NA,NA,not tested,LA,Los Angeles County,33.987027,-118.2745
Los Angeles Unified,Aspire Junior Collegiate Academy,6724 South Alameda Street Huntington Park CA 90255-4139,NA,NA,FALSE,tested,Los Angeles,Los Angeles County,33.979472,-118.235742
Los Angeles Unified,Aspire Pacific Academy,2565 58th Street Huntington Park CA 90255-4126,NA,NA,FALSE,tested,Huntington Park,Los Angeles County,33.990415,-118.226073
Los Angeles Unified,Aspire Slauson Academy Charter,123B West 59th Street Los Angeles CA 90003-1103,NA,NA,NA,not tested,LA,Los Angeles County,33.987027,-118.2745
Los Angeles Unified,Aspire Titan Academy,6720 South Alameda St Huntington Park CA 90255-3617,NA,NA,FALSE,tested,Los Angeles,Los Angeles County,33.979472,-118.235742
Los Angeles Unified,Atwater Avenue Elementary,3271 Silver Lake Boulevard Los Angeles CA 90039-2253,NA,NA,NA,not tested,LA,Los Angeles County,34.11497,-118.254409
Los Angeles Unified,Audubon Middle,4120 11th Ave. Los Angeles CA 90008-3712,NA,NA,NA,not tested,LA,Los Angeles County,34.00964,-118.329487
Los Angeles Unified,Augustus F. Hawkins High A Critical Design and Gaming,825 West 60th Street Los Angeles CA 90044-5512,NA,NA,NA,not tested,LA,Los Angeles County,33.98561,-118.287645
Los Angeles Unified,Augustus F. Hawkins High B Community Health Advocates,825 West 60th Street Los Angeles CA 90044-5512,NA,NA,NA,not tested,LA,Los Angeles County,33.98561,-118.287645
Los Angeles Unified,Augustus F. Hawkins High C Responsible Indigenous Social Entrepreneurship,825 West 60th Street Los Angeles CA 90044-5512,NA,NA,NA,not tested,LA,Los Angeles County,33.98561,-118.287645
Los Angeles Unified,Aurora Elementary,1050 East 52nd Place Los Angeles CA 90011-4616,NA,NA,FALSE,tested,LA,Los Angeles County,33.994977,-118.257521
Los Angeles Unified,Avalon Gardens Elementary,13940 South San Pedro Street Los Angeles CA 90061-2624,NA,NA,NA,not tested,LA,Los Angeles County,34.015629,-118.265096
Los Angeles Unified,Avalon High,1425 North Avalon Boulevard Wilmington CA 90744-1506,NA,NA,FALSE,tested,LA,Los Angeles County,33.791734,-118.263451
Los Angeles Unified,Balboa Gifted/High Ability Magnet Elementary,17020 Labrador Street Northridge CA 91325-1906,NA,NA,NA,not tested,LA,Los Angeles County,34.24907,-118.50318
Los Angeles Unified,Baldwin Hills Elementary,5421 Rodeo Road Los Angeles CA 90016-5122,NA,NA,NA,not tested,LA,Los Angeles County,34.02154,-118.357683
Los Angeles Unified,Bandini Street Elementary,425 North Bandini Street San Pedro CA 90731-1804,NA,NA,NA,not tested,LA,Los Angeles County,33.746497,-118.298998
Los Angeles Unified,Banning Academies of Creative and Innovative Sciences (BACIS),1527 Lakme Avenue Wilmington CA 90744-1526,NA,NA,NA,not tested,LA,Los Angeles County,33.794058,-118.260835
Los Angeles Unified,Barack Obama Global Preparation Academy,1700 West 46th Street Los Angeles CA 90062-1901,NA,NA,NA,not tested,LA,Los Angeles County,34.00182,-118.309065
Los Angeles Unified,Barton Hill Elementary,423 North Pacific Avenue San Pedro CA 90731-2019,NA,NA,NA,not tested,LA,Los Angeles County,33.746284,-118.287963
Los Angeles Unified,Bassett Street Elementary,15756 Bassett Street Van Nuys CA 91406-5007,NA,NA,NA,not tested,LA,Los Angeles County,34.195642,-118.476162
Los Angeles Unified,Beachy Avenue Elementary,9757 Beachy Avenue Arleta CA 91331-5306,NA,NA,NA,not tested,LA,Los Angeles County,34.247735,-118.438017
Los Angeles Unified,Beckford Charter for Enriched Studies,19130 Tulsa Street Northridge CA 91326-2645,NA,NA,NA,not tested,Los Angeles,Los Angeles County,34.267732,-118.548831
Los Angeles Unified,Beethoven Street Elementary,3711 Beethoven Street Los Angeles CA 90066-3517,NA,NA,NA,not tested,LA,Los Angeles County,34.002232,-118.44319
Los Angeles Unified,Bell Senior High,4328 Bell Avenue Bell CA 90201-2528,NA,NA,NA,not tested,NA,Los Angeles County,33.974655,-118.190497
Los Angeles Unified,Bellingham Elementary,6728 Bellingham Avenue North Hollywood CA 91606-1408,NA,NA,NA,not tested,LA,Los Angeles County,34.192817,-118.398127
Los Angeles Unified,Belmont Community Adult,1575 West Second St. Los Angeles CA 90026-5701,NA,NA,FALSE,tested,Los Angeles,Los Angeles County,34.061282,-118.262913
Los Angeles Unified,Belmont Senior High,1575 West 2nd St. Los Angeles CA 90026-5701,NA,NA,NA,not tested,LA,Los Angeles County,34.061339,-118.263384
Los Angeles Unified,Belvedere Elementary,3724 East First Street Los Angeles CA 90063-2390,NA,NA,NA,not tested,Los Angeles,Los Angeles County,34.035759,-118.186273
Los Angeles Unified,Belvedere Middle,312 North Record Avenue Los Angeles CA 90063-1824,NA,NA,NA,not tested,NA,Los Angeles County,34.039472,-118.182162
Los Angeles Unified,Benjamin Banneker Career and Transition Center,14024 South San Pedro Street Los Angeles CA 90061-2659,NA,NA,NA,not tested,LA,Los Angeles County,34.015629,-118.265096
Los Angeles Unified,Benjamin Franklin Community,820 North Avenue 54 Los Angeles CA 90042-2428,NA,NA,NA,not tested,LA,Los Angeles County,34.115592,-118.199027
Los Angeles Unified,Benjamin Franklin Senior High,820 North Avenue 54 Los Angeles CA 90042-2428,NA,NA,NA,not tested,LA,Los Angeles County,34.115592,-118.199027
Los Angeles Unified,Berendo Middle,1157 South Berendo Street Los Angeles CA 90006-3301,NA,NA,NA,not tested,LA,Los Angeles County,34.049886,-118.293798
Los Angeles Unified,Berenece Carlson Home Hospital,10952 Whipple Street North Hollywood CA 91602-3235,NA,NA,NA,not tested,LA,Los Angeles County,34.147986,-118.36883
Los Angeles Unified,Bert Corona Charter,9400 Remick Avenue Pacoima CA 91331-4223,NA,NA,NA,not tested,LA,Los Angeles County,34.2422,-118.417402
Los Angeles Unified,Bert Corona Charter High,12513 Gain St Pacoima CA 91331-1628,NA,NA,NA,not tested,LA,Los Angeles County,34.270127,-118.405807
Los Angeles Unified,Bertrand Avenue Elementary,7021 Bertrand Avenue Reseda CA 91335-4711,NA,NA,NA,not tested,LA,Los Angeles County,34.197935,-118.524448
Los Angeles Unified,Betty Plasencia Elementary,1321 Cortez Street Los Angeles CA 90026-5622,NA,NA,NA,not tested,LA,Los Angeles County,34.065784,-118.256106
Los Angeles Unified,Birdielee V. Bright Elementary,1771 West 36th Street Los Angeles CA 90018-3812,NA,NA,NA,not tested,LA,Los Angeles County,34.022895,-118.310976
Los Angeles Unified,Birmingham Community Charter High,17000 Haynes Street Van Nuys CA 91406-5420,NA,NA,NA,not tested,LA,Los Angeles County,34.189212,-118.47518
Los Angeles Unified,Blythe Street Elementary,18730 Blythe Street Reseda CA 91335-1801,NA,NA,NA,not tested,LA,Los Angeles County,34.214636,-118.541148
Los Angeles Unified,Bonita Street Elementary,21929 Bonita Street Carson CA 90745-3406,NA,NA,NA,not tested,Carson,Los Angeles County,33.828912,-118.259405
Los Angeles Unified,Boyle Heights Continuation,544 South Mathews Street Los Angeles CA 90033-4348,NA,NA,NA,not tested,LA,Los Angeles County,34.037855,-118.212006
Los Angeles Unified,Boyle Heights STEM High,456 S. Mathews Boulevard Los Angeles CA 90033-4326,NA,NA,NA,not tested,Los Angeles,Los Angeles County,34.037522,-118.212006
Los Angeles Unified,Braddock Drive Elementary,4711 Inglewood Boulevard Culver City CA 90230-5823,NA,NA,NA,not tested,LA,Los Angeles County,33.993521,-118.415906
Los Angeles Unified,Brainard Elementary,11407 Brainard Avenue Lake View Terrace CA 91342-6805,NA,NA,NA,not tested,LA,Los Angeles County,34.277912,-118.363322
Los Angeles Unified,Breed Street Elementary,2226 East 3rd Street Los Angeles CA 90033-3906,NA,NA,NA,not tested,LA,Los Angeles County,34.042363,-118.213325
Los Angeles Unified,Brentwood Science,740 Gretna Green Way Los Angeles CA 90049-4927,NA,NA,NA,not tested,LA,Los Angeles County,34.050683,-118.475031
Los Angeles Unified,Bret Harte Preparatory Middle,9301 South Hoover Street Los Angeles CA 90044-4722,NA,NA,NA,not tested,LA,Los Angeles County,33.951894,-118.287048
Los Angeles Unified,Bridge Street Elementary,605 North Boyle Avenue Los Angeles CA 90033-1603,NA,NA,NA,not tested,Los Angeles,Los Angeles County,34.052648,-118.216889
Los Angeles Unified,Bright Star Secondary Charter Academy,5431 West 98th Street Los Angeles CA 90045-5715,NA,NA,NA,not tested,LA,Los Angeles County,33.947784,-118.375703
Los Angeles Unified,Broad Avenue Elementary,24815 Broad Avenue Wilmington CA 90744-1036,NA,NA,NA,not tested,LA,Los Angeles County,33.781312,-118.260891
Los Angeles Unified,Broadacres Avenue Elementary,19424 South Broadacres Avenue Carson CA 90746-2710,NA,NA,NA,not tested,Carson,Los Angeles County,33.854505,-118.240187
Los Angeles Unified,Broadway Elementary,1015 Lincoln Boulevard Venice CA 90291-3506,NA,NA,NA,not tested,LA,Los Angeles County,33.99813,-118.461391
Los Angeles Unified,Brockton Avenue Elementary,1309 Armacost Avenue Los Angeles CA 90025-1459,NA,NA,NA,not tested,LA,Los Angeles County,34.044683,-118.462737
Los Angeles Unified,Brooklyn Avenue Elementary,4620 Cesar Chavez Avenue Los Angeles CA 90022-1148,NA,NA,NA,not tested,East Los Angeles,Los Angeles County,34.039709,-118.164207
Los Angeles Unified,Bryson Avenue Elementary,4470 Missouri Avenue South Gate CA 90280-5057,NA,NA,FALSE,tested,South Gate,Los Angeles County,33.944275,-118.192762
Los Angeles Unified,Buchanan Street Elementary,5024 Buchanan Street Los Angeles CA 90042-2340,NA,NA,NA,not tested,LA,Los Angeles County,34.119515,-118.206801
Los Angeles Unified,Budlong Avenue Elementary,5940 South Budlong Ave Los Angeles CA 90044-2815,NA,NA,NA,not tested,LA,Los Angeles County,33.987161,-118.295742
Los Angeles Unified,Burbank Boulevard Elementary,12215 Albers Street North Hollywood CA 91607-2011,NA,NA,NA,not tested,LA,Los Angeles County,34.170496,-118.38224
Los Angeles Unified,Burton Street Elementary,8111 Calhoun Avenue Panorama City CA 91402-5305,NA,NA,NA,not tested,LA,Los Angeles County,34.218804,-118.441494
Los Angeles Unified,Bushnell Way Elementary,5507 Bushnell Way Los Angeles CA 90042-4822,NA,NA,NA,not tested,LA,Los Angeles County,34.102331,-118.188887
Los Angeles Unified,Cabrillo Avenue Elementary,732 South Cabrillo Avenue San Pedro CA 90731-3025,NA,NA,NA,not tested,LA,Los Angeles County,33.737532,-118.294437
Los Angeles Unified,Cahuenga Elementary,220 South Hobart Boulevard Los Angeles CA 90004-5208,NA,NA,NA,not tested,LA,Los Angeles County,34.070644,-118.305391
Los Angeles Unified,Cal Burke High,14630 Lanark Street Panorama City CA 91402-4917,NA,NA,NA,not tested,LA,Los Angeles County,34.217851,-118.451858
Los Angeles Unified,Calabash Charter Academy,23055 Eugene Street Woodland Hills CA 91364-3723,NA,NA,NA,not tested,LA,Los Angeles County,34.157982,-118.629052
Los Angeles Unified,Calahan Community Charter,18722 Knapp Street Northridge CA 91324-3027,NA,NA,NA,not tested,LA,Los Angeles County,34.238075,-118.540993
Los Angeles Unified,Calvert Charter for Enriched Studies,19850 Delano Street Woodland Hills CA 91367-3816,NA,NA,NA,not tested,Los Angeles,Los Angeles County,34.181774,-118.565165
Los Angeles Unified,Camellia Avenue Elementary,7451 Camellia Avenue North Hollywood CA 91605-3312,NA,NA,NA,not tested,LA,Los Angeles County,34.205749,-118.382423
Los Angeles Unified,Camino Nuevo Academy #2,1575 West 2nd Street Los Angeles CA 90026-5701,NA,NA,FALSE,tested,LA,Los Angeles County,34.061339,-118.263384
Los Angeles Unified,Camino Nuevo Charter Academy,697 South Burlington Avenue Los Angeles CA 90057-3743,NA,NA,FALSE,tested,LA,Los Angeles County,34.055141,-118.273437
Los Angeles Unified,Camino Nuevo Charter Academy No. 4,1018 Mohawk Street Los Angeles CA 90026-3131,NA,NA,NA,not tested,LA,Los Angeles County,34.07658,-118.265345
Los Angeles Unified,Camino Nuevo Charter High,1215 West Miramar Street Los Angeles CA 90026-6115,NA,NA,NA,not tested,LA,Los Angeles County,34.057393,-118.257687
Los Angeles Unified,Camino Nuevo Elementary No. 3,1723 Cordova Street Los Angeles CA 90007-1114,NA,NA,NA,not tested,LA,Los Angeles County,34.039123,-118.295869
Los Angeles Unified,Camino Nuevo High No. 2,3500 West Temple Street Los Angeles CA 90004-3620,NA,NA,NA,not tested,LA,Los Angeles County,34.058947,-118.24741
Los Angeles Unified,Canfield Avenue Elementary,9233 Airdrome Street Los Angeles CA 90035-3201,NA,NA,NA,not tested,LA,Los Angeles County,34.049839,-118.390435
Los Angeles Unified,Canoga Park Elementary,7438 Topanga Canyon Boulevard Canoga Park CA 91303-1210,NA,NA,NA,not tested,LA,Los Angeles County,34.20575,-118.606128
Los Angeles Unified,Canoga Park Senior High,6850 Topanga Canyon Boulevard Canoga Park CA 91303-2354,NA,NA,NA,not tested,LA,Los Angeles County,34.194654,-118.606097
Los Angeles Unified,Cantara Street Elementary,17950 Cantara Street Reseda CA 91335-1408,NA,NA,NA,not tested,LA,Los Angeles County,34.219171,-118.524652
Los Angeles Unified,Canterbury Avenue Elementary,13670 Montague Street Pacomia CA 91331-6129,NA,NA,NA,not tested,Los Angeles,Los Angeles County,34.232913,-118.429194
Los Angeles Unified,Canyon Charter Elementary,421 Entrada Drive Santa Monica CA 90402-1303,NA,NA,NA,not tested,Santa Monica,Los Angeles County,34.033663,-118.508908
Los Angeles Unified,Capistrano Avenue Elementary,8118 Capistrano Avenue West Hills CA 91304-3730,NA,NA,NA,not tested,LA,Los Angeles County,34.217192,-118.616961
Los Angeles Unified,Carlos Santana Arts Academy,9301 Columbus Avenue North Hills CA 91343-2229,NA,NA,NA,not tested,LA,Los Angeles County,34.228716,-118.465479
Los Angeles Unified,Caroldale Learning Community,22424 Caroldale Avenue Carson CA 90745-3654,NA,NA,NA,not tested,Carson,Los Angeles County,33.822232,-118.283818
Los Angeles Unified,Carpenter Community Charter,3909 Carpenter Avenue Studio City CA 91604-3732,NA,NA,NA,not tested,LA,Los Angeles County,34.140764,-118.392177
Los Angeles Unified,Carson Senior High,22328 South Main Street Carson CA 90745-4525,NA,NA,NA,not tested,Carson,Los Angeles County,33.857968,-118.276641
Los Angeles Unified,Carson Street Elementary,161 East Carson Street Carson CA 90745-2772,NA,NA,NA,not tested,Carson,Los Angeles County,33.831738,-118.215945
Los Angeles Unified,Carson-Gore Academy of Enviornmental Studies,3200 West Washington Boulevard Los Angeles CA 90018-1248,NA,NA,NA,not tested,LA,Los Angeles County,34.039825,-118.319034
Los Angeles Unified,Carthay Elementary Of Environmental Studies Magnet,6351 West Olympic Boulevard Los Angeles CA 90048-5411,NA,NA,NA,not tested,LA,Los Angeles County,34.058892,-118.369315
Los Angeles Unified,Castelar Street Elementary,840 Yale Street Los Angeles CA 90012-2328,NA,NA,NA,not tested,LA,Los Angeles County,34.063869,-118.240352
Los Angeles Unified,Castle Heights Elementary,9755 Cattaraugus Avenue Los Angeles CA 90034-2352,NA,NA,NA,not tested,LA,Los Angeles County,34.037245,-118.397679
Los Angeles Unified,Castlebay Lane Charter,19010 Castlebay Lane Northridge CA 91326-1005,NA,NA,NA,not tested,Los Angeles,Los Angeles County,34.293679,-118.547515
Los Angeles Unified,Catskill Avenue Elementary,23536 Catskill Avenue Carson CA 90745-5412,NA,NA,NA,not tested,Carson,Los Angeles County,33.812408,-118.27118
Los Angeles Unified,CDS Elementary,333 South Beaudry Avenue 18th Floor Los Angeles CA 90017-5108,NA,NA,NA,not tested,Los Angeles,Los Angeles County,34.056143,-118.257322
Los Angeles Unified,CDS Secondary,727 South Wilson Street Los Angeles CA 90021-1625,NA,NA,NA,not tested,Los Angeles,Los Angeles County,34.033696,-118.234799
Los Angeles Unified,Celerity Cardinal Charter,7330 Bakman Avenue Sun Valley CA 91352-4914,NA,NA,NA,not tested,LA,Los Angeles County,34.203613,-118.377792
Los Angeles Unified,Celerity Dyad Charter,4501 South Wadsworth Los Angeles CA 90011-3637,NA,NA,NA,not tested,Los Angeles,Los Angeles County,34.00261,-118.259286
Los Angeles Unified,Celerity Nascent Charter,3417 West Jefferson Boulevard Los Angeles CA 90018-3235,NA,NA,NA,not tested,LA,Los Angeles County,34.025673,-118.332999
Los Angeles Unified,Celerity Octavia Charter,3010 Estara Avenue Los Angeles CA 90065-2205,NA,NA,NA,not tested,LA,Los Angeles County,34.116863,-118.239889
Los Angeles Unified,Celerity Palmati Charter,6501 Laurel Canyon Blvd North Hollywood CA 91606-1520,NA,NA,NA,not tested,LA,Los Angeles County,34.188612,-118.39661
Los Angeles Unified,Celerity Troika Charter,1495 Colorado Boulevard Los Angeles CA 90041-2340,NA,NA,NA,not tested,LA,Los Angeles County,34.139284,-118.197909
Los Angeles Unified,Center for Advanced Learning,4016 South Central Avenue Los Angeles CA 90011-2708,NA,NA,NA,not tested,LA,Los Angeles County,33.92528,-118.254327
Los Angeles Unified,Central City Value,221 North Westmoreland Avenue Los Angeles CA 90004-4815,NA,NA,FALSE,tested,LA,Los Angeles County,34.075035,-118.288002
Los Angeles Unified,Central High,716 East 14th Street Los Angeles CA 90021-2114,NA,NA,NA,not tested,LA,Los Angeles County,34.031903,-118.254091
Los Angeles Unified,Century Park Elementary,10935 South Spinning Avenue Inglewood CA 90303-2599,NA,NA,NA,not tested,Inglewood,Los Angeles County,33.937277,-118.318933
Los Angeles Unified,Cesar E. Chavez Learning Academies-Academy of Scientific Exploration (ASE),1001 Arroyo Avenue San Fernando CA 91340-1817,NA,NA,NA,not tested,NA,San Diego County,33.447198,-117.569783
Los Angeles Unified,Cesar E. Chavez Learning Academies-Social Justice Humanitas Academy,1001 Arroyo Ave San Fernando CA 91340-1817,NA,NA,NA,not tested,NA,San Diego County,33.447198,-117.569783
Los Angeles Unified,Cesar E. Chavez Learning Academies-Teacher Preparation Academy,1001 Arroyo Ave B San Fernando CA 91340-1817,NA,NA,NA,not tested,San Fernando,Los Angeles County,34.288673,-118.420839
Los Angeles Unified,Cesar E. Chavez Learning Academy - Arts/Theatre/Entertain Mag,1001 Arroyo Ave C San Fernando CA 91340-1817,NA,NA,NA,not tested,San Fernando,Los Angeles County,34.288673,-118.420839
Los Angeles Unified,CHAMPS - Charter HS of Arts-Multimedia & Performing,6842 Van Nuys Boulevard Van Nuys CA 91405-3984,NA,NA,NA,not tested,LA,Los Angeles County,34.195031,-118.448622
Los Angeles Unified,Chandler Learning Academy,14030 Weddington Street Sherman Oaks CA 91401-5753,NA,NA,NA,not tested,LA,Los Angeles County,34.166594,-118.438424
Los Angeles Unified,Chapman Elementary,1947 Marine Avenue Gardena CA 90249-3803,NA,NA,NA,not tested,Gardena,Los Angeles County,33.894765,-118.312388
Los Angeles Unified,Charles H. Kim Elementary,225 South Oxford Avenue Los Angeles CA 90004-5104,NA,NA,NA,not tested,LA,Los Angeles County,34.070549,-118.308006
Los Angeles Unified,Charles Leroy Lowman Special Education Center,12827 Saticoy Street North Hollywood CA 91605-3506,NA,NA,NA,not tested,LA,Los Angeles County,34.208475,-118.398049
Los Angeles Unified,Charles Maclay Middle,12540 Pierce Avenue Pacoima CA 91331-1701,NA,NA,NA,not tested,Los Angeles,Los Angeles County,34.271245,-118.406063
Los Angeles Unified,Charles W. Barrett Elementary,419 West 98th Street Los Angeles CA 90003-3916,NA,NA,NA,not tested,LA,Los Angeles County,33.947284,-118.280727
Los Angeles Unified,Charles White Elementary,2401 Wilshire Boulevard Los Angeles CA 90057-3304,NA,NA,NA,not tested,LA,Los Angeles County,34.060253,-118.279393
Los Angeles Unified,Charnock Road Elementary,11133 Charnock Road Los Angeles CA 90034-6506,NA,NA,NA,not tested,LA,Los Angeles County,34.017169,-118.41987
Los Angeles Unified,Chase Street Elementary,14041 Chase Street Panorama City CA 91402-3222,NA,NA,NA,not tested,LA,Los Angeles County,34.226366,-118.439678
Los Angeles Unified,Chatsworth Charter High,10027 Lurline Avenue Chatsworth CA 91311-3153,NA,NA,NA,not tested,LA,Los Angeles County,34.252346,-118.584284
Los Angeles Unified,Chatsworth Park Elementary,22005 Devonshire Street Chatsworth CA 91311-2841,NA,NA,NA,not tested,LA,Los Angeles County,34.257249,-118.589287
Los Angeles Unified,Cheremoya Avenue Elementary,6017 Franklin Avenue Los Angeles CA 90028-5517,NA,NA,NA,not tested,LA,Los Angeles County,34.105333,-118.320748
Los Angeles Unified,Chester W. Nimitz Middle,6021 Carmelita Avenue Huntington Park CA 90255-3320,NA,NA,NA,not tested,NA,Los Angeles County,33.98603,-118.196999
Los Angeles Unified,Cheviot Hills Continuation,9200 Cattaraugus Avenue Los Angeles CA 90034-1906,6.4,ppb,TRUE,tested,LA,Los Angeles County,34.035637,-118.392526
Los Angeles Unified,CHIME Institute's Schwarzenegger Community,19722 Collier Street Woodland Hills CA 91364-3618,NA,NA,NA,not tested,Los Angeles,Los Angeles County,34.165538,-118.562994
Los Angeles Unified,Christa McAuliffe,8914 Hunt Ave. South Gate CA 90280,NA,NA,FALSE,tested,South Gate,Los Angeles County,33.947243,-118.191798
Los Angeles Unified,Christopher Columbus Middle,22250 Elkwood Street Canoga Park CA 91304-5501,NA,NA,NA,not tested,LA,Los Angeles County,34.21272,-118.612039
Los Angeles Unified,Christopher Dena Elementary,1314 Dacotah Street Los Angeles CA 90023-2707,NA,NA,NA,not tested,Los Angeles,Los Angeles County,34.022107,-118.211225
Los Angeles Unified,Cienega Elementary,2611 South Orange Drive Los Angeles CA 90016-3515,NA,NA,NA,not tested,LA,Los Angeles County,34.032239,-118.353324
Los Angeles Unified,Cimarron Avenue Elementary,11559 Cimarron Avenue Hawthorne CA 90250-1914,NA,NA,NA,not tested,Hawthorne,Los Angeles County,33.928894,-118.315213
Los Angeles Unified,Citizens of the World 2,5620 De Longpre Avenue Los Angeles CA 90028-8506,NA,NA,NA,not tested,LA,Los Angeles County,34.096758,-118.311445
Los Angeles Unified,Citizens of the World 3,11561 Gateway Boulevard Los Angeles CA 90064-3009,NA,NA,NA,not tested,LA,Los Angeles County,34.031103,-118.442482
Los Angeles Unified,Citizens of the World Charter Hollywood,1316 North Bronson Avenue Los Angeles CA 90028-8497,NA,NA,NA,not tested,LA,Los Angeles County,34.094723,-118.317842
Los Angeles Unified,City High,4650 West Olympic Boulevard B Los Angeles CA 90019-1831,NA,NA,NA,not tested,Los Angeles,Los Angeles County,34.055405,-118.332985
Los Angeles Unified,City Language Immersion Charter,4041 Hilcrest Drive Los Angeles CA 90008-2902,NA,NA,FALSE,tested,Los Angeles,Los Angeles County,34.013276,-118.347633
Los Angeles Unified,City of Angels,221 South Eastman Avenue Los Angeles CA 90063-2423,NA,NA,NA,not tested,NA,Los Angeles County,34.033391,-118.185791
Los Angeles Unified,City Terrace Elementary,4350 City Terrace Drive Los Angeles CA 90063-1049,NA,NA,NA,not tested,NA,Los Angeles County,34.057633,-118.172516
Los Angeles Unified,Clifford Street Elementary,2150 Duane Street Los Angeles CA 90039-3919,NA,NA,NA,not tested,LA,Los Angeles County,34.089259,-118.257816
Los Angeles Unified,Clover Avenue Elementary,11020 Clover Avenue Los Angeles CA 90034-3010,NA,NA,NA,not tested,LA,Los Angeles County,34.027133,-118.426011
Los Angeles Unified,Coeur D'Alene Avenue Elementary,810 Coeur D'Alene Avenue Venice CA 90291-4927,NA,NA,NA,not tested,Los Angeles,Los Angeles County,33.989393,-118.453406
Los Angeles Unified,Cohasset Street Elementary,15810 Saticoy Street Van Nuys CA 91406-3128,NA,NA,NA,not tested,LA,Los Angeles County,34.208357,-118.477458
Los Angeles Unified,Coldwater Canyon Elementary,6850 Coldwater Canyon Avenue North Hollywood CA 91605-5103,NA,NA,NA,not tested,LA,Los Angeles County,34.19488,-118.41369
Los Angeles Unified,Colfax Charter Elementary,11724 Addison Street North Hollywood CA 91607-3202,NA,NA,NA,not tested,LA,Los Angeles County,34.161257,-118.383373
Los Angeles Unified,Coliseum Street Elementary,4400 Coliseum Street Los Angeles CA 90016-5734,NA,NA,FALSE,tested,LA,Los Angeles County,34.018168,-118.344345
Los Angeles Unified,Collegiate Charter High School of Los Angeles,312 North Record Ave Los Angeles CA 90033-1824,NA,NA,NA,not tested,NA,Los Angeles County,34.039472,-118.182162
Los Angeles Unified,Columbus Avenue,6700 Columbus Avenue Van Nuys CA 91405-4513,NA,NA,NA,not tested,LA,Los Angeles County,34.192227,-118.463903
Los Angeles Unified,Commonwealth Avenue Elementary,215 South Commonwealth Avenue Los Angeles CA 90004-6103,NA,NA,NA,not tested,LA,Los Angeles County,34.07014,-118.285818
Los Angeles Unified,Community Magnet Charter Elementary,11301 Bellagio Road Los Angeles CA 90049-1705,NA,NA,NA,not tested,LA,Los Angeles County,34.081646,-118.462384
Los Angeles Unified,Community Preparatory Academy,7511 Raymond Avenue Los Angeles CA 90044-2430,NA,NA,NA,not tested,LA,Los Angeles County,33.972249,-118.298206
Los Angeles Unified,Compton Avenue Elementary,1515 East 104th Street Los Angeles CA 90002-3559,NA,NA,NA,not tested,LA,Los Angeles County,33.941201,-118.247043
Los Angeles Unified,Contreras Learning Center-Academic Leadership Community,322 Lucas Avenue Los Angeles CA 90017-1406,NA,NA,NA,not tested,LA,Los Angeles County,34.058003,-118.261661
Los Angeles Unified,Contreras Learning Center-Los Angeles School of Global Studies,322 Lucas Ave Los Angeles CA 90017-1406,NA,NA,NA,not tested,LA,Los Angeles County,34.058003,-118.261661
Los Angeles Unified,Contreras Learning Center-School of Social Justice,322 South Lucas Avenue Los Angeles CA 90017-1406,NA,NA,NA,not tested,Los Angeles,Los Angeles County,34.057799,-118.261113
Los Angeles Unified,Corona Avenue Elementary,3825 Bell Avenue Bell CA 90201-2308,NA,NA,NA,not tested,NA,Los Angeles County,33.97562,-118.197934
Los Angeles Unified,Cowan Avenue Elementary,7615 Cowan Avenue Los Angeles CA 90045-1206,NA,NA,NA,not tested,LA,Los Angeles County,33.972959,-118.404939
Los Angeles Unified,Crenshaw Arts-Technology Charter High,4120 11th Avenue Los Angeles CA 90008-3712,NA,NA,NA,not tested,LA,Los Angeles County,34.00964,-118.329487
Los Angeles Unified,"Crenshaw Science, Technology, Engineering, Math and Medicine Magnet",5010 11th Avenue Los Angeles CA 90043-4816,NA,NA,NA,not tested,LA,Los Angeles County,33.998016,-118.329265
Los Angeles Unified,Crescent Heights Boulevard Elementary,1661 South Crescent Heights Los Angeles CA 90035-4529,NA,NA,NA,not tested,Los Angeles,Los Angeles County,34.047263,-118.373998
Los Angeles Unified,Crestwood Street Elementary,1946 West Crestwood Street Rancho Palos Verdes CA 90275-1302,NA,NA,NA,not tested,Rancho Palos Verdes,Los Angeles County,33.749735,-118.31246
Los Angeles Unified,Crete Academy,5125 Crenshaw Blvd. Los Angeles CA 90043,NA,NA,FALSE,tested,Los Angeles,Los Angeles County,33.995985,-118.331195
Los Angeles Unified,Crown Preparatory Academy,2055 West 24th Street Los Angeles CA 90018-1925,NA,NA,NA,not tested,LA,Los Angeles County,34.034639,-118.310758
Los Angeles Unified,Dahlia Heights Elementary,5063 Floristan Avenue Los Angeles CA 90041-2350,NA,NA,NA,not tested,LA,Los Angeles County,34.138638,-118.198877
Los Angeles Unified,Daniel Pearl Journalism & Communications Magnet,6649 Balboa Boulevard Van Nuys CA 91406-5529,NA,NA,NA,not tested,Los Angeles,Los Angeles County,34.191306,-118.501882
Los Angeles Unified,Daniel Webster Middle,11330 West Graham Place Los Angeles CA 90064-3725,NA,NA,NA,not tested,Los Angeles,Los Angeles County,34.029868,-118.43476
Los Angeles Unified,"Danny J. Bakewell, Sr., Primary Center",8621 South Baring Cross Street Los Angeles CA 90044-4801,NA,NA,NA,not tested,LA,Los Angeles County,33.959728,-118.289438
Los Angeles Unified,Danube Avenue Elementary,11220 Danube Avenue Granada Hills CA 91344-4319,NA,NA,NA,not tested,LA,Los Angeles County,34.274378,-118.474814
Los Angeles Unified,Darby Avenue Charter,10818 Darby Avenue Northridge CA 91326-3112,NA,NA,NA,not tested,LA,Los Angeles County,34.242431,-118.533787
Los Angeles Unified,David Starr Jordan Senior High,2265 East 103rd St Los Angeles CA 90002-3132,NA,NA,NA,not tested,LA,Los Angeles County,33.943026,-118.231326
Los Angeles Unified,David Wark Griffith Middle,4765 East Fourth Street Los Angeles CA 90022-1846,NA,NA,NA,not tested,East Los Angeles,Los Angeles County,34.031283,-118.16205
Los Angeles Unified,Dayton Heights Elementary,607 North Westmoreland Avenue Los Angeles CA 90004-2299,NA,NA,NA,not tested,LA,Los Angeles County,34.081994,-118.288104
Los Angeles Unified,Dearborn Elementary Charter Academy,9240 Wish Avenue Northridge CA 91325-2533,NA,NA,NA,not tested,LA,Los Angeles County,34.238706,-118.508315
Los Angeles Unified,Del Amo Elementary,21228 Water Street Carson CA 90745-1849,NA,NA,NA,not tested,Carson,Los Angeles County,33.836493,-118.240832
Los Angeles Unified,Delevan Drive Elementary,4168 West Avenue 42 Los Angeles CA 90065-4631,NA,NA,NA,not tested,LA,Los Angeles County,34.126928,-118.227117
Los Angeles Unified,Denker Avenue Elementary,1620 West 162nd Street Gardena CA 90247-3734,NA,NA,NA,not tested,Gardena,Los Angeles County,33.883695,-118.304775
Los Angeles Unified,Diane S. Leichman Special Education Center,19034 Gault Street Reseda CA 91335-3910,NA,NA,NA,not tested,LA,Los Angeles County,34.1992,-118.547914
Los Angeles Unified,Discovery Charter Preparatory #2,12550 Van Nuys Boulevard Pacoima CA 91331-1354,NA,NA,FALSE,tested,LA,Los Angeles County,34.257511,-118.433799
Los Angeles Unified,District Offices,16700 Norwalk Blvd Cerritos  CA 90703,NA,NA,FALSE,tested,Cerritos,Los Angeles County,33.879699,-118.072594
Los Angeles Unified,Dixie Canyon Community Charter,4220 Dixie Canyon Avenue Sherman Oaks CA 91423-3904,NA,NA,NA,not tested,LA,Los Angeles County,34.147143,-118.424776
Los Angeles Unified,Dolores Huerta Elementary,260 East 31st Street Los Angeles CA 90011-1910,NA,NA,NA,not tested,LA,Los Angeles County,34.020167,-118.269443
Los Angeles Unified,Dolores Street Elementary,22526 Dolores Street Carson CA 90745-3810,NA,NA,NA,not tested,Carson,Los Angeles County,33.821769,-118.272251
Los Angeles Unified,Dominguez Elementary,21250 Santa Fe Avenue Carson CA 90810-1446,NA,NA,NA,not tested,Torrance,Los Angeles County,33.820213,-118.31174
Los Angeles Unified,Dorothy V. Johnson Community Day,10601 South Grandee Avenue Los Angeles CA 90002-3676,NA,NA,NA,not tested,LA,Los Angeles County,33.930315,-118.243454
Los Angeles Unified,Dorris Place Elementary,2225 Dorris Place Los Angeles CA 90031-1161,NA,NA,NA,not tested,LA,Los Angeles County,34.090744,-118.237878
Los Angeles Unified,Downtown Business High,1081 West Temple Street Los Angeles CA 90012-1573,NA,NA,NA,not tested,LA,Los Angeles County,34.062907,-118.250989
Los Angeles Unified,Downtown Value,950 West Washington Boulevard Los Angeles CA 90015-3312,NA,NA,FALSE,tested,LA,Los Angeles County,34.037328,-118.278329
Los Angeles Unified,Dr. James Edward Jones Primary Center,1017 West 47th Street Los Angeles CA 90037-2913,NA,NA,NA,not tested,LA,Los Angeles County,34.000716,-118.291894
Los Angeles Unified,Dr. Julian Nava Learning Academies-School of Arts and Culture,1420 East Adams Boulevard Los Angeles CA 90011-1820,NA,NA,NA,not tested,LA,Los Angeles County,34.015519,-118.248233
Los Angeles Unified,Dr. Julian Nava Learning Academies-School of Business and Technology,1420 East Adams Blvd. Los Angeles CA 90011-1820,NA,NA,NA,not tested,LA,Los Angeles County,34.015519,-118.248233
Los Angeles Unified,"Dr. Lawrence H. Moore Math, Science, Technology Academy",1321 East 61st Street Los Angeles CA 90001-1218,NA,NA,NA,not tested,Long Beach,Los Angeles County,33.865628,-118.176046
Los Angeles Unified,Dr. Maya Angelou Community High,300 East 53rd Street Los Angeles CA 90011-4522,NA,NA,NA,not tested,LA,Los Angeles County,33.994167,-118.269976
Los Angeles Unified,Dr. Owen Lloyd Knox Elementary,8919 South Main Street Los Angeles CA 90003-3718,NA,NA,NA,not tested,LA,Los Angeles County,33.955291,-118.273966
Los Angeles Unified,Dr. Sammy Lee Medical and Health Science Magnet Elementary,3600 West Council Street Los Angeles CA 90004-4840,NA,NA,NA,not tested,Los Angeles,Los Angeles County,34.074275,-118.288565
Los Angeles Unified,"Dr. Theo. T. Alexander Jr., Science Center",3737 South Figueroa Street Los Angeles CA 90007-4366,NA,NA,NA,not tested,LA,Los Angeles County,33.960107,-118.282692
Los Angeles Unified,Dyer Street Elementary,14500 Dyer Street Sylmar CA 91342-5114,NA,NA,NA,not tested,LA,Los Angeles County,34.300231,-118.448087
Los Angeles Unified,E. Manfred Evans Community Adult,717 North Figueroa Street Los Angeles CA 90012,NA,NA,NA,not tested,LA,Los Angeles County,34.063641,-118.24561
Los Angeles Unified,Eagle Rock Elementary,2057 Fair Park Avenue Los Angeles CA 90041-1999,NA,NA,NA,not tested,LA,Los Angeles County,34.135627,-118.212124
Los Angeles Unified,Eagle Rock High,1750 Yosemite Drive Los Angeles CA 90041-2815,NA,NA,NA,not tested,LA,Los Angeles County,34.133305,-118.206045
Los Angeles Unified,Eagle Tree Continuation,22628 South Main Street Carson CA 90745-4514,NA,NA,NA,not tested,Carson,Los Angeles County,33.857968,-118.276641
Los Angeles Unified,Early College Academy-LA Trade Tech College,400 West Washington Boulevard Los Angeles CA 90015-4108,7.300000000000001,ppb,TRUE,tested,LA,Los Angeles County,34.033542,-118.270506
Los Angeles Unified,East Los Angeles Occupational,2100 Marengo Street Los Angeles CA 90033-1321,NA,NA,NA,not tested,LA,Los Angeles County,34.0559,-118.205962
Los Angeles Unified,East Los Angeles Renaissance Academy at Esteban E. Torres High No. 2,4211 Dozier Street B Los Angeles CA 90063-3422,NA,NA,NA,not tested,NA,Los Angeles County,34.041716,-118.175543
Los Angeles Unified,East Los Angeles Skills Center,3921 Selig Place Los Angeles CA 90031-3901,NA,NA,NA,not tested,LA,Los Angeles County,34.068337,-118.199658
Los Angeles Unified,East Valley Senior High,5525 Vineland Avenue North Hollywood CA 91601-2730,NA,NA,NA,not tested,LA,Los Angeles County,34.170584,-118.370381
Los Angeles Unified,Eastman Avenue Elementary,4112 East Olympic Boulevard Los Angeles CA 90023-3313,NA,NA,NA,not tested,LA,Los Angeles County,34.018863,-118.191709
Los Angeles Unified,Edward R. Roybal Learning Center,1200 West Colton Street Los Angeles CA 90026-5816,NA,NA,NA,not tested,LA,Los Angeles County,34.061998,-118.254678
Los Angeles Unified,Edwin Markham Middle,1650 East 104th Street Los Angeles CA 90002-3606,NA,NA,NA,not tested,LA,Los Angeles County,33.941404,-118.244898
Los Angeles Unified,El Camino Real Charter High,5440 Valley Circle Boulevard Woodland Hills CA 91367-5949,NA,NA,NA,not tested,LA,Los Angeles County,34.169763,-118.643704
Los Angeles Unified,El Camino Real Community Adult,21213 Vanowen St Canoga Park CA 91303,NA,NA,NA,not tested,LA,Los Angeles County,34.193849,-118.594509
Los Angeles Unified,El Dorado Avenue Elementary,12749 El Dorado Avenue Sylmar CA 91342-3704,NA,NA,NA,not tested,LA,Los Angeles County,34.301591,-118.46587
Los Angeles Unified,El Oro Way Charter For Enriched Studies,12230 El Oro Way Granada Hills CA 91344-1600,NA,NA,NA,not tested,LA,Los Angeles County,34.292877,-118.505192
Los Angeles Unified,El Sereno Elementary,3838 Rosemead Avenue Los Angeles CA 90032-1044,NA,NA,NA,not tested,LA,Los Angeles County,34.089744,-118.177385
Los Angeles Unified,El Sereno Middle,2839 North Eastern Avenue Los Angeles CA 90032-2701,NA,NA,NA,not tested,LA,Los Angeles County,34.079395,-118.178126
Los Angeles Unified,Elizabeth Learning Center,4811 Elizabeth Street Cudahy CA 90201-5205,NA,NA,NA,not tested,NA,Los Angeles County,33.963043,-118.183725
Los Angeles Unified,Ellen Ochoa Learning Center,5027 Live Oak Street Cudahy CA 90201-4428,NA,NA,NA,not tested,NA,Los Angeles County,33.967024,-118.17795
Los Angeles Unified,Ellington (Duke) High (Continuation),1541 West 110th Street Los Angeles CA 90047-4912,NA,NA,FALSE,tested,NA,Los Angeles County,33.935566,-118.303434
Los Angeles Unified,Elysian Heights Elementary,1562 Baxter Street Los Angeles CA 90026-1972,NA,NA,NA,not tested,LA,Los Angeles County,34.089083,-118.249543
Los Angeles Unified,Emelita Academy Charter,17931 Hatteras Street Encino CA 91316-1037,NA,NA,NA,not tested,LA,Los Angeles County,34.176605,-118.523069
Los Angeles Unified,Emerson Community Charter,1650 Selby Avenue Los Angeles CA 90024-5716,NA,NA,NA,not tested,LA,Los Angeles County,34.053578,-118.436447
Los Angeles Unified,Enadia Technology Enriched Charter,22944 Enadia Way West Hills CA 91307-2206,NA,NA,NA,not tested,LA,Los Angeles County,34.199974,-118.626462
Los Angeles Unified,Encino Charter Elementary,16941 Addison Street Encino CA 91316-3433,NA,NA,NA,not tested,LA,Los Angeles County,34.161786,-118.501552
Los Angeles Unified,Endeavor College Preparatory Charter,126 Bloom Street Los Angeles CA 90012-1902,NA,NA,FALSE,tested,LA,Los Angeles County,34.064868,-118.230481
Los Angeles Unified,Engineering and Technology Academy at Esteban E. Torres High No. 3,4211 Dozier St. Los Angeles CA 90063-3422,NA,NA,NA,not tested,NA,Los Angeles County,34.041716,-118.175543
Los Angeles Unified,Environmental and Social Policy Magnet,3501 North Broadway B Los Angeles CA 90031-2856,NA,NA,NA,not tested,LA,Los Angeles County,34.073776,-118.20622
Los Angeles Unified,Equitas Academy #2 Charter,2723 West 8th Street Los Angeles CA 90005,NA,NA,NA,not tested,LA,Los Angeles County,34.057821,-118.284891
Los Angeles Unified,Equitas Academy #3 Charter,2723 West 8th St Los Angeles CA 90005,NA,NA,FALSE,tested,LA,Los Angeles County,34.057821,-118.284891
Los Angeles Unified,Equitas Academy 4 Middle School,631 South Commonwealth Avenue Los Angeles CA 90005,NA,NA,FALSE,tested,LA,Los Angeles County,34.063064,-118.285747
Los Angeles Unified,Equitas Academy Charter,1700 West Pico Boulevard Los Angeles CA 90015-2412,NA,NA,FALSE,tested,LA,Los Angeles County,34.045073,-118.278075
Los Angeles Unified,Ernest Lawrence Middle,10100 Variel Avenue Chatsworth CA 91311-3050,NA,NA,NA,not tested,LA,Los Angeles County,34.252766,-118.592833
Los Angeles Unified,Ernest P. Willenberg Special Education Center,308 Weymouth Avenue San Pedro CA 90732-3426,NA,NA,NA,not tested,LA,Los Angeles County,33.727944,-118.309741
Los Angeles Unified,Erwin Elementary,13400 Erwin Street Van Nuys CA 91401-3014,NA,NA,NA,not tested,LA,Los Angeles County,34.18296,-118.423878
Los Angeles Unified,Eshelman Avenue Elementary,25902 Eshelman Avenue Lomita CA 90717-3223,NA,NA,FALSE,tested,Lomita,Los Angeles County,33.787616,-118.31443
Los Angeles Unified,Esperanza Elementary,680 Little Street Los Angeles CA 90017-1644,NA,NA,NA,not tested,LA,Los Angeles County,34.054926,-118.272835
Los Angeles Unified,Esteban Torres East LA Performing Arts Magnet,4211 Dozier Street C Los Angeles CA 90063-3422,NA,NA,NA,not tested,Los Angeles,Los Angeles County,34.042107,-118.175269
Los Angeles Unified,Estrella Elementary,300 E 53rd Street Los Angeles CA 90011-4522,NA,NA,NA,not tested,LA,Los Angeles County,33.994167,-118.269976
Los Angeles Unified,Euclid Avenue Elementary,806 Euclid Avenue Los Angeles CA 90023-1549,NA,NA,NA,not tested,LA,Los Angeles County,34.031306,-118.206828
Los Angeles Unified,Everest Value,668 South Catalina Street Los Angeles CA 90010-1708,NA,NA,NA,not tested,LA,Los Angeles County,34.061221,-118.295302
Los Angeles Unified,Evergreen Avenue Elementary,2730 Ganahl Street Los Angeles CA 90033-2019,NA,NA,NA,not tested,LA,Los Angeles County,34.052579,-118.198033
Los Angeles Unified,Evergreen Continuation,13101 Dronfield Avenue Sylmar CA 91342-4360,7.8,ppb,TRUE,tested,LA,Los Angeles County,34.308128,-118.437739
Los Angeles Unified,Executive Preparatory Academy of Finance,2506 West Imperial Highway Hawthorne CA 90250-1953,NA,NA,NA,not tested,Hawthorne,Los Angeles County,33.930875,-118.356096
Los Angeles Unified,Extera Public,2226 East Third Street Los Angeles CA 90033-3906,NA,NA,NA,not tested,Los Angeles,Los Angeles County,34.04262,-118.213019
Los Angeles Unified,Extera Public School No. 2,1015 South Lorena Street Los Angeles CA 90023-2222,NA,NA,NA,not tested,LA,Los Angeles County,34.025522,-118.202514
Los Angeles Unified,Fair Avenue Elementary,6501 Fair Avenue North Hollywood CA 91606-2603,NA,NA,NA,not tested,LA,Los Angeles County,34.188516,-118.374779
Los Angeles Unified,Fairburn Avenue Elementary,1403 Fairburn Avenue Los Angeles CA 90024-6014,NA,NA,NA,not tested,LA,Los Angeles County,34.059519,-118.431114
Los Angeles Unified,Fairfax Senior High,7850 Melrose Avenue Los Angeles CA 90046-7210,NA,NA,NA,not tested,LA,Los Angeles County,34.083719,-118.360962
Los Angeles Unified,Farmdale Elementary,2660 Ruth Swiggett Drive Los Angeles CA 90032-2708,NA,NA,NA,not tested,LA,Los Angeles County,34.077167,-118.179794
Los Angeles Unified,Felicitas and Gonzalo Mendez High,1200 Plaza Del Sol Los Angeles CA 90033-2730,NA,NA,NA,not tested,LA,Los Angeles County,34.048716,-118.225413
Los Angeles Unified,Fenton Academy for Social and Emotional Learning,8926 Sunland Boulevard Sun Valley CA 91352-2843,NA,NA,NA,not tested,LA,Los Angeles County,34.23118,-118.366565
Los Angeles Unified,Fenton Avenue Charter,11828 Gain Street Lake View Terrace CA 91342-7132,NA,NA,FALSE,tested,Los Angeles,Los Angeles County,34.28037,-118.390607
Los Angeles Unified,Fenton Primary Center,11351 Dronfield Avenue Pacoima CA 91331-1404,NA,NA,FALSE,tested,Los Angeles,Los Angeles County,34.276331,-118.403602
Los Angeles Unified,Fenton STEM Academy: Elementary Center for Science Technology Engineering and Mathematics,8926 Sunland Boulevard Sun Valley CA 91352-2843,NA,NA,NA,not tested,LA,Los Angeles County,34.23118,-118.366565
Los Angeles Unified,Fenton STEM Academy: Elementary Center for Science Technology Engineering and Mathematics,8926 Sunland Blvd Sun Valley CA 91352-2843,NA,NA,FALSE,tested,Los Angeles,Los Angeles County,34.231258,-118.3661
Los Angeles Unified,Fernangeles Elementary,12001 Art Street Sun Valley CA 91352-2499,NA,NA,NA,not tested,Los Angeles,Los Angeles County,34.231732,-118.39503
Los Angeles Unified,Fifteenth Street Elementary,1527 South Mesa Street San Pedro CA 90731-4834,NA,NA,NA,not tested,LA,Los Angeles County,33.730288,-118.285838
Los Angeles Unified,Fifty-Fourth Street Elementary,5501 South Eileen Avenue Los Angeles CA 90043-2255,5.1,ppb,TRUE,tested,Covina,Los Angeles County,34.085154,-117.910417
Los Angeles Unified,Fifty-Ninth Street Elementary,5939 Second Avenue Los Angeles CA 90043-3219,NA,NA,NA,not tested,Los Angeles,Los Angeles County,33.986036,-118.31994
Los Angeles Unified,Fifty-Second Street Elementary,816 West 51st Street Los Angeles CA 90037-3603,NA,NA,NA,not tested,LA,Los Angeles County,33.996357,-118.287632
Los Angeles Unified,Figueroa Street Elementary,510 West 111th Street Los Angeles CA 90044-4231,NA,NA,NA,not tested,LA,Los Angeles County,33.934669,-118.282935
Los Angeles Unified,First Street Elementary,2820 East First Street Los Angeles CA 90033-3636,NA,NA,NA,not tested,Los Angeles,Los Angeles County,34.040862,-118.20457
Los Angeles Unified,Fishburn Avenue Elementary,5701 Fishburn Avenue Maywood CA 90270-2819,NA,NA,NA,not tested,NA,Los Angeles County,33.989409,-118.189813
Los Angeles Unified,Fletcher Drive Elementary,3350 Fletcher Drive Los Angeles CA 90065-2915,NA,NA,NA,not tested,LA,Los Angeles County,34.118278,-118.240756
Los Angeles Unified,Florence Avenue Elementary,7211 Bell Avenue Los Angeles CA 90001-2716,NA,NA,NA,not tested,NA,Los Angeles County,33.974611,-118.238153
Los Angeles Unified,Florence Griffith Joyner Elementary,1963 East 103rd Street Los Angeles CA 90002-3123,NA,NA,NA,not tested,LA,Los Angeles County,33.943219,-118.237321
Los Angeles Unified,Florence Nightingale Middle,3311 North Figueroa Street Los Angeles CA 90065-1527,NA,NA,NA,not tested,LA,Los Angeles County,34.086662,-118.21888
Los Angeles Unified,Ford Boulevard Elementary,1112 South Ford Boulevard Los Angeles CA 90022-2912,9.6,ppb,TRUE,tested,East Los Angeles,Los Angeles County,34.020241,-118.17142
Los Angeles Unified,Forty-Ninth Street Elementary,750 East 49th Street Los Angeles CA 90011-4014,NA,NA,NA,not tested,LA,Los Angeles County,33.998576,-118.262006
Los Angeles Unified,Forty-Second Street Elementary,4231 Fourth Avenue Los Angeles CA 90008-3903,NA,NA,NA,not tested,Los Angeles,Los Angeles County,34.006396,-118.321766
Los Angeles Unified,Foshay Learning Center,3751 South Harvard Boulevard Los Angeles CA 90018-4546,NA,NA,NA,not tested,LA,Los Angeles County,34.019174,-118.306268
Los Angeles Unified,Fourth Street Elementary,420 South Amalia Avenue Los Angeles CA 90022-2628,NA,NA,NA,not tested,East Los Angeles,Los Angeles County,34.028683,-118.153319
Los Angeles Unified,Fourth Street New Primary Center,469 Amalia Avenue Los Angeles CA 90022-2627,NA,NA,NA,not tested,NA,Los Angeles County,34.02761,-118.154046
Los Angeles Unified,Francisco Bravo Medical Magnet High,1200 North Cornwell Street Los Angeles CA 90033-1417,NA,NA,NA,not tested,LA,Los Angeles County,34.057404,-118.203767
Los Angeles Unified,Francisco Sepulveda Middle,15330 Plummer Street North Hills CA 91343-2228,NA,NA,NA,not tested,LA,Los Angeles County,34.24269,-118.466034
Los Angeles Unified,Frank del Olmo Elementary,100 North New Hampshire Avenue Los Angeles CA 90004-4707,NA,NA,NA,not tested,Los Angeles,Los Angeles County,34.072925,-118.292591
Los Angeles Unified,Frank Lanterman,2328 Saint James Place Los Angeles CA 90007-2577,NA,NA,NA,not tested,LA,Los Angeles County,34.032492,-118.278618
Los Angeles Unified,Franklin Avenue Elementary,1910 North Commonwealth Avenue Los Angeles CA 90027-2800,NA,NA,NA,not tested,LA,Los Angeles County,34.105798,-118.285135
Los Angeles Unified,Fred E. Lull Special Education Center,17551 Miranda St. Encino CA 91316-1250,NA,NA,NA,not tested,LA,Los Angeles County,34.174616,-118.51526
Los Angeles Unified,Frida Kahlo High,1924 South Los Angeles Street Los Angeles CA 90011-1031,NA,NA,NA,not tested,Los Angeles,Los Angeles County,34.029815,-118.263786
Los Angeles Unified,Fries Avenue Elementary,1301 Fries Avenue Wilmington CA 90744-2510,NA,NA,NA,not tested,Carson,Los Angeles County,33.802523,-118.265903
Los Angeles Unified,Fullbright Avenue Elementary,6940 Fullbright Avenue Canoga Park CA 91306-3516,NA,NA,NA,not tested,LA,Los Angeles County,34.222121,-118.576333
Los Angeles Unified,Gabriella Charter,1435 Logan Street Los Angeles CA 90026-3307,NA,NA,NA,not tested,LA,Los Angeles County,34.07912,-118.257328
Los Angeles Unified,Garden Grove Elementary,18141 Valerio Street Reseda CA 91335-3144,NA,NA,NA,not tested,LA,Los Angeles County,34.204847,-118.528913
Los Angeles Unified,Gardena Elementary,647 West Gardena Boulevard Gardena CA 90247-5021,NA,NA,NA,not tested,Gardena,Los Angeles County,33.881969,-118.309164
Los Angeles Unified,Gardena Senior High,1301 West 182nd Street Gardena CA 90248-3322,NA,NA,NA,not tested,Gardena,Los Angeles County,33.866286,-118.296903
Los Angeles Unified,Gardner Street Elementary,7450 Hawthorn Avenue Los Angeles CA 90046-2802,NA,NA,NA,not tested,LA,Los Angeles County,34.099748,-118.352366
Los Angeles Unified,Garvanza Elementary,317 North Avenue 62 Los Angeles CA 90042-2808,NA,NA,NA,not tested,LA,Los Angeles County,34.116708,-118.18333
Los Angeles Unified,Garza (Carmen Lomas) Primary Center,2750 East Hostetter Street Los Angeles CA 90023-4332,NA,NA,NA,not tested,LA,Los Angeles County,34.024888,-118.218398
Los Angeles Unified,Gaspar De Portola Middle,18720 Linnet Street Tarzana CA 91356-3313,NA,NA,NA,not tested,LA,Los Angeles County,34.167204,-118.541413
Los Angeles Unified,Gates Street Elementary,3333 Manitou Avenue Los Angeles CA 90031-2813,NA,NA,NA,not tested,LA,Los Angeles County,34.072071,-118.205991
Los Angeles Unified,Gault Street Elementary,17000 Gault Street Van Nuys CA 91406-3607,NA,NA,NA,not tested,LA,Los Angeles County,34.200175,-118.486424
Los Angeles Unified,George De La Torre Jr. Elementary,500 North Island Avenue Wilmington CA 90744-5524,NA,NA,NA,not tested,LA,Los Angeles County,33.77554,-118.265905
Los Angeles Unified,George Ellery Hale Charter Academy,23830 Califa Street Woodland Hills CA 91367-2922,NA,NA,NA,not tested,LA,Los Angeles County,34.177229,-118.632985
Los Angeles Unified,George K. Porter Middle,15960 Kingsbury Street Granada Hills CA 91344-7144,NA,NA,NA,not tested,LA,Los Angeles County,34.263466,-118.479681
Los Angeles Unified,George S. Patton Continuation,24514 South Western Avenue Harbor City CA 90710-1759,NA,NA,NA,not tested,LA,Los Angeles County,33.802813,-118.307312
Los Angeles Unified,George Washington Carver Middle,4410 McKinley Avenue Los Angeles CA 90011-3614,NA,NA,NA,not tested,LA,Los Angeles County,34.003674,-118.260756
Los Angeles Unified,George Washington Preparatory High,10860 South Denker Avenue Los Angeles CA 90047-4622,NA,NA,NA,not tested,LA,Los Angeles County,33.863796,-118.304796
Los Angeles Unified,"Gerald A. Lawson Academy of the Arts, Mathematics and Science",929 West 69th Street Los Angeles CA 90044-5200,NA,NA,NA,not tested,LA,Los Angeles County,33.977335,-118.289933
Los Angeles Unified,Germain Academy For Academic Achievement,20730 Germain Street Chatsworth CA 91311-2418,NA,NA,NA,not tested,LA,Los Angeles County,34.262609,-118.584927
Los Angeles Unified,Gifted Academy of Mathematics and Entrepreneurial Studies,1724 West 53rd Street Los Angeles CA 90062-2718,NA,NA,NA,not tested,LA,Los Angeles County,33.994077,-118.307258
Los Angeles Unified,Girls Academic Leadership Academy GALA,1067 West Blvd Los Angeles CA 90019-1839,NA,NA,NA,not tested,LA,Los Angeles County,34.055073,-118.331275
Los Angeles Unified,Girls Athletic Leadership School Los Angeles,15040 Roscoe Blvd Los Angeles CA 91402,NA,NA,FALSE,tested,LA,Los Angeles County,34.219481,-118.460653
Los Angeles Unified,Glassell Park Elementary,2211 West Avenue 30 Los Angeles CA 90065-1204,NA,NA,NA,not tested,LA,Los Angeles County,34.104085,-118.236591
Los Angeles Unified,Gledhill Street Elementary,16030 Gledhill Street North Hills CA 91343-2917,NA,NA,NA,not tested,LA,Los Angeles County,34.240652,-118.481564
Los Angeles Unified,Glen Alta Elementary,3410 Sierra Street Los Angeles CA 90031-2137,NA,NA,NA,not tested,LA,Los Angeles County,34.084748,-118.200043
Los Angeles Unified,Glenfeliz Boulevard Elementary,3955 Glenfeliz Boulevard Los Angeles CA 90039-1441,NA,NA,FALSE,tested,Los Angeles,Los Angeles County,34.12251,-118.2676
Los Angeles Unified,Glenn Hammond Curtiss Middle,1254 East Helmick Street Carson CA 90746-3164,NA,NA,NA,not tested,Carson,Los Angeles County,33.851583,-118.249341
Los Angeles Unified,Glenwood Elementary,8001 Ledge Avenue Sun Valley CA 91352-4143,NA,NA,NA,not tested,LA,Los Angeles County,34.216477,-118.357658
Los Angeles Unified,Global Education Academy,4141 South Figueroa Street Los Angeles CA 90037-2038,NA,NA,FALSE,tested,LA,Los Angeles County,33.960107,-118.282692
Los Angeles Unified,Global Education Academy 2,2020 Oak Street Los Angeles CA 90007-1307,NA,NA,NA,not tested,LA,Los Angeles County,34.035248,-118.278695
Los Angeles Unified,Global Education Academy Middle,1374 West 35th Street Los Angeles CA 90007-3410,NA,NA,NA,not tested,LA,Los Angeles County,34.024518,-118.299524
Los Angeles Unified,Goethe International Charter,12500 Braddock Drive Los Angeles CA 90066-6808,NA,NA,NA,not tested,LA,Los Angeles County,33.987227,-118.422324
Los Angeles Unified,Graham Elementary,8407 South Fir Avenue Los Angeles CA 90001-4123,NA,NA,NA,not tested,NA,Los Angeles County,33.961965,-118.237475
Los Angeles Unified,Granada Community Charter,17170 Tribune Street Granada Hills CA 91344-4899,NA,NA,NA,not tested,LA,Los Angeles County,34.267161,-118.507743
Los Angeles Unified,Granada Hills Charter High,10535 Zelzah Avenue Granada Hills CA 91344-5902,NA,NA,NA,not tested,LA,Los Angeles County,34.261811,-118.523461
Los Angeles Unified,Grand View Boulevard Elementary,3951 Grand View Boulevard Los Angeles CA 90066-4551,NA,NA,NA,not tested,NA,Los Angeles County,34.002116,-118.429194
Los Angeles Unified,Grape Street Elementary,1940 East 111th Street Los Angeles CA 90059-2002,NA,NA,NA,not tested,LA,Los Angeles County,33.934217,-118.237887
Los Angeles Unified,Gratts Learning Academy for Young Scholars (GLAYS),309 Lucas Avenue Los Angeles CA 90017-2062,NA,NA,NA,not tested,LA,Los Angeles County,34.058171,-118.261782
Los Angeles Unified,Gridley Street Elementary,1907 Eighth Street San Fernando CA 91340-1009,NA,NA,NA,not tested,San Fernando,Los Angeles County,34.302597,-118.429123
Los Angeles Unified,Griffin Avenue Elementary,2025 Griffin Avenue Los Angeles CA 90031-3003,NA,NA,NA,not tested,LA,Los Angeles County,34.068121,-118.211703
Los Angeles Unified,Grover Cleveland Charter High,8140 Vanalden Avenue Reseda CA 91335-1136,NA,NA,NA,not tested,LA,Los Angeles County,34.218206,-118.549077
Los Angeles Unified,Gulf Avenue Elementary,828 West L Street Wilmington CA 90744-3310,NA,NA,NA,not tested,LA,Los Angeles County,33.786608,-118.272753
Los Angeles Unified,Haddon Avenue Elementary,10115 Haddon Avenue Pacoima CA 91331-3208,NA,NA,NA,not tested,LA,Los Angeles County,34.254321,-118.421714
Los Angeles Unified,Halldale Elementary,21514 Halldale Avenue Torrance CA 90501-3016,NA,NA,NA,not tested,Torrance,Los Angeles County,33.832969,-118.301307
Los Angeles Unified,Hamaski State Preschool,4865 E. First St. Los Angeles CA 90022,NA,NA,NA,not tested,East Los Angeles,Los Angeles County,34.037356,-118.160184
Los Angeles Unified,Hamlin Charter Academy,22627 Hamlin Street West Hills CA 91307-3603,NA,NA,NA,not tested,LA,Los Angeles County,34.189075,-118.619596
Los Angeles Unified,Hancock Park Elementary,408 South Fairfax Avenue Los Angeles CA 90036-3135,NA,NA,NA,not tested,LA,Los Angeles County,34.045613,-118.368114
Los Angeles Unified,Harbor City Elementary,1508 West 254th Street Harbor City CA 90710-2717,NA,NA,NA,not tested,Lomita,Los Angeles County,33.793699,-118.302962
Los Angeles Unified,Harbor Occupational Center,740 North Pacific Avenue San Pedro CA 90731-1696,NA,NA,NA,not tested,LA,Los Angeles County,33.751413,-118.287714
Los Angeles Unified,Harbor Teacher Preparation Academy,1111 Figueroa Place Wilmington CA 90744-2311,NA,NA,NA,not tested,LA,Los Angeles County,33.778974,-118.280902
Los Angeles Unified,Harding Street Elementary,13060 Harding Street Sylmar CA 91342-4814,NA,NA,NA,not tested,LA,Los Angeles County,34.312103,-118.40481
Los Angeles Unified,Harmony Elementary,899 East 42nd Street Los Angeles CA 90011,NA,NA,NA,not tested,LA,Los Angeles County,34.007612,-118.259706
Los Angeles Unified,Harold McAlister High (Opportunity),611 South Carondelet Street Los Angeles CA 90057-3301,NA,NA,NA,not tested,LA,Los Angeles County,34.061289,-118.279883
Los Angeles Unified,Harris Newmark Continuation,1575 West Second Street Los Angeles CA 90026-5701,NA,NA,NA,not tested,Los Angeles,Los Angeles County,34.061282,-118.262913
Los Angeles Unified,Harrison Street Elementary,3529 City Terrace Drive Los Angeles CA 90063-3741,NA,NA,NA,not tested,NA,Los Angeles County,34.053766,-118.18832
Los Angeles Unified,Harry Bridges Span,1235 Broad Avenue Wilmington CA 90744-2619,NA,NA,NA,not tested,LA,Los Angeles County,33.787562,-118.261471
Los Angeles Unified,Hart Street Elementary,21040 Hart Street Canoga Park CA 91303-2222,NA,NA,NA,not tested,LA,Los Angeles County,34.197317,-118.591844
Los Angeles Unified,Harvard Elementary,330 North Harvard Boulevard Los Angeles CA 90004-4412,NA,NA,NA,not tested,LA,Los Angeles County,34.076735,-118.30436
Los Angeles Unified,Haskell Elementary Science Technology Engineering Arts And Mathematics (STEAM) Magnet,15850 Tulsa Street Granada Hills CA 91344-5525,NA,NA,NA,not tested,LA,Los Angeles County,34.268161,-118.477692
Los Angeles Unified,Hawaiian Avenue Elementary,540 Hawaiian Avenue Wilmington CA 90744-4922,NA,NA,NA,not tested,LA,Los Angeles County,33.775463,-118.276354
Los Angeles Unified,Haynes Charter For Enriched Studies,6624 Lockhurst Drive West Hills CA 91307-3135,NA,NA,NA,not tested,LA,Los Angeles County,34.190575,-118.648924
Los Angeles Unified,Hazeltine Avenue Elementary,7150 Hazeltine Avenue Van Nuys CA 91405-3244,NA,NA,NA,not tested,LA,Los Angeles County,34.200288,-118.439892
Los Angeles Unified,Helen Bernstein High,1309 North Wilton Place Hollywood CA 90028-8526,NA,NA,NA,not tested,LA,Los Angeles County,34.07611,-118.313594
Los Angeles Unified,Heliotrope Avenue School,4800 E Slauson Ave Maywood CA 90270,NA,NA,NA,not tested,NA,Los Angeles County,33.98638,-118.178798
Los Angeles Unified,Henry David Thoreau Continuation,5429 Quakertown Avenue Woodland Hills CA 91364-2528,NA,NA,NA,not tested,Los Angeles,Los Angeles County,34.169031,-118.569972
Los Angeles Unified,Henry T. Gage Middle,2880 East Gage Avenue Huntington Park CA 90255-4346,NA,NA,FALSE,tested,NA,Los Angeles County,33.981691,-118.236228
Los Angeles Unified,Herrick Avenue Elementary,13350 Herrick Avenue Sylmar CA 91342-7601,NA,NA,NA,not tested,LA,Los Angeles County,34.313928,-118.464194
Los Angeles Unified,Hesby Oaks Leadership Charter,15530 Hesby Street Encino CA 91436-1519,NA,NA,NA,not tested,LA,Los Angeles County,34.162038,-118.473166
Los Angeles Unified,High Tech LA,17111 Victory Boulevard Van Nuys CA 91406-5455,NA,NA,NA,not tested,LA,Los Angeles County,34.186638,-118.479995
Los Angeles Unified,Highland Park Continuation,928 North Avenue 53 Los Angeles CA 90042-2418,NA,NA,NA,not tested,LA,Los Angeles County,34.11623,-118.201521
Los Angeles Unified,"Hilda L. Solis Learning Academy School of Technology, Business and Education",319 North Humphreys Avenue Los Angeles CA 90022-1422,NA,NA,NA,not tested,NA,Los Angeles County,34.039419,-118.171849
Los Angeles Unified,Hillcrest Drive Elementary,4041 Hillcrest Drive Los Angeles CA 90008-2902,NA,NA,NA,not tested,LA,Los Angeles County,34.012967,-118.347546
Los Angeles Unified,Hillery T. Broadous Elementary,12561 Filmore Street Pacoima CA 91331-1255,NA,NA,NA,not tested,LA,Los Angeles County,34.282514,-118.406963
Los Angeles Unified,Hillside Elementary,120 East Avenue 35 Los Angeles CA 90031-1938,NA,NA,NA,not tested,LA,Los Angeles County,34.085466,-118.212665
Los Angeles Unified,Hobart Boulevard Elementary,980 South Hobart Boulevard Los Angeles CA 90006-1220,NA,NA,NA,not tested,LA,Los Angeles County,34.070475,-118.305512
Los Angeles Unified,Hollenbeck Middle,2510 East Sixth Street Los Angeles CA 90023-1420,NA,NA,NA,not tested,Burbank,Los Angeles County,34.188749,-118.308225
Los Angeles Unified,Hollywood Community Adult,1521 North Highland Avenue Los Angeles CA 90028-7001,NA,NA,NA,not tested,LA,Los Angeles County,34.098399,-118.338761
Los Angeles Unified,Hollywood Primary Center,1115 Tamarind Avenue Los Angeles CA 90038-1905,NA,NA,NA,not tested,LA,Los Angeles County,34.091103,-118.319128
Los Angeles Unified,Hollywood Senior High,1521 North Highland Ave. Los Angeles CA 90028-7001,NA,NA,NA,not tested,LA,Los Angeles County,34.098399,-118.338761
Los Angeles Unified,Holmes Avenue Elementary,5108 Holmes Avenue Los Angeles CA 90058-1911,NA,NA,NA,not tested,LA,Los Angeles County,33.99605,-118.241003
Los Angeles Unified,Hooper Avenue Elementary,1225 East 52nd Street Los Angeles CA 90011-4703,NA,NA,NA,not tested,LA,Los Angeles County,33.99604,-118.253769
Los Angeles Unified,Hooper Avenue Primary Center,1280 East 52nd Street Los Angeles CA 90011-4704,NA,NA,NA,not tested,LA,Los Angeles County,33.995876,-118.252624
Los Angeles Unified,Hoover Street Elementary,2726 Francis Avenue Los Angeles CA 90005-1252,NA,NA,NA,not tested,LA,Los Angeles County,34.056749,-118.284971
Los Angeles Unified,Hope Street Elementary,7560 State Street Huntington Park CA 90255-6133,NA,NA,FALSE,tested,NA,Los Angeles County,33.969581,-118.209859
Los Angeles Unified,Horace Mann Junior High,7001 South Saint Andrews Place Los Angeles CA 90047-1833,NA,NA,NA,not tested,Los Angeles,Los Angeles County,33.976186,-118.311526
Los Angeles Unified,Hubbard Street Elementary,13325 Hubbard Street Sylmar CA 91342-3224,NA,NA,NA,not tested,LA,Los Angeles County,34.313655,-118.423436
Los Angeles Unified,Hubert Howe Bancroft Middle,929 North Las Palmas Avenue Los Angeles CA 90038-2421,NA,NA,NA,not tested,Los Angeles,Los Angeles County,34.08879,-118.337451
Los Angeles Unified,Humanitas Academy of Art and Technology at Esteban E. Torres High No. 4,4211 Dozier Street D Los Angeles CA 90063-3422,NA,NA,NA,not tested,NA,Los Angeles County,34.041716,-118.175543
Los Angeles Unified,Humanities and Arts (HARTS) Academy of Los Angeles,24300 South Western Avenue Harbor City CA 90710-1742,NA,NA,NA,not tested,LA,Los Angeles County,33.804829,-118.307296
Los Angeles Unified,Humphreys Avenue Elementary,500 South Humphreys Avenue Los Angeles CA 90022-2416,NA,NA,NA,not tested,NA,Los Angeles County,34.028915,-118.17096
Los Angeles Unified,Huntington Drive Elementary,4435 North Huntington Drive Los Angeles CA 90032-2641,NA,NA,NA,not tested,Los Angeles,Los Angeles County,34.082693,-118.191834
Los Angeles Unified,Huntington Park Elementary,6055 Corona Avenue Huntington Park CA 90255-3332,NA,NA,NA,not tested,NA,Los Angeles County,33.985063,-118.194755
Los Angeles Unified,Huntington Park Senior High,6020 Miles Avenue Huntington Park CA 90255-3109,NA,NA,FALSE,tested,NA,Los Angeles County,33.988012,-118.219199
Los Angeles Unified,Huntington Park/Bell Community Adult,2945 Belgrave Avenue Huntington Park CA 90255,NA,NA,FALSE,tested,NA,Los Angeles County,33.987115,-118.215812
Los Angeles Unified,ICEF Innovation Los Angeles Charter,2400 South Western Avenue Los Angeles CA 90018-2607,NA,NA,NA,not tested,LA,Los Angeles County,34.033822,-118.308863
Los Angeles Unified,ICEF Vista Elementary Academy,4471 Inglewood Blvd. Los Angeles CA 90066-6209,NA,NA,NA,not tested,LA,Los Angeles County,33.995459,-118.418847
Los Angeles Unified,ICEF Vista Middle Academy,4471 Inglewood Boulevard Los Angeles CA 90066-6209,NA,NA,NA,not tested,LA,Los Angeles County,33.995459,-118.418847
Los Angeles Unified,Independence Continuation,6501 Balboa Boulevard Van Nuys CA 91406-5526,NA,NA,NA,not tested,Los Angeles,Los Angeles County,34.189853,-118.502235
Los Angeles Unified,Independence Elementary,8435 Victoria Avenue South Gate CA 90280-2353,11,ppb,TRUE,tested,South Gate,Los Angeles County,33.959495,-118.209214
Los Angeles Unified,Ingenium Charter,22250 Elkwood Street c/o Columbus Middle School/Donna Kumar Canoga Park CA 91304-5501,NA,NA,NA,not tested,Los Angeles,Los Angeles County,34.211755,-118.611106
Los Angeles Unified,Ingenium Charter Middle,22250 Elkwood Street Canoga Park CA 91304-5501,NA,NA,NA,not tested,LA,Los Angeles County,34.21272,-118.612039
Los Angeles Unified,International Studies Learning Center at Legacy High School Complex,5225 Tweedy Blvd South Gate CA 90280-5332,NA,NA,FALSE,tested,South Gate,Los Angeles County,33.94117,-118.179428
Los Angeles Unified,Ivanhoe Elementary,2828 Herkimer Street Los Angeles CA 90039-2010,NA,NA,NA,not tested,LA,Los Angeles County,34.108849,-118.267423
Los Angeles Unified,Ivy Academia,7353 Valley Circle Boulevard West Hills CA 91304-6706,NA,NA,NA,not tested,LA,Los Angeles County,34.20614,-118.653814
Los Angeles Unified,"Ivy Bound Academy Math, Science, and Technology Charter Middle 2",20040 Parthenia Street Northridge CA 91324-3222,NA,NA,NA,not tested,LA,Los Angeles County,34.228248,-118.551375
Los Angeles Unified,"Ivy Bound Academy of Math, Science, and Technology Charter Middle",15355 Morrison Street Sherman Oaks CA 91403-1514,NA,NA,FALSE,tested,LA,Los Angeles County,34.160327,-118.45307
Los Angeles Unified,Jack London Community Day,12924-A Oxnard Street Valley Glen CA 91401,NA,NA,NA,not tested,Los Angeles,Los Angeles County,34.179314,-118.414701
Los Angeles Unified,Jack London Continuation,12924 Oxnard Street Van Nuys CA 91401-4104,NA,NA,NA,not tested,LA,Los Angeles County,34.179411,-118.423731
Los Angeles Unified,Jaime Escalante Elementary,4443 Live Oak Street Cudahy CA 90201-4207,NA,NA,NA,not tested,NA,Los Angeles County,33.968153,-118.188596
Los Angeles Unified,James A. Garfield Senior High,5101 East Sixth Street Los Angeles CA 90022-3209,NA,NA,NA,not tested,Burbank,Los Angeles County,34.188749,-118.308225
Los Angeles Unified,James J. McBride Special Education Center,3960 Centinela Avenue Los Angeles CA 90066-4905,NA,NA,NA,not tested,LA,Los Angeles County,34.000554,-118.431296
Los Angeles Unified,James Jordan Middle,7911 Winnetka Avenue Winnetka CA 91306-2317,NA,NA,NA,not tested,LA,Los Angeles County,34.214273,-118.571121
Los Angeles Unified,James Madison Middle,13000 Hart Street North Hollywood CA 91605-4801,NA,NA,NA,not tested,LA,Los Angeles County,34.197484,-118.415433
Los Angeles Unified,James Monroe High,9229 Haskell Avenue North Hills CA 91343-3114,NA,NA,NA,not tested,LA,Los Angeles County,34.237895,-118.476403
Los Angeles Unified,Jane Addams Continuation,16341 Donmetz Street Granada Hills CA 91344-3773,NA,NA,NA,not tested,LA,Los Angeles County,34.273819,-118.488156
Los Angeles Unified,Jefferson Community Adult,1319 East 41st St. Los Angeles CA 90011-3301,NA,NA,NA,not tested,LA,Los Angeles County,34.009298,-118.251739
Los Angeles Unified,Joaquin Miller Career and Transition Center,8218 Vanalden Avenue Reseda CA 91335-1138,NA,NA,NA,not tested,LA,Los Angeles County,34.219496,-118.54908
Los Angeles Unified,John A. Sutter Middle,7330 Winnetka Avenue Canoga Park CA 91306-2905,NA,NA,NA,not tested,LA,Los Angeles County,34.236134,-118.571061
Los Angeles Unified,John B. Monlux Elementary,6051 Bellaire Avenue North Hollywood CA 91606-4461,NA,NA,NA,not tested,LA,Los Angeles County,34.205626,-118.409435
Los Angeles Unified,John Burroughs Middle,600 South McCadden Place Los Angeles CA 90005-3829,NA,NA,NA,not tested,LA,Los Angeles County,34.064805,-118.33705
Los Angeles Unified,John C. Fremont Community Adult,7676 South San Pedro Street Los Angeles CA 90003-2348,NA,NA,NA,not tested,LA,Los Angeles County,34.041848,-118.245602
Los Angeles Unified,John C. Fremont Senior High,7676 South San Pedro Street Los Angeles CA 90003-2348,NA,NA,NA,not tested,LA,Los Angeles County,34.041848,-118.245602
Los Angeles Unified,John F. Kennedy High,11254 Gothic Avenue Granada Hills CA 91344-3709,NA,NA,NA,not tested,LA,Los Angeles County,34.275091,-118.488363
Los Angeles Unified,John H. Francis Polytechnic,12431 Roscoe Boulevard Sun Valley CA 91352-3723,NA,NA,NA,not tested,LA,Los Angeles County,34.221613,-118.389915
Los Angeles Unified,John H. Liechty Middle,650 South Union Avenue Los Angeles CA 90017-1633,NA,NA,NA,not tested,LA,Los Angeles County,34.056523,-118.269278
Los Angeles Unified,John Hope Continuation,7840 Towne Avenue Los Angeles CA 90003-2632,NA,NA,NA,not tested,LA,Los Angeles County,33.968198,-118.267227
Los Angeles Unified,John Marshall Senior High,3939 Tracy Street Los Angeles CA 90027-3207,NA,NA,NA,not tested,LA,Los Angeles County,34.107675,-118.277434
Los Angeles Unified,John R. Wooden High,18741 Elkwood Street Reseda CA 91335-1802,NA,NA,NA,not tested,LA,Los Angeles County,34.212999,-118.54089
Los Angeles Unified,John W. Mack Elementary,3020 South Catalina Street Los Angeles CA 90007-2921,NA,NA,NA,not tested,LA,Los Angeles County,34.02673,-118.293622
Los Angeles Unified,"Johnnie Cochran, Jr., Middle",4066 West Johnnie Cochran Vista Los Angeles CA 90019-6025,NA,NA,NA,not tested,Los Angeles,Los Angeles County,34.041746,-118.326835
Los Angeles Unified,Joseph Le Conte Middle,1316 North Bronson Ave. Hollywood CA 90028-8415,NA,NA,NA,not tested,LA,Los Angeles County,34.094723,-118.317842
Los Angeles Unified,Joseph Pomeroy Widney High,2302 South Gramercy Place Los Angeles CA 90018-1323,NA,NA,NA,not tested,LA,Los Angeles County,34.035945,-118.312568
Los Angeles Unified,Julie Korenstein Elementary,7650 Ben Avenue North Hollywood CA 91605-2728,NA,NA,NA,not tested,LA,Los Angeles County,34.20939,-118.394234
Los Angeles Unified,Justice Street Academy Charter,23350 Justice Street West Hills CA 91304-4402,NA,NA,NA,not tested,LA,Los Angeles County,34.215989,-118.634992
Los Angeles Unified,Kenter Canyon Elementary Charter,645 North Kenter Avenue Los Angeles CA 90049-1946,NA,NA,NA,not tested,LA,Los Angeles County,34.070128,-118.488519
Los Angeles Unified,Kentwood Elementary,8401 Emerson Avenue Los Angeles CA 90045-2890,NA,NA,NA,not tested,LA,Los Angeles County,33.962627,-118.40422
Los Angeles Unified,Kester Avenue Elementary,5353 Kester Avenue Van Nuys CA 91411-4022,NA,NA,NA,not tested,LA,Los Angeles County,34.167621,-118.457531
Los Angeles Unified,King/Drew Medical Magnet High,1601 East 120th Street Los Angeles CA 90059-3025,NA,NA,NA,not tested,NA,Los Angeles County,33.923851,-118.246139
Los Angeles Unified,Kingsley Elementary,5200 West Virginia Avenue Los Angeles CA 90029-1212,NA,NA,NA,not tested,Glendora,Los Angeles County,34.145159,-117.868926
Los Angeles Unified,KIPP Academy of Innovation,4800 East Cesar Chavez Avenue B Los Angeles CA 90022-1307,NA,NA,NA,not tested,East Los Angeles,Los Angeles County,34.040253,-118.16141
Los Angeles Unified,KIPP Academy of Opportunity,7019 South Van Ness Avenue Los Angeles CA 90047-1659,NA,NA,FALSE,tested,Los Angeles,Los Angeles County,33.975705,-118.318022
Los Angeles Unified,KIPP Empower Academy,8466 South Figueroa Street Los Angeles CA 90003-2729,NA,NA,FALSE,tested,LA,Los Angeles County,33.96204,-118.282601
Los Angeles Unified,KIPP Ignite Academy,9110 South Central Avenue Los Angeles CA 90002-1743,NA,NA,FALSE,tested,LA,Los Angeles County,33.92528,-118.254327
Los Angeles Unified,KIPP Iluminar Academy,4800 East Cesar Chavez Avenue Los Angeles CA 90022-1307,NA,NA,NA,not tested,East Los Angeles,Los Angeles County,34.040253,-118.16141
Los Angeles Unified,KIPP Los Angeles College Preparatory,2810 Whittier Boulevard Los Angeles CA 90023-1527,NA,NA,FALSE,tested,LA,Los Angeles County,34.031661,-118.209838
Los Angeles Unified,KIPP Promesa Prep,207 South Dacotah Street Los Angeles CA 90063-3023,NA,NA,FALSE,tested,LA,Los Angeles County,34.037889,-118.201443
Los Angeles Unified,KIPP Raices Academy,668 Atlantic Boulevard Los Angeles CA 90022-1118,NA,NA,NA,not tested,NA,Los Angeles County,34.023318,-118.156233
Los Angeles Unified,KIPP Scholar Academy,1729 West Martin Luther King Junior Boulevard Los Angeles CA 90062-1503,NA,NA,FALSE,tested,Los Angeles,Los Angeles County,34.011112,-118.310005
Los Angeles Unified,KIPP Sol Academy,4800 East Cesar Chavez Ave. Los Angeles CA 90022-1307,NA,NA,NA,not tested,East Los Angeles,Los Angeles County,34.040253,-118.16141
Los Angeles Unified,KIPP Vida Preparatory Academy,5101 South Western Avenue Los Angeles CA 90062-2333,NA,NA,FALSE,tested,LA,Los Angeles County,33.996836,-118.309023
Los Angeles Unified,Kittridge Street Elementary,13619 Kittridge Street Van Nuys CA 91401-1113,NA,NA,NA,not tested,LA,Los Angeles County,34.190389,-118.429363
Los Angeles Unified,Knollwood Preparatory Academy,11822 Gerald Avenue Granada Hills CA 91344-2849,NA,NA,NA,not tested,LA,Los Angeles County,34.284866,-118.493763
Los Angeles Unified,La Salle Avenue Elementary,8715 La Salle Avenue Los Angeles CA 90047-3320,NA,NA,NA,not tested,LA,Los Angeles County,33.958522,-118.305835
Los Angeles Unified,Lafayette Park Primary Center,310 South La Fayette Park Place Los Angeles CA 90057-1604,NA,NA,NA,not tested,Los Angeles,Los Angeles County,34.066403,-118.280595
Los Angeles Unified,Lake Street Primary,135 North Lake Street Los Angeles CA 90026-5320,NA,NA,NA,not tested,LA,Los Angeles County,34.067679,-118.271085
Los Angeles Unified,Lanai Road Elementary,4241 Lanai Road Encino CA 91436-3614,NA,NA,NA,not tested,LA,Los Angeles County,34.148632,-118.492065
Los Angeles Unified,Langdon Avenue Elementary,8817 Langdon Avenue North Hills CA 91343-5004,NA,NA,NA,not tested,LA,Los Angeles County,34.230392,-118.469923
Los Angeles Unified,Lankershim Elementary,5250 Bakman Avenue North Hollywood CA 91601-3101,NA,NA,NA,not tested,LA,Los Angeles County,34.166482,-118.377297
Los Angeles Unified,Larchmont Charter,1265 North Fairfax Avenue Los Angeles CA 90046-5205,NA,NA,NA,not tested,West Hollywood,Los Angeles County,34.093506,-118.361632
Los Angeles Unified,Lashon Academy,7477 Kester Avenue Van Nuys CA 91405-1722,NA,NA,NA,not tested,LA,Los Angeles County,34.206367,-118.457562
Los Angeles Unified,Lassen Elementary,15017 Superior Street North Hills CA 91343-2440,NA,NA,NA,not tested,LA,Los Angeles County,34.247029,-118.459845
Los Angeles Unified,Latona Avenue Elementary,4312 Berenice Avenue Los Angeles CA 90031-1408,NA,NA,NA,not tested,LA,Los Angeles County,34.091651,-118.202985
Los Angeles Unified,Leapwood Avenue Elementary,19302 Leapwood Avenue Carson CA 90746-1954,NA,NA,NA,not tested,Carson,Los Angeles County,33.856075,-118.261658
Los Angeles Unified,Leland Street Elementary,2120 South Leland Street San Pedro CA 90731-5224,NA,NA,NA,not tested,LA,Los Angeles County,33.724937,-118.301115
Los Angeles Unified,Lemay Street Elementary,17520 Vanowen Street Van Nuys CA 91406-4314,NA,NA,NA,not tested,LA,Los Angeles County,34.193913,-118.486147
Los Angeles Unified,Lenicia B. Weemes Elementary,1260 West 36th Place Los Angeles CA 90007-3947,NA,NA,NA,not tested,LA,Los Angeles County,34.021823,-118.296519
Los Angeles Unified,Leo Politi Elementary,2481 West 11th Street Los Angeles CA 90006-2961,NA,NA,NA,not tested,LA,Los Angeles County,34.050876,-118.286687
Los Angeles Unified,Lexington Avenue Primary Center,4564 West Lexington Avenue Los Angeles CA 90027-1915,NA,NA,NA,not tested,Pomona,Los Angeles County,34.036767,-117.756444
Los Angeles Unified,Libertas College Preparatory Charter,3875 Dublin Ave. Los Angeles CA 90008-1945,NA,NA,NA,not tested,LA,Los Angeles County,34.015237,-118.322364
Los Angeles Unified,Liberty Boulevard Elementary,2728 Liberty Boulevard South Gate CA 90280-2055,5.6,ppb,TRUE,tested,South Gate,Los Angeles County,33.96193,-118.22218
Los Angeles Unified,Liggett Street Elementary,9373 Moonbeam Avenue Panorama City CA 91402-1302,NA,NA,NA,not tested,LA,Los Angeles County,34.240544,-118.445686
Los Angeles Unified,Lillian Street Elementary,5909 Lillian Street Los Angeles CA 90001-1433,NA,NA,NA,not tested,NA,Los Angeles County,33.986578,-118.23996
Los Angeles Unified,Limerick Avenue Elementary,8530 Limerick Avenue Canoga Park CA 91306-1299,NA,NA,NA,not tested,LA,Los Angeles County,34.225569,-118.583022
Los Angeles Unified,Linda Esperanza Marquez High A Huntington Park Institute of Applied Medicine,6361 Cottage St Huntington Park CA 90255-3521,NA,NA,FALSE,tested,NA,Los Angeles County,33.982415,-118.233789
Los Angeles Unified,Linda Esperanza Marquez High B LIBRA Academy,6361 Cottage Street Huntington Park CA 90255-3521,NA,NA,NA,not tested,NA,Los Angeles County,33.982415,-118.233789
Los Angeles Unified,Linda Esperanza Marquez High C School of Social Justice,6361 Cottage Street Huntington Park CA 90255-3521,NA,NA,NA,not tested,NA,Los Angeles County,33.982415,-118.233789
Los Angeles Unified,Lockhurst Drive Charter Elementary,6170 Lockhurst Drive Woodland Hills CA 91367-1204,NA,NA,NA,not tested,LA,Los Angeles County,34.16622,-118.64936
Los Angeles Unified,Lockwood Avenue Elementary,4345 Lockwood Avenue Los Angeles CA 90029-2809,NA,NA,NA,not tested,LA,Los Angeles County,34.089438,-118.288397
Los Angeles Unified,Logan Street Elementary,1711 West Montana Street Los Angeles CA 90026-3311,NA,NA,NA,not tested,Pasadena,Los Angeles County,34.180826,-118.162987
Los Angeles Unified,Loma Vista Elementary,3629 East 58th Street Maywood CA 90270-2616,NA,NA,NA,not tested,NA,Los Angeles County,33.989672,-118.200038
Los Angeles Unified,Lomita Math/Science/Technology Magnet,2211 West 247th Street Lomita CA 90717-1503,6.3,ppb,TRUE,tested,Lomita,Los Angeles County,33.800762,-118.321713
Los Angeles Unified,Loren Miller Elementary,830 West 77th Street Los Angeles CA 90044-5146,NA,NA,NA,not tested,LA,Los Angeles County,33.969686,-118.287853
Los Angeles Unified,Lorena Street Elementary,1015 South Lorena St Los Angeles CA 90023-2222,NA,NA,NA,not tested,LA,Los Angeles County,34.025522,-118.202514
Los Angeles Unified,Loreto Street Elementary,3408 Arroyo Seco Avenue Los Angeles CA 90065-2454,NA,NA,NA,not tested,LA,Los Angeles County,34.086852,-118.216699
Los Angeles Unified,Lorne Street Elementary,17440 Lorne Street Northridge CA 91325-4459,NA,NA,NA,not tested,Los Angeles,Los Angeles County,34.216713,-118.513131
Los Angeles Unified,Los Angeles Academy Middle,644 East 56th Street Los Angeles CA 90011-4660,NA,NA,NA,not tested,LA,Los Angeles County,33.990473,-118.263608
Los Angeles Unified,Los Angeles Academy of Arts & Enterprise Charter,600 South La Fayette Park Place 1st Floor Los Angeles CA 90057-3243,NA,NA,NA,not tested,Los Angeles,Los Angeles County,34.062428,-118.282171
Los Angeles Unified,Los Angeles Center for Enriched Studies,5931 West 18th Street Los Angeles CA 90035-4656,NA,NA,NA,not tested,LA,Los Angeles County,34.043646,-118.371665
Los Angeles Unified,Los Angeles Community Adult,4650 West Olympic Boulevard Los Angeles CA 90019-1831,NA,NA,NA,not tested,LA,Los Angeles County,34.056659,-118.333166
Los Angeles Unified,Los Angeles Elementary,1211 South Hobart Boulevard Los Angeles CA 90006-3113,NA,NA,NA,not tested,LA,Los Angeles County,34.048751,-118.305321
Los Angeles Unified,Los Angeles Leadership Academy,234 East Avenue 33 Los Angeles CA 90031-1937,NA,NA,NA,not tested,Los Angeles,Los Angeles County,34.083197,-118.210583
Los Angeles Unified,Los Angeles Leadership Primary Academy,2670 Griffin Avenue Los Angeles CA 90031-2311,5.3,ppb,TRUE,tested,LA,Los Angeles County,34.078551,-118.211358
Los Angeles Unified,Los Angeles River at Sonia Sotomayor Learning Academies,2050 San Fernando Road Los Angeles CA 90065-1267,NA,NA,NA,not tested,LA,Los Angeles County,34.101568,-118.236658
Los Angeles Unified,Los Angeles Senior High,4650 West Olympic Boulevard C Los Angeles CA 90019-1831,NA,NA,NA,not tested,Los Angeles,Los Angeles County,34.055405,-118.332985
Los Angeles Unified,Los Angeles Technology Center,3721 West Washington Boulevard Los Angeles CA 90018,NA,NA,NA,not tested,LA,Los Angeles County,34.039969,-118.325158
Los Angeles Unified,Los Angeles Unified Alternative Education,333 South Beaudry Avenue Floor 18 Los Angeles CA 90017-5108,NA,NA,NA,not tested,Los Angeles,Los Angeles County,34.056143,-118.257322
Los Angeles Unified,Los Feliz Charter School for the Arts,2709 East Media Center Drive Los Angeles CA 90065-1700,NA,NA,FALSE,tested,LA,Los Angeles County,34.10883,-118.243439
Los Angeles Unified,Los Feliz Science/Tech/Engineer/Math/Medicine Magnet,1740 North New Hampshire Avenue Los Angeles CA 90027-4208,NA,NA,NA,not tested,Los Angeles,Los Angeles County,34.102808,-118.292995
Los Angeles Unified,Lou Dantzler Preparatory Charter Elementary,5940 South Budlong Avenue Los Angeles CA 90044-2815,NA,NA,NA,not tested,LA,Los Angeles County,33.987161,-118.295742
Los Angeles Unified,Lovelia P. Flournoy Elementary,1630 East 111th Street Los Angeles CA 90059-1908,NA,NA,NA,not tested,LA,Los Angeles County,33.934732,-118.245059
Los Angeles Unified,Loyola Village Fine And Performing Arts Magnet,8821 Villanova Avenue Los Angeles CA 90045-3496,NA,NA,NA,not tested,Los Angeles,Los Angeles County,33.957623,-118.421267
Los Angeles Unified,Lucille Roybal-Allard Elementary,3232 Saturn Avenue Huntington Park CA 90255-5440,NA,NA,FALSE,tested,NA,Los Angeles County,33.976078,-118.209671
Los Angeles Unified,MacArthur Park Elementary School for the Visual and Performing Arts,2300 West Seventh Street Los Angeles CA 90057-3903,NA,NA,NA,not tested,Los Angeles,Los Angeles County,34.057543,-118.279529
Los Angeles Unified,Madison Elementary,9820 Madison Avenue South Gate CA 90280-4319,NA,NA,FALSE,tested,South Gate,Los Angeles County,33.946463,-118.21455
Los Angeles Unified,Magnolia Avenue Elementary,1626 South Orchard Avenue Los Angeles CA 90006-5316,NA,NA,NA,not tested,LA,Los Angeles County,33.890037,-118.287715
Los Angeles Unified,Magnolia Science Academy,18238 Sherman Way Reseda CA 91335-4550,NA,NA,FALSE,tested,LA,Los Angeles County,34.200925,-118.530302
Los Angeles Unified,Magnolia Science Academy 2,17125 Victory Boulevard Van Nuys CA 91406-5455,NA,NA,NA,not tested,LA,Los Angeles County,34.186638,-118.479995
Los Angeles Unified,Magnolia Science Academy 3,1254 East Helmick St Carson CA 90746-3164,NA,NA,NA,not tested,Carson,Los Angeles County,33.851583,-118.249341
Los Angeles Unified,Magnolia Science Academy 4,11330 West Graham Place B-9 Los Angeles CA 90064,NA,NA,NA,not tested,Los Angeles,Los Angeles County,34.029868,-118.43476
Los Angeles Unified,Magnolia Science Academy 5,18230 Kittridge Reseda CA 91335-6121,NA,NA,NA,not tested,LA,Los Angeles County,34.19023,-118.543032
Los Angeles Unified,Magnolia Science Academy 6,3754 Dunn Drive Los Angeles CA 90034-5805,NA,NA,FALSE,tested,LA,Los Angeles County,34.024084,-118.400322
Los Angeles Unified,Magnolia Science Academy 7,18355 Roscoe Boulevard Northridge CA 91325-4104,NA,NA,FALSE,tested,LA,Los Angeles County,34.220856,-118.532973
Los Angeles Unified,Magnolia Science Academy Bell,6411 Orchard Avenue Bell CA 90201-1023,NA,NA,NA,not tested,NA,Los Angeles County,33.979159,-118.199457
Los Angeles Unified,Main Street Elementary,129 East 53rd Street Los Angeles CA 90011-4517,NA,NA,NA,not tested,LA,Los Angeles County,33.994308,-118.273299
Los Angeles Unified,Malabar Street Elementary,3200 East Malabar Street Los Angeles CA 90063-4021,NA,NA,NA,not tested,Los Angeles,Los Angeles County,34.044251,-118.194316
Los Angeles Unified,Manchester Avenue Elementary,661 West 87th Street Los Angeles CA 90044-5703,NA,NA,NA,not tested,LA,Los Angeles County,33.958792,-118.286061
Los Angeles Unified,Manhattan Place Elementary,1850 West 96th Street Los Angeles CA 90047-3725,NA,NA,NA,not tested,LA,Los Angeles County,33.949005,-118.313936
Los Angeles Unified,Manual Arts Community Adult,4131 South Vermont Avenue Los Angeles CA 90037-1918,NA,NA,NA,not tested,LA,Los Angeles County,33.977253,-118.291735
Los Angeles Unified,Manual Arts Senior High,4131 South Vermont Avenue Los Angeles CA 90037-1918,NA,NA,NA,not tested,LA,Los Angeles County,33.977253,-118.291735
Los Angeles Unified,Maple Primary Center,3601 South Maple Avenue Los Angeles CA 90011-2619,NA,NA,NA,not tested,Montebello,Los Angeles County,34.00845,-118.117636
Los Angeles Unified,Mar Vista Elementary,3330 Granville Avenue Los Angeles CA 90066-2052,NA,NA,NA,not tested,LA,Los Angeles County,34.016205,-118.435131
Los Angeles Unified,Marguerite Poindexter LaMotte Elementary,4410 Orchard Avenue Los Angeles CA 90037-3018,NA,NA,NA,not tested,LA,Los Angeles County,34.003478,-118.288886
Los Angeles Unified,Marianna Avenue Elementary,4215 East Gleason Street Los Angeles CA 90063-1423,NA,NA,NA,not tested,Monterey Park,Los Angeles County,34.035129,-118.122678
Los Angeles Unified,Marina del Rey Middle,12500 Braddock Dr Los Angeles CA 90066-6808,NA,NA,NA,not tested,LA,Los Angeles County,33.987227,-118.422324
Los Angeles Unified,Mariposa-Nabi Primary Center,987 South Mariposa Avenue Los Angeles CA 90006-1413,NA,NA,NA,not tested,LA,Los Angeles County,34.053086,-118.299034
Los Angeles Unified,Mark Twain Middle,2224 Walgrove Avenue Los Angeles CA 90066-3502,NA,NA,NA,not tested,LA,Los Angeles County,33.999735,-118.448147
Los Angeles Unified,Marlton,4000 Santo Tomas Drive Los Angeles CA 90008-3304,NA,NA,NA,not tested,LA,Los Angeles County,34.009289,-118.343894
Los Angeles Unified,Marquez Charter,16821 Marquez Avenue Pacific Palisades CA 90272-3243,NA,NA,NA,not tested,LA,Los Angeles County,34.045983,-118.547712
Los Angeles Unified,Martha Escutia Primary Center,6401 Bear Avenue Bell CA 90201-2301,NA,NA,NA,not tested,NA,Los Angeles County,33.978583,-118.197934
Los Angeles Unified,Martin Luther King Jr. Elementary,3989 South Hobart Boulevard Los Angeles CA 90062-1124,NA,NA,NA,not tested,LA,Los Angeles County,34.011153,-118.30789
Los Angeles Unified,Marvin Elementary,2411 Marvin Avenue Los Angeles CA 90016-1910,NA,NA,NA,not tested,NA,Los Angeles County,34.445979,-118.658792
Los Angeles Unified,Mary McLeod Bethune Middle,155 West 69th Street Los Angeles CA 90003-1823,NA,NA,NA,not tested,LA,Los Angeles County,33.977453,-118.275189
Los Angeles Unified,Math and Science College Preparatory,3200 West Adams Boulevard Los Angeles CA 90018-1832,NA,NA,FALSE,tested,LA,Los Angeles County,34.032556,-118.318628
Los Angeles Unified,"Math, Science, & Technology Magnet Academy at Roosevelt High",456 South Mathews St B. Los Angeles CA 90033-4326,NA,NA,NA,not tested,Los Angeles,Los Angeles County,34.037515,-118.211977
Los Angeles Unified,Maurice Sendak Elementary,11414 West Tiara Street North Hollywood CA 91601-1123,NA,NA,NA,not tested,LA,Los Angeles County,34.178426,-118.379652
Los Angeles Unified,Maxine Waters Employment Prep Center,10925 Central Avenue Los Angeles CA 90059,NA,NA,NA,not tested,LA,Los Angeles County,33.935261,-118.254272
Los Angeles Unified,Mayall Street Elementary,16701 Mayall Street North Hills CA 91343-1136,NA,NA,NA,not tested,LA,Los Angeles County,34.25393,-118.495972
Los Angeles Unified,Mayberry Street Elementary,2414 Mayberry Street Los Angeles CA 90026-2318,NA,NA,FALSE,tested,LA,Los Angeles County,34.084122,-118.264154
Los Angeles Unified,Maywood Academy High,6125 Pine Avenue Maywood CA 90270-3110,NA,NA,NA,not tested,NA,Los Angeles County,33.983115,-118.188516
Los Angeles Unified,McKinley Avenue Elementary,7812 McKinley Avenue Los Angeles CA 90001-2829,NA,NA,NA,not tested,LA,Los Angeles County,33.968241,-118.260672
Los Angeles Unified,Melrose Avenue Elementary,731 North Detroit Street Los Angeles CA 90046-7605,NA,NA,NA,not tested,LA,Los Angeles County,34.084055,-118.345249
Los Angeles Unified,Melvin Avenue Elementary,7700 Melvin Avenue Reseda CA 91335-2327,NA,NA,NA,not tested,Los Angeles,Los Angeles County,34.209681,-118.559851
Los Angeles Unified,Menlo Avenue Elementary,4156 Menlo Avenue Los Angeles CA 90037-1933,NA,NA,NA,not tested,LA,Los Angeles County,34.008061,-118.289895
Los Angeles Unified,Metro Charter,320 West 15th Street Suite 143 Los Angeles CA 90015-3092,NA,NA,FALSE,tested,Los Angeles,Los Angeles County,34.036654,-118.266766
Los Angeles Unified,Metropolitan Continuation,727 South Wilson Street Los Angeles CA 90021-1625,NA,NA,NA,not tested,Los Angeles,Los Angeles County,34.033696,-118.234799
Los Angeles Unified,Meyler Street Elementary,1123 West 223rd Street Torrance CA 90502-2250,NA,NA,NA,not tested,Torrance,Los Angeles County,33.825404,-118.295839
Los Angeles Unified,Michelle Obama Elementary,8150 North Cedros Avenue Panorama City CA 91402-4704,NA,NA,NA,not tested,Los Angeles,Los Angeles County,34.218956,-118.453144
Los Angeles Unified,Micheltorena Street Elementary,1511 Micheltorena Street Los Angeles CA 90026-1621,NA,NA,NA,not tested,LA,Los Angeles County,34.088718,-118.275191
Los Angeles Unified,Mid-City's Prescott School of Enriched Sciences,3150 West Adams Boulevard Los Angeles CA 90018-1828,NA,NA,NA,not tested,LA,Los Angeles County,34.032558,-118.318222
Los Angeles Unified,Middle College High,1600 West Imperial Hwy Building 16 Los Angeles CA 90047-4810,NA,NA,NA,not tested,Los Angeles,Los Angeles County,33.928811,-118.306082
Los Angeles Unified,Middleton Primary Center,2410 Zoe Avenue Huntington Park CA 90255-3812,NA,NA,FALSE,tested,NA,Los Angeles County,33.979196,-118.230019
Los Angeles Unified,Middleton Street Elementary,6537 Malabar Street Huntington Park CA 90255-4025,NA,NA,FALSE,tested,NA,Los Angeles County,33.979935,-118.22782
Los Angeles Unified,Miles Avenue Early Education Center,2855 Saturn Avenue Huntington Park CA 90255,NA,NA,FALSE,tested,Huntington Park,Los Angeles County,33.977187,-118.218534
Los Angeles Unified,Miles Avenue Elementary,6720 Miles Avenue Huntington Park CA 90255-5012,NA,NA,FALSE,tested,NA,Los Angeles County,33.978283,-118.218931
Los Angeles Unified,Miramonte Elementary,1400 East 68th Street Los Angeles CA 90001-1916,NA,NA,NA,not tested,LA,Los Angeles County,33.978361,-118.249688
Los Angeles Unified,Mission Continuation,11015 O'Melveny Avenue San Fernando CA 91340-4424,6.4,ppb,TRUE,tested,NA,Los Angeles County,34.27076,-118.44041
Los Angeles Unified,Moneta Continuation,1230 West 177th Street Gardena CA 90248-3317,NA,NA,NA,not tested,Gardena,Los Angeles County,33.87045,-118.294569
Los Angeles Unified,Monsenor Oscar Romero Charter Middle,1157 South Berendo St Los Angeles CA 90006-3301,NA,NA,NA,not tested,LA,Los Angeles County,34.049886,-118.293798
Los Angeles Unified,Montague Charter Academy,13000 Montague Street Pacoima CA 91331-4146,NA,NA,NA,not tested,LA,Los Angeles County,34.244368,-118.415541
Los Angeles Unified,Montara Avenue Elementary,10018 Montara Avenue South Gate CA 90280-5605,NA,NA,FALSE,tested,Lynwood,Los Angeles County,33.944684,-118.217835
Los Angeles Unified,Monte Vista Street Elementary,5423 Monte Vista Street Los Angeles CA 90042-3322,NA,NA,NA,not tested,LA,Los Angeles County,34.110062,-118.198106
Los Angeles Unified,Monterey Continuation,466 South Fraser Street Los Angeles CA 90022-1929,NA,NA,NA,not tested,Los Angeles,Los Angeles County,34.028341,-118.158883
Los Angeles Unified,Morningside Elementary,576 North Maclay Avenue San Fernando CA 91340-2497,NA,NA,NA,not tested,San Fernando,Los Angeles County,34.288222,-118.43388
Los Angeles Unified,Morris K. Hamasaki Elementary,4865 East First Street Los Angeles CA 90022-1305,NA,NA,NA,not tested,East Los Angeles,Los Angeles County,34.037356,-118.160184
Los Angeles Unified,Mt. Gleason Middle,10965 Mount Gleason Avenue Sunland CA 91040-2229,NA,NA,NA,not tested,LA,Los Angeles County,34.268234,-118.302791
Los Angeles Unified,Mt. Lukens Continuation,7705 Summitrose Street Tujunga CA 91042-1727,NA,NA,NA,not tested,LA,Los Angeles County,34.259533,-118.287979
Los Angeles Unified,Mt. Washington Elementary,3981 San Rafael Avenue Los Angeles CA 90065-4013,NA,NA,NA,not tested,LA,Los Angeles County,34.104848,-118.215338
Los Angeles Unified,Multicultural Learning Center,7510 DeSoto Avenue Canoga Park CA 91303-1430,NA,NA,FALSE,tested,Los Angeles,Los Angeles County,34.206689,-118.588228
Los Angeles Unified,Multnomah Street Elementary,2101 North Indiana Avenue Los Angeles CA 90032-3618,NA,NA,NA,not tested,LA,Los Angeles County,34.068185,-118.192798
Los Angeles Unified,Murchison Street Elementary,1501 Murchison Street Los Angeles CA 90033-1526,NA,NA,NA,not tested,LA,Los Angeles County,34.059505,-118.195853
Los Angeles Unified,N.E.W. Academy Canoga Park,21425 Cohasset Street Canoga Park CA 91303-1450,NA,NA,NA,not tested,LA,Los Angeles County,34.206562,-118.597963
Los Angeles Unified,N.E.W. Academy of Science and Arts,379 South Loma Avenue Los Angeles CA 90017-1142,NA,NA,NA,not tested,Long Beach,Los Angeles County,33.771031,-118.150331
Los Angeles Unified,Napa Street Elementary,19010 Napa Street Northridge CA 91324-4416,NA,NA,NA,not tested,LA,Los Angeles County,34.226334,-118.547378
Los Angeles Unified,Nathaniel Narbonne Senior High,24300 Western Ave Harbor City CA 90710-1742,NA,NA,NA,not tested,Los Angeles,Los Angeles County,33.803685,-118.306512
Los Angeles Unified,NAVA College Preparatory Academy,1319 East 41st Street Los Angeles CA 90011-3301,NA,NA,NA,not tested,LA,Los Angeles County,34.009298,-118.251739
Los Angeles Unified,Nestle Avenue Charter,5060 Nestle Avenue Tarzana CA 91356-4350,NA,NA,NA,not tested,LA,Los Angeles County,34.162413,-118.530809
Los Angeles Unified,Nevada Avenue Elementary,22120 Chase Street West Hills CA 91304-2307,NA,NA,NA,not tested,LA,Los Angeles County,34.223765,-118.609324
Los Angeles Unified,Nevin Avenue Elementary,1569 East 32nd Street Los Angeles CA 90011-2213,NA,NA,NA,not tested,LA,Los Angeles County,34.012451,-118.246835
Los Angeles Unified,New Designs Charter,2303 South Figueroa Way Los Angeles CA 90007-2504,NA,NA,NA,not tested,LA,Los Angeles County,34.031007,-118.275045
Los Angeles Unified,New Designs Charter School-Watts,12714 South Avalon Boulevard Los Angeles CA 90061-2730,NA,NA,FALSE,tested,LA,Los Angeles County,33.924014,-118.265204
Los Angeles Unified,New Heights Charter,2202 West Martin Luther King Jr Boulevard Los Angeles CA 90008-2723,NA,NA,NA,not tested,Los Angeles,Los Angeles County,34.010639,-118.317679
Los Angeles Unified,New Horizons Charter Academy,5955 Lankershim Boulevard North Hollywood CA 91601,NA,NA,NA,not tested,LA,Los Angeles County,34.160102,-118.371742
Los Angeles Unified,New Los Angeles Charter,1919 South Burnside Avenue Los Angeles CA 90016-1114,NA,NA,FALSE,tested,LA,Los Angeles County,34.040341,-118.357806
Los Angeles Unified,New Los Angeles Charter Elementary,5421 Rodeo Rd Los Angeles CA 90016-5122,NA,NA,NA,not tested,LA,Los Angeles County,34.02154,-118.357683
Los Angeles Unified,New Millennium Secondary,"1301 WeStreet 182nd Street, Suite B Gardena CA 90248-3322",NA,NA,NA,not tested,Gardena,Los Angeles County,33.867246,-118.294731
Los Angeles Unified,New Village Girls Academy,147 North Occidental Boulevard Los Angeles CA 90026-4601,NA,NA,NA,not tested,LA,Los Angeles County,34.071297,-118.279159
Los Angeles Unified,Newcastle Elementary,6520 Newcastle Avenue Reseda CA 91335-6230,NA,NA,NA,not tested,LA,Los Angeles County,34.18919,-118.525191
Los Angeles Unified,Ninety-Fifth Street Elementary,1109 West 96th Street Los Angeles CA 90044-3205,NA,NA,NA,not tested,LA,Los Angeles County,33.948771,-118.29408
Los Angeles Unified,Ninety-Ninth Street Elementary,9900 South Wadsworth Avenue Los Angeles CA 90002-2746,NA,NA,NA,not tested,Compton,Los Angeles County,33.882638,-118.254403
Los Angeles Unified,Ninety-Second Street Elementary,9211 Grape Street Los Angeles CA 90002-2528,NA,NA,NA,not tested,LA,Los Angeles County,33.953061,-118.236372
Los Angeles Unified,Ninety-Sixth Street Elementary,1471 East 96th Street Los Angeles CA 90002-2210,NA,NA,NA,not tested,LA,Los Angeles County,33.949145,-118.248578
Los Angeles Unified,Ninety-Third Street Elementary,330 East 93rd Street Los Angeles CA 90003-3827,NA,NA,NA,not tested,LA,Los Angeles County,33.95191,-118.268786
Los Angeles Unified,Ninth Street Elementary,835 Stanford Ave Los Angeles CA 90021-1847,NA,NA,NA,not tested,LA,Los Angeles County,34.035999,-118.24724
Los Angeles Unified,Noble Avenue Elementary,8329 Noble Avenue North Hills CA 91343-6617,NA,NA,NA,not tested,LA,Los Angeles County,34.221863,-118.461236
Los Angeles Unified,Nora Sterry Elementary,1730 Corinth Avenue Los Angeles CA 90025-4211,NA,NA,NA,not tested,LA,Los Angeles County,34.044344,-118.44789
Los Angeles Unified,Normandie Avenue Elementary,4505 South Raymond Avenue Los Angeles CA 90037-2817,NA,NA,NA,not tested,LA,Los Angeles County,33.862729,-118.29664
Los Angeles Unified,Normont Elementary,1001 West 253rd Street Harbor City CA 90710-3003,NA,NA,NA,not tested,Lomita,Los Angeles County,33.794792,-118.292899
Los Angeles Unified,North Hollywood Poly Community Adult,12431 Roscoe Boulevard Sun Valley CA 91352-3723,NA,NA,NA,not tested,LA,Los Angeles County,34.221613,-118.389915
Los Angeles Unified,North Hollywood Senior High,5231 Colfax Avenue North Hollywood CA 91601-3002,NA,NA,NA,not tested,LA,Los Angeles County,34.166153,-118.387856
Los Angeles Unified,North Valley Military Institute College Preparatory Academy,12105 Allegheny Street Sun Valley CA 91352,NA,NA,NA,not tested,Los Angeles,Los Angeles County,34.234189,-118.397239
Los Angeles Unified,North Valley Occupational Center,11450 Sharp Avenue Mission Hills CA 91345-1232,NA,NA,NA,not tested,Los Angeles,Los Angeles County,34.277994,-118.456559
Los Angeles Unified,Northridge Academy High,9601 Zelzah Avenue Northridge CA 91325-2010,NA,NA,NA,not tested,LA,Los Angeles County,34.231141,-118.523073
Los Angeles Unified,Northridge Middle,17960 Chase Street Northridge CA 91325-3811,NA,NA,NA,not tested,LA,Los Angeles County,34.224523,-118.52533
Los Angeles Unified,Norwood Street Elementary,2020 Oak St Los Angeles CA 90007-1307,NA,NA,NA,not tested,LA,Los Angeles County,34.035248,-118.278695
Los Angeles Unified,Nueva Vista Elementary,4412 Randolph Street Bell CA 90201-1224,NA,NA,NA,not tested,NA,Los Angeles County,33.980862,-118.188739
Los Angeles Unified,Nutritional Services 083,12255 Cuesta Drive Cerritos CA 90703,NA,NA,FALSE,tested,Cerritos,Los Angeles County,33.879076,-118.071317
Los Angeles Unified,O'Melveny Elementary,728 Woodworth Street San Fernando CA 91340-4219,NA,NA,NA,not tested,NA,Los Angeles County,34.275581,-118.444351
Los Angeles Unified,Ocean Charter,12606 Culver Boulevard Los Angeles CA 90066-6506,NA,NA,FALSE,tested,LA,Los Angeles County,33.988562,-118.42241
Los Angeles Unified,Odyssey Continuation,8693 Dearborn Avenue South Gate CA 90280-2904,5.9,ppb,TRUE,tested,South Gate,Los Angeles County,33.956822,-118.210784
Los Angeles Unified,Olive Vista Middle,14600 Tyler Street Sylmar CA 91342-2826,NA,NA,NA,not tested,LA,Los Angeles County,34.3128,-118.45026
Los Angeles Unified,Oliver Wendell Holmes Middle,9351 Paso Robles Avenue Northridge CA 91325-2528,NA,NA,NA,not tested,LA,Los Angeles County,34.240343,-118.504435
Los Angeles Unified,Olympic Primary Center,950 South Albany Street Los Angeles CA 90015-1212,NA,NA,NA,not tested,Los Angeles,Los Angeles County,34.047985,-118.270615
Los Angeles Unified,One Hundred Eighteenth Street,144 East 118th Street Los Angeles CA 90061-2422,NA,NA,NA,not tested,LA,Los Angeles County,33.926388,-118.272844
Los Angeles Unified,One Hundred Eighty-Sixth Street Elementary,1581 West 186th Street Gardena CA 90248-3951,NA,NA,NA,not tested,Gardena,Los Angeles County,33.863714,-118.305562
Los Angeles Unified,One Hundred Fifty-Sixth Street Elementary,2100 West 156th Street Gardena CA 90249-4703,NA,NA,NA,not tested,Gardena,Los Angeles County,33.889199,-118.316135
Los Angeles Unified,One Hundred Fifty-Third Street,1605 West 153rd Street Gardena CA 90247-3135,NA,NA,NA,not tested,Gardena,Los Angeles County,33.892942,-118.304985
Los Angeles Unified,One Hundred Ninth Street Elementary,10915 South McKinley Avenue Los Angeles CA 90059-1523,NA,NA,NA,not tested,Compton,Los Angeles County,33.882524,-118.25874
Los Angeles Unified,One Hundred Seventh Street Elementary,147 East 107th Street Los Angeles CA 90003-4732,NA,NA,NA,not tested,LA,Los Angeles County,33.939395,-118.272838
Los Angeles Unified,One Hundred Sixteenth Street Elementary,11610 Stanford Avenue Los Angeles CA 90059-2313,NA,NA,NA,not tested,LA,Los Angeles County,33.928991,-118.262051
Los Angeles Unified,One Hundred Thirty-Fifth Street Elementary,801 West 135th Street Gardena CA 90247-2154,NA,NA,NA,not tested,Gardena,Los Angeles County,33.909166,-118.291905
Los Angeles Unified,One Hundred Twelfth Street Elementary,1265 East 112th Street Los Angeles CA 90059-1137,NA,NA,NA,not tested,LA,Los Angeles County,33.933215,-118.252591
Los Angeles Unified,One Hundred Twenty-Second Street Elementary,405 East 122nd Street Los Angeles CA 90061-2807,NA,NA,NA,not tested,NA,Los Angeles County,33.921385,-118.267331
Los Angeles Unified,Open Charter Magnet,5540 West 77th Street Los Angeles CA 90045-3214,NA,NA,NA,not tested,LA,Los Angeles County,33.968468,-118.377484
Los Angeles Unified,Orthopaedic Hospital,300 West 23rd Street Los Angeles CA 90007-2612,NA,NA,NA,not tested,LA,Los Angeles County,34.029638,-118.272053
Los Angeles Unified,Orville Wright Engineering and Design Magnet,6550 West 80th Street Los Angeles CA 90045-1127,NA,NA,NA,not tested,LA,Los Angeles County,33.969228,-118.404471
Los Angeles Unified,Oscar De La Hoya Animo Charter High,1114 South Lorena Street Los Angeles CA 90023-2915,NA,NA,FALSE,tested,LA,Los Angeles County,34.023423,-118.203584
Los Angeles Unified,Osceola Street Elementary,14940 Osceola Street Sylmar CA 91342-5280,NA,NA,NA,not tested,LA,Los Angeles County,34.290508,-118.456735
Los Angeles Unified,Our Community Charter,10045 Jumilla Avenue Chatsworth CA 91311-3507,NA,NA,NA,not tested,LA,Los Angeles County,34.253137,-118.563453
Los Angeles Unified,Overland Avenue Elementary,10650 Ashby Avenue Los Angeles CA 90064-3209,NA,NA,NA,not tested,LA,Los Angeles County,34.038528,-118.42094
Los Angeles Unified,Owensmouth Continuation,6921 Jordan Avenue Canoga Park CA 91303-1997,NA,NA,NA,not tested,LA,Los Angeles County,34.195722,-118.60294
Los Angeles Unified,Oxnard Street Elementary,10912 Oxnard Street North Hollywood CA 91606-4910,NA,NA,NA,not tested,LA,Los Angeles County,34.179409,-118.389958
Los Angeles Unified,Pacific Boulevard,2660 East 57th Street Huntington Park CA 90255-2545,NA,NA,FALSE,tested,NA,Los Angeles County,33.991004,-118.223611
Los Angeles Unified,Pacoima Charter Elementary,11016 Norris Avenue Pacoima CA 91331-2569,NA,NA,NA,not tested,LA,Los Angeles County,34.269884,-118.415815
Los Angeles Unified,Pacoima Middle,9919 Laurel Canyon Boulevard Pacoima CA 91331-3940,NA,NA,NA,not tested,LA,Los Angeles County,34.250077,-118.423042
Los Angeles Unified,Palisades Charter Elementary,800 Via de La Paz Pacific Palisades CA 90272-3617,NA,NA,NA,not tested,LA,Los Angeles County,34.044863,-118.527575
Los Angeles Unified,Palisades Charter High,15777 Bowdoin Street Pacific Palisades CA 90272-3523,NA,NA,NA,not tested,LA,Los Angeles County,34.046944,-118.531902
Los Angeles Unified,Palms Elementary,3520 Motor Avenue Los Angeles CA 90034-4807,NA,NA,NA,not tested,LA,Los Angeles County,34.026085,-118.408158
Los Angeles Unified,Palms Middle,10860 Woodbine Street Los Angeles CA 90034-5416,NA,NA,NA,not tested,LA,Los Angeles County,34.024109,-118.415963
Los Angeles Unified,Panorama City Elementary,8600 Kester Avenue Panorama City CA 91402-2725,NA,NA,NA,not tested,LA,Los Angeles County,34.226397,-118.457372
Los Angeles Unified,Panorama High,8015 Van Nuys Boulevard Panorama City CA 91402-6009,NA,NA,NA,not tested,LA,Los Angeles County,34.22093,-118.448857
Los Angeles Unified,Para Los Ninos - Evelyn Thurman Gratts Primary,474 South Hartford Avenue Los Angeles CA 90017-1306,NA,NA,NA,not tested,Los Angeles,Los Angeles County,34.056218,-118.26392
Los Angeles Unified,Para Los Ninos Charter,1617 East Seventh Street Los Angeles CA 90021-1207,NA,NA,FALSE,tested,Los Angeles,Los Angeles County,34.03526,-118.237038
Los Angeles Unified,Para Los Ninos Middle,835 Stanford Avenue Los Angeles CA 90021-1847,NA,NA,NA,not tested,LA,Los Angeles County,34.035999,-118.24724
Los Angeles Unified,Park Avenue Elementary,8020 Park Avenue Cudahy CA 90201-6018,NA,NA,NA,not tested,NA,Los Angeles County,33.961179,-118.173808
Los Angeles Unified,Park Western Place Elementary,1214 Park Western Place San Pedro CA 90732-2220,NA,NA,NA,not tested,LA,Los Angeles County,33.753104,-118.304581
Los Angeles Unified,Parmelee Avenue Elementary,1338 East 76th Place Los Angeles CA 90001-3006,NA,NA,NA,not tested,LA,Los Angeles County,33.97068,-118.251139
Los Angeles Unified,Parthenia Street Elementary,16825 Napa Street North Hills CA 91343-5618,NA,NA,NA,not tested,LA,Los Angeles County,34.226475,-118.469849
Los Angeles Unified,Paseo del Rey Fundamental,7751 Paseo del Rey Playa Del Rey CA 90293-8372,NA,NA,NA,not tested,Los Angeles,Los Angeles County,33.956536,-118.433744
Los Angeles Unified,Pathways Community,8800 South San Pedro Street Los Angeles CA 90003-3541,NA,NA,NA,not tested,LA,Los Angeles County,34.041848,-118.245602
Los Angeles Unified,Patrick Henry Middle,17340 San Jose Street Granada Hills CA 91344-6131,NA,NA,NA,not tested,LA,Los Angeles County,34.261122,-118.511956
Los Angeles Unified,Paul Revere Charter Middle,1450 Allenford Avenue Los Angeles CA 90049-3614,NA,NA,NA,not tested,Santa Monica,Los Angeles County,34.054741,-118.494953
Los Angeles Unified,Phineas Banning Senior High,1527 Lakme Ave. Wilmington CA 90744-1526,NA,NA,NA,not tested,LA,Los Angeles County,33.794058,-118.260835
Los Angeles Unified,Phoenix Continuation,12971 Zanja Street Los Angeles CA 90066-4175,NA,NA,NA,not tested,NA,Los Angeles County,33.996755,-118.441446
Los Angeles Unified,Pinewood Avenue Elementary,10111 Silverton Avenue Tujunga CA 91042-2410,NA,NA,NA,not tested,LA,Los Angeles County,34.253084,-118.285092
Los Angeles Unified,Pio Pico Middle,1512 South Arlington Avenue Los Angeles CA 90019-4552,NA,NA,NA,not tested,Los Angeles,Los Angeles County,34.045097,-118.3172
Los Angeles Unified,Plainview Academic Charter Academy,10819 Plainview Avenue Tujunga CA 91042-1633,NA,NA,NA,not tested,LA,Los Angeles County,34.253429,-118.297941
Los Angeles Unified,Playa del Rey Elementary,12221 Juniette Street Culver City CA 90230-6235,NA,NA,NA,not tested,NA,Los Angeles County,33.985514,-118.404207
Los Angeles Unified,Playa Vista Elementary,13150 West Bluff Creek Drive Playa Vista CA 90094-2520,NA,NA,NA,not tested,Los Angeles,Los Angeles County,33.968623,-118.424395
Los Angeles Unified,Plummer Elementary,9340 Noble Avenue North Hills CA 91343-3406,NA,NA,NA,not tested,LA,Los Angeles County,34.240492,-118.460893
Los Angeles Unified,Point Fermin Elementary,3333 Kerckhoff Avenue San Pedro CA 90731-6712,NA,NA,NA,not tested,Los Angeles,Los Angeles County,33.71392,-118.290438
Los Angeles Unified,Pomelo Community Charter,7633 March Avenue West Hills CA 91304-5233,NA,NA,NA,not tested,LA,Los Angeles County,34.208873,-118.641978
Los Angeles Unified,Port of Los Angeles High,250 West Fifth Street San Pedro CA 90731-3304,NA,NA,FALSE,tested,Los Angeles,Los Angeles County,33.740444,-118.282582
Los Angeles Unified,Porter Ranch Community,12450 Mason Avenue Porter Ranch CA 91326-4619,NA,NA,NA,not tested,Los Angeles,Los Angeles County,34.293056,-118.581297
Los Angeles Unified,President Avenue Elementary,1465 West 243rd Street Harbor City CA 90710-1706,NA,NA,NA,not tested,LA,Los Angeles County,33.804092,-118.302596
Los Angeles Unified,Primary Academy for Success,9075 Willis Avenue Panorama City CA 91402-1512,NA,NA,NA,not tested,LA,Los Angeles County,34.234912,-118.455386
Los Angeles Unified,Public Policy Charter,1701 Browning Boulevard Los Angeles CA 90062-1302,NA,NA,FALSE,tested,LA,Los Angeles County,34.01196,-118.30906
Los Angeles Unified,PUC CALS Middle and Early College High,7350 North Figueroa Street Los Angeles CA 90041-2547,NA,NA,NA,not tested,LA,Los Angeles County,34.137167,-118.187822
Los Angeles Unified,PUC Community Charter Elementary,14019 Sayre Street Sylmar CA 91342-4265,NA,NA,FALSE,tested,LA,Los Angeles County,34.30577,-118.438826
Los Angeles Unified,PUC Community Charter Middle and PUC Community Charter Early College High,11500 Eldridge Avenue Lakeview Terrace CA 91342-6522,NA,NA,NA,not tested,Los Angeles,Los Angeles County,34.280097,-118.382379
Los Angeles Unified,PUC Early College Academy for Leaders and Scholars (ECALS),2050 San Fernando Los Angeles CA 90065-1267,NA,NA,NA,not tested,San Fernando,Los Angeles County,34.281946,-118.438972
Los Angeles Unified,PUC Excel Charter Academy,1855 North Main Street Los Angeles CA 90031-3227,NA,NA,FALSE,tested,LA,Los Angeles County,34.066467,-118.220207
Los Angeles Unified,PUC Inspire Charter Academy,919 Eighth Street San Fernando CA 91340-1312,NA,NA,FALSE,tested,San Fernando,Los Angeles County,34.295469,-118.422564
Los Angeles Unified,PUC Lakeview Charter Academy,11465 Kagel Canyon Street Lakeview Terrace CA 91342,NA,NA,NA,not tested,Los Angeles,Los Angeles County,34.280132,-118.381544
Los Angeles Unified,PUC Lakeview Charter High,13361 Glenoaks Blvd. Sylmar CA 91342-2110,NA,NA,NA,not tested,LA,Los Angeles County,34.314391,-118.458668
Los Angeles Unified,PUC Milagro Charter,1855 North Main St Los Angeles CA 90031-3227,NA,NA,FALSE,tested,LA,Los Angeles County,34.066467,-118.220207
Los Angeles Unified,PUC Nueva Esperanza Charter Academy,1218 North Fourth Street San Fernando CA 91340-2314,NA,NA,NA,not tested,San Fernando,Los Angeles County,34.287767,-118.438535
Los Angeles Unified,PUC Santa Rosa Charter Academy,3838 Eagle Rock Boulevard Los Angeles CA 90065-3638,NA,NA,FALSE,tested,LA,Los Angeles County,34.118535,-118.232345
Los Angeles Unified,PUC Triumph Charter Academy and PUC Triumph Charter High,13361 Glenoaks Boulevard Sylmar CA 91342-4265,NA,NA,NA,not tested,LA,Los Angeles County,34.314391,-118.458668
Los Angeles Unified,Pueblo de Los Angeles Continuation,2506 Alta Street Los Angeles CA 90031-2457,NA,NA,NA,not tested,LA,Los Angeles County,34.075755,-118.203864
Los Angeles Unified,Puente Charter,501 South Boyle Avenue Los Angeles CA 90033-3816,NA,NA,FALSE,tested,NA,Los Angeles County,33.993907,-118.21295
Los Angeles Unified,Purche Avenue Elementary,13210 Purche Avenue Gardena CA 90249-1653,NA,NA,FALSE,tested,Gardena,Los Angeles County,33.912462,-118.32031
Los Angeles Unified,Queen Anne Place Elementary,1212 Queen Anne Place Los Angeles CA 90019-6819,NA,NA,NA,not tested,LA,Los Angeles County,34.051091,-118.331463
Los Angeles Unified,Quincy Jones Elementary,900 East 33rd Street Los Angeles CA 90011-2524,NA,NA,NA,not tested,LA,Los Angeles County,34.01451,-118.260759
Los Angeles Unified,Ramon C. Cortines School of Visual and Performing Arts,450 North Grand Avenue Los Angeles CA 90012-2123,NA,NA,NA,not tested,LA,Los Angeles County,34.059569,-118.244869
Los Angeles Unified,Ramona Opportunity High,231 South Alma Avenue Los Angeles CA 90063-2412,NA,NA,NA,not tested,LA,Los Angeles County,34.033624,-118.191169
Los Angeles Unified,Ranchito Avenue Elementary,7940 Ranchito Avenue Panorama City CA 91402-6131,NA,NA,NA,not tested,LA,Los Angeles County,34.2151,-118.434512
Los Angeles Unified,Rancho Dominguez Preparatory,4110 Santa Fe Avenue Long Beach CA 90810-1439,NA,NA,FALSE,tested,Long Beach,Los Angeles County,33.817095,-118.215529
Los Angeles Unified,Raymond Avenue Elementary,7511 Raymond Avenue Los Angeles CA 90044-2430,NA,NA,NA,not tested,LA,Los Angeles County,33.972249,-118.298206
Los Angeles Unified,Renaissance Arts Academy,1800 Colorado Boulevard Los Angeles CA 90041-1340,NA,NA,NA,not tested,LA,Los Angeles County,34.139335,-118.206356
Los Angeles Unified,Renaissance Arts Academy K-12,1816 Colorado Boulevard Los Angeles CA 90041,NA,NA,NA,not tested,LA,Los Angeles County,34.13932,-118.206886
Los Angeles Unified,Reseda Community Adult,18230 Kittridge St Reseda CA 91335-6121,NA,NA,NA,not tested,LA,Los Angeles County,34.190148,-118.530291
Los Angeles Unified,Reseda Elementary,7265 Amigo Avenue Reseda CA 91335-3035,NA,NA,NA,not tested,LA,Los Angeles County,34.202389,-118.538696
Los Angeles Unified,Reseda Senior High,18230 Kittridge Street Reseda CA 91335-6121,NA,NA,NA,not tested,LA,Los Angeles County,34.190148,-118.530291
Los Angeles Unified,Resolute Academy Charter,1265 East 112th St Los Angeles CA 90059-1137,NA,NA,NA,not tested,LA,Los Angeles County,33.933215,-118.252591
Los Angeles Unified,RFK Community Schools-Ambassador School-Global Education,3201 West Eighth Street Los Angeles CA 90005-2171,NA,NA,NA,not tested,Los Angeles,Los Angeles County,34.058286,-118.297412
Los Angeles Unified,RFK Community Schools-Ambassador-Global Leadership,701 S Catalina Street Los Angeles CA 90005-1943,NA,NA,NA,not tested,LA,Los Angeles County,34.061869,-118.295367
Los Angeles Unified,RFK Community Schools-for the Visual Arts and Humanities,701 South Catalina St Los Angeles CA 90005-1943,NA,NA,NA,not tested,LA,Los Angeles County,34.061869,-118.295367
Los Angeles Unified,RFK Community Schools-Los Angeles High School of the Arts,701 South Catalina Street Los Angeles CA 90005-1943,NA,NA,NA,not tested,LA,Los Angeles County,34.061869,-118.295367
Los Angeles Unified,RFK Community Schools-New Open World Academy K-12,3201 West Eighth St Los Angeles CA 90010-2171,NA,NA,NA,not tested,Los Angeles,Los Angeles County,34.058286,-118.297412
Los Angeles Unified,RFK Community Schools-UCLA Community K-12,700 South Mariposa Avenue Los Angeles CA 90005-2001,NA,NA,NA,not tested,LA,Los Angeles County,34.05961,-118.298617
Los Angeles Unified,Ricardo Lizarraga Elementary,401 East 40th Place Los Angeles CA 90011-5640,NA,NA,NA,not tested,LA,Los Angeles County,34.010287,-118.268404
Los Angeles Unified,Richard A. Alonzo Community Day,5755 Fountain Avenue Los Angeles CA 90028-8531,NA,NA,NA,not tested,LA,Los Angeles County,34.094807,-118.314909
Los Angeles Unified,Richard E. Byrd Middle,8501 Arleta Avenue Sun Valley CA 91352-2958,NA,NA,NA,not tested,Los Angeles,Los Angeles County,34.223918,-118.407918
Los Angeles Unified,Richard Riordan Primary Center,5531 Monte Vista Street Los Angeles CA 90042-3324,NA,NA,NA,not tested,LA,Los Angeles County,34.11076,-118.196688
Los Angeles Unified,Richland Avenue Elementary,11562 Richland Avenue Los Angeles CA 90064-3733,NA,NA,NA,not tested,LA,Los Angeles County,34.028509,-118.440356
Los Angeles Unified,Rise Ko Hyang Middle,3020 Wilshire Boulevard Suite 250 Los Angeles CA 90010-1111,NA,NA,NA,not tested,Los Angeles,Los Angeles County,34.061106,-118.287469
Los Angeles Unified,Rise Kohyang High,1575 West 2nd St Los Angeles CA 90026-5701,NA,NA,FALSE,tested,LA,Los Angeles County,34.061339,-118.263384
Los Angeles Unified,Ritter Elementary,11108 Watts Avenue Los Angeles CA 90059-1444,NA,NA,NA,not tested,NA,Los Angeles County,33.934277,-118.227788
Los Angeles Unified,Riverside Drive Charter,13061 Riverside Drive Sherman Oaks CA 91423-2128,NA,NA,NA,not tested,LA,Los Angeles County,34.15762,-118.430486
Los Angeles Unified,"Robert A. Millikan Middle School, Performing Arts Magnet & Science Academy STEM",5041 Sunnyslope Avenue Sherman Oaks CA 91423-1445,NA,NA,NA,not tested,LA,Los Angeles County,34.162957,-118.428477
Los Angeles Unified,Robert Frost Middle,12314 Bradford Place Granada Hills CA 91344-1918,NA,NA,NA,not tested,LA,Los Angeles County,34.294213,-118.512122
Los Angeles Unified,Robert Fulton College Preparatory,7477 Kester Avenue Van Nuys CA 91405-1722,NA,NA,NA,not tested,LA,Los Angeles County,34.206367,-118.457562
Los Angeles Unified,Robert H. Lewis Continuation,12508 Wicks Street Sun Valley CA 91352-2953,NA,NA,NA,not tested,Los Angeles,Los Angeles County,34.226157,-118.404227
Los Angeles Unified,Robert Hill Lane Elementary,1500 Cesar Chavez Avenue Monterey Park CA 91754,NA,NA,NA,not tested,Monterey Park,Los Angeles County,34.039747,-118.152239
Los Angeles Unified,Robert Louis Stevenson Middle,725 South Indiana Street Los Angeles CA 90023-1840,NA,NA,NA,not tested,NA,Los Angeles County,34.025985,-118.192412
Los Angeles Unified,Rockdale Visual & Performing Arts Magnet,1303 Yosemite Drive Los Angeles CA 90041-2434,NA,NA,NA,not tested,LA,Los Angeles County,34.133296,-118.193723
Los Angeles Unified,Rodia High School,2650 Tweedy Blvd. South Gate CA 90280,NA,NA,FALSE,tested,South Gate,Los Angeles County,33.945633,-118.223839
Los Angeles Unified,Roosevelt Community Adult,456 South Matthews Street Los Angeles CA 90033-4326,NA,NA,NA,not tested,Los Angeles,Los Angeles County,34.037522,-118.212006
Los Angeles Unified,ROP Center,333 South Beaudry Ave 18th Floor Los Angeles CA 90017-5108,NA,NA,NA,not tested,Los Angeles,Los Angeles County,34.056143,-118.257322
Los Angeles Unified,Rosa Parks Learning Center,8855 Noble Avenue North Hills CA 91343-5518,NA,NA,NA,not tested,LA,Los Angeles County,34.230955,-118.461699
Los Angeles Unified,Roscoe Elementary,10765 Strathern Street Sun Valley CA 91352-4644,NA,NA,NA,not tested,LA,Los Angeles County,34.215771,-118.366475
Los Angeles Unified,Roscomare Road Elementary,2425 Roscomare Road Los Angeles CA 90077-1812,NA,NA,NA,not tested,LA,Los Angeles County,34.120158,-118.464533
Los Angeles Unified,Rosemont Avenue Elementary,421 North Rosemont Avenue Los Angeles CA 90026-4994,NA,NA,NA,not tested,Los Angeles,Los Angeles County,34.072312,-118.269907
Los Angeles Unified,Rosewood Avenue Elementary,503 North Croft Avenue Los Angeles CA 90048-2510,NA,NA,NA,not tested,West Hollywood,Los Angeles County,34.080318,-118.374307
Los Angeles Unified,Rowan Avenue Elementary,600 South Rowan Avenue Los Angeles CA 90023-1826,NA,NA,NA,not tested,NA,Los Angeles County,34.027186,-118.187317
Los Angeles Unified,Roy Romer Middle,6501 Laurel Canyon Boulevard North Hollywood CA 91606-1520,NA,NA,NA,not tested,LA,Los Angeles County,34.188612,-118.39661
Los Angeles Unified,Rudecinda Sepulveda Dodson Middle,28014 Montereina Drive Rancho Palos Verdes CA 90275-1288,NA,NA,NA,not tested,Rancho Palos Verdes,Los Angeles County,33.764917,-118.316586
Los Angeles Unified,Russell Elementary,1263 East Firestone Boulevard Los Angeles CA 90001-3738,NA,NA,NA,not tested,Los Angeles,Los Angeles County,33.96052,-118.251703
Los Angeles Unified,Sal Castro Middle,1575 West 2nd Street B Los Angeles CA 90026-5701,NA,NA,FALSE,tested,Los Angeles,Los Angeles County,34.061282,-118.262913
Los Angeles Unified,Sally Ride Elementary: A SMArT Academy,1041 East 46th Street Los Angeles CA 90011-3627,NA,NA,NA,not tested,LA,Los Angeles County,34.001904,-118.257303
Los Angeles Unified,Samuel Gompers Middle,234 East 112th Street Los Angeles CA 90061-2542,NA,NA,NA,not tested,LA,Los Angeles County,33.93289,-118.270977
Los Angeles Unified,San Antonio Continuation,2911 Belgrave Avenue Huntington Park CA 90255-5268,NA,NA,NA,not tested,NA,Los Angeles County,33.987254,-118.217196
Los Angeles Unified,San Antonio Elementary,6222 State Street Huntington Park CA 90255-4403,NA,NA,FALSE,tested,NA,Los Angeles County,33.983606,-118.212498
Los Angeles Unified,San Fernando Elementary,1130 Mott Street San Fernando CA 91340-4126,NA,NA,NA,not tested,NA,Los Angeles County,34.279542,-118.447403
Los Angeles Unified,San Fernando Middle,130 North Brand Blvd San Fernando CA 91340-2996,NA,NA,NA,not tested,NA,Los Angeles County,34.282533,-118.43853
Los Angeles Unified,San Fernando Senior High,11133 O'Melveny Avenue San Fernando CA 91340-4426,NA,NA,NA,not tested,NA,Los Angeles County,34.271566,-118.441262
Los Angeles Unified,San Gabriel Avenue Elementary,8628 San Gabriel Avenue South Gate CA 90280-3112,NA,NA,FALSE,tested,South Gate,Los Angeles County,33.956543,-118.202029
Los Angeles Unified,San Jose Street Elementary,14928 Clymer Street Mission Hills CA 91345-2111,NA,NA,NA,not tested,LA,Los Angeles County,34.262556,-118.457123
Los Angeles Unified,San Miguel Elementary,9801 San Miguel Avenue South Gate CA 90280-4823,7.7,ppb,TRUE,tested,South Gate,Los Angeles County,33.944705,-118.200782
Los Angeles Unified,San Pascual Elementary Science Technology Engineering Arts And Mathematics (STEAM) Magnet,815 San Pascual Avenue Los Angeles CA 90042-3030,NA,NA,NA,not tested,LA,Los Angeles County,34.11865,-118.171997
Los Angeles Unified,San Pedro Senior High,1001 West 15th Street San Pedro CA 90731-3925,NA,NA,NA,not tested,LA,Los Angeles County,33.730549,-118.299127
Los Angeles Unified,San Pedro Street Elementary,1635 South San Pedro Street Los Angeles CA 90015-3706,NA,NA,NA,not tested,LA,Los Angeles County,34.029249,-118.256486
Los Angeles Unified,Santa Monica Boulevard Community Charter,1022 North Van Ness Avenue Los Angeles CA 90038-3252,NA,NA,NA,not tested,Los Angeles,Los Angeles County,34.089581,-118.31519
Los Angeles Unified,Santee Education Complex,1921 South Maple Avenue Los Angeles CA 90011-1036,NA,NA,NA,not tested,Montebello,Los Angeles County,34.00845,-118.117636
Los Angeles Unified,Sara Coughlin Elementary,11035 Borden Street Pacoima CA 91331-1533,NA,NA,NA,not tested,Los Angeles,Los Angeles County,34.270373,-118.402755
Los Angeles Unified,Saticoy Elementary,7850 Ethel Avenue North Hollywood CA 91605-1940,NA,NA,NA,not tested,LA,Los Angeles County,34.19155,-118.417852
Los Angeles Unified,Saturn Street Elementary,5360 Saturn Street Los Angeles CA 90019-3960,NA,NA,NA,not tested,LA,Los Angeles County,34.046618,-118.35576
Los Angeles Unified,School of Business and Tourism at Contreras Learning Complex,322 Lucas Avenue Los Angeles CA 90017-1406,NA,NA,NA,not tested,LA,Los Angeles County,34.058003,-118.261661
Los Angeles Unified,School of History and Dramatic Arts at Sonia Sotomayor Learning Academies,2050 San Fernando Road B Los Angeles CA 90065-1267,NA,NA,NA,not tested,Los Angeles,Los Angeles County,34.10226,-118.237398
Los Angeles Unified,"Science, Technology, Engineering, Arts and Mathematics at Legacy High School Complex",5225 Tweedy Boulevard 2 South Gate CA 90280-5332,NA,NA,NA,not tested,South Gate,Los Angeles County,33.941267,-118.178957
Los Angeles Unified,Second Street Elementary,1942 East Second Street Los Angeles CA 90033-3417,NA,NA,NA,not tested,Los Angeles,Los Angeles County,34.044846,-118.216706
Los Angeles Unified,Secondary Community Day School,6020 Miles Ave. Huntington Park CA 90255,NA,NA,FALSE,tested,Huntington Park,Los Angeles County,33.986631,-118.2189
Los Angeles Unified,Selma Avenue Elementary,6611 Selma Avenue Los Angeles CA 90028-7113,NA,NA,NA,not tested,LA,Los Angeles County,34.09984,-118.333194
Los Angeles Unified,Serrania Avenue Charter For Enriched Studies,5014 Serrania Avenue Woodland Hills CA 91364-3303,NA,NA,NA,not tested,LA,Los Angeles County,34.159931,-118.588257
Los Angeles Unified,Seventh Street Elementary,1570 West Seventh Street San Pedro CA 90732-3420,NA,NA,NA,not tested,Los Angeles,Los Angeles County,33.738076,-118.311229
Los Angeles Unified,Seventy-Fifth Street Elementary,142 West 75th Street Los Angeles CA 90003-2014,NA,NA,NA,not tested,LA,Los Angeles County,33.971701,-118.275542
Los Angeles Unified,Seventy-Fourth Street Elementary,2112 West 74th Street Los Angeles CA 90047-2118,NA,NA,NA,not tested,LA,Los Angeles County,33.972754,-118.313376
Los Angeles Unified,Sharp Avenue Elementary,13800 Pierce Street Arleta CA 91331-4530,NA,NA,NA,not tested,LA,Los Angeles County,34.253257,-118.432307
Los Angeles Unified,Shenandoah Street Elementary,2450 Shenandoah Street Los Angeles CA 90034-2026,NA,NA,NA,not tested,Los Angeles,Los Angeles County,34.038507,-118.384125
Los Angeles Unified,Sheridan Street Elementary,416 North Cornwell Street Los Angeles CA 90033-1833,NA,NA,NA,not tested,LA,Los Angeles County,34.049886,-118.208187
Los Angeles Unified,Sherman Oaks Center for Enriched Studies,18605 Erwin Street Reseda CA 91335-6824,NA,NA,NA,not tested,LA,Los Angeles County,34.183953,-118.538909
Los Angeles Unified,Sherman Oaks Elementary Charter,14755 Greenleaf Street Sherman Oaks CA 91403-4127,NA,NA,NA,not tested,LA,Los Angeles County,34.149894,-118.455175
Los Angeles Unified,Shirley Avenue Elementary,19452 Hart Street Reseda CA 91335-3735,NA,NA,NA,not tested,LA,Los Angeles County,34.19737,-118.557452
Los Angeles Unified,Short Avenue Elementary,12814 Maxella Avenue Los Angeles CA 90066-6107,NA,NA,NA,not tested,NA,Los Angeles County,33.991071,-118.432461
Los Angeles Unified,Sierra Park Elementary,3170 Budau Avenue Los Angeles CA 90032-2856,NA,NA,NA,not tested,LA,Los Angeles County,34.081979,-118.169486
Los Angeles Unified,Sierra Vista Elementary,4342 Alpha Street Los Angeles CA 90032-1396,NA,NA,NA,not tested,NA,Los Angeles County,34.095329,-118.159268
Los Angeles Unified,Simon Rodia Continuation,2701 Sequoia Drive South Gate CA 90280-5555,NA,NA,NA,not tested,South Gate,Los Angeles County,33.942023,-118.221384
Los Angeles Unified,Sixth Avenue Elementary,3109 Sixth Avenue Los Angeles CA 90018-2920,NA,NA,NA,not tested,Los Angeles,Los Angeles County,34.02663,-118.324179
Los Angeles Unified,Sixty-Eighth Street Elementary,612 West 68th Street Los Angeles CA 90044-6204,NA,NA,NA,not tested,LA,Los Angeles County,33.97821,-118.284119
Los Angeles Unified,Sixty-First Street Elementary,6020 South Figueroa Street Los Angeles CA 90003-1020,NA,NA,NA,not tested,LA,Los Angeles County,33.984836,-118.282565
Los Angeles Unified,Sixty-Sixth Street Elementary,6600 South San Pedro Street Los Angeles CA 90003-1938,NA,NA,NA,not tested,LA,Los Angeles County,34.041848,-118.245602
Los Angeles Unified,Social Justice Leadership Academy at Esteban E. Torres High No. 5,4211 Dozier Street Los Angeles CA 90063-3422,NA,NA,NA,not tested,NA,Los Angeles County,34.041716,-118.175543
Los Angeles Unified,Solano Avenue Elementary,615 Solano Avenue Los Angeles CA 90012-1036,NA,NA,NA,not tested,LA,Los Angeles County,34.075937,-118.232301
Los Angeles Unified,Sophia T. Salvin Special Education Center,1925 Budlong Avenue Los Angeles CA 90007-1109,NA,NA,NA,not tested,LA,Los Angeles County,34.039691,-118.296319
Los Angeles Unified,Soto Street Elementary,1020 South Soto Street Los Angeles CA 90023-1324,6.7,ppb,TRUE,tested,Los Angeles,Los Angeles County,34.031695,-118.216983
Los Angeles Unified,South East High,2720 Tweedy Boulevard South Gate CA 90280-5539,NA,NA,FALSE,tested,South Gate,Los Angeles County,33.945859,-118.221575
Los Angeles Unified,South Gate Middle,4100 Firestone Boulevard South Gate CA 90280-3218,NA,NA,FALSE,tested,South Gate,Los Angeles County,33.95128,-118.19815
Los Angeles Unified,South Gate Senior High,3351 Firestone Boulevard South Gate CA 90280-2937,NA,NA,FALSE,tested,South Gate,Los Angeles County,33.952323,-118.186116
Los Angeles Unified,South Park Elementary,8510 Towne Avenue Los Angeles CA 90003-3119,NA,NA,NA,not tested,LA,Los Angeles County,33.960841,-118.267401
Los Angeles Unified,South Shores/CSUDH Visual and Performing Arts,2060 West 35th Street San Pedro CA 90732-4704,NA,NA,NA,not tested,LA,Los Angeles County,33.722069,-118.321947
Los Angeles Unified,Southeast Middle,2560 Tweedy Boulevard South Gate CA 90280-5557,NA,NA,FALSE,tested,South Gate,Los Angeles County,33.94638,-118.226271
Los Angeles Unified,Special Education-Infant/Preschool Program,333 South Beaudry Avenue Floor 17 Los Angeles CA 90017-5105,NA,NA,NA,not tested,Los Angeles,Los Angeles County,34.056143,-118.257322
Los Angeles Unified,Stagg Street Elementary,7839 Amestoy Avenue Van Nuys CA 91406-1602,NA,NA,NA,not tested,Los Angeles,Los Angeles County,34.212952,-118.506579
Los Angeles Unified,Stanford Avenue Elementary,2833 Illinois Avenue South Gate CA 90280-4005,7,ppb,TRUE,tested,South Gate,Los Angeles County,33.951055,-118.22226
Los Angeles Unified,Stanford Primary Center,3020 Kansas Avenue South Gate CA 90280-4108,7.7,ppb,TRUE,tested,South Gate,Los Angeles County,33.948696,-118.218303
Los Angeles Unified,Stanley Mosk Elementary,7335 Lubao Avenue Winnetka CA 91306-3670,NA,NA,NA,not tested,LA,Los Angeles County,34.203447,-118.56808
Los Angeles Unified,State Early Education Center,3210 Broadway Street Huntington Park CA 90255,NA,NA,FALSE,tested,Walnut Park,Los Angeles County,33.965024,-118.211292
Los Angeles Unified,State Elementary,3211 Santa Ana Street Huntington Park CA 90255,NA,NA,FALSE,tested,South Gate,Los Angeles County,33.963896,-118.212062
Los Angeles Unified,State Street Elementary,3211 Santa Ana Street South Gate CA 90280-2305,NA,NA,NA,not tested,NA,Los Angeles County,33.963515,-118.211687
Los Angeles Unified,Stella Middle Charter Academy,2636 Mansfield Avenue Los Angeles CA 90016-3512,NA,NA,FALSE,tested,Los Angeles,Los Angeles County,34.03156,-118.352359
Los Angeles Unified,STEM Academy at Bernstein High,1309 North Wilton Pl Hollywood CA 90028-8526,NA,NA,NA,not tested,LA,Los Angeles County,34.07611,-118.313594
Los Angeles Unified,Stephen M. White Middle,22102 South Figueroa Street Carson CA 90745-4404,NA,NA,NA,not tested,Carson,Los Angeles County,33.84321,-118.285072
Los Angeles Unified,Stonehurst Avenue Elementary,9851 Stonehurst Avenue Sun Valley CA 91352-1222,NA,NA,NA,not tested,Los Angeles,Los Angeles County,34.249666,-118.369889
Los Angeles Unified,Stoner Avenue Elementary,11735 Braddock Drive Culver City CA 90230-5141,NA,NA,NA,not tested,LA,Los Angeles County,33.9956,-118.412414
Los Angeles Unified,Stoney Point Continuation,10010 de Soto Avenue Chatsworth CA 91311-3127,NA,NA,NA,not tested,LA,Los Angeles County,34.252089,-118.588457
Los Angeles Unified,Strathern Street Elementary,7939 Street Clair Avenue North Hollywood CA 91605-2316,NA,NA,NA,not tested,LA,Los Angeles County,34.21465,-118.399909
Los Angeles Unified,Studio,2050 North San Fernando Road Los Angeles CA 90065-1267,NA,NA,NA,not tested,LA,Los Angeles County,34.101568,-118.236658
Los Angeles Unified,Summit Preparatory Charter,5100 South Broadway Avenue Los Angeles CA 90037-3837,NA,NA,NA,not tested,LA,Los Angeles County,33.738375,-118.308643
Los Angeles Unified,Sun Valley High,9171 Telfair Avenue Sun Valley CA 91352-1844,NA,NA,NA,not tested,LA,Los Angeles County,34.236069,-118.396565
Los Angeles Unified,Sun Valley Magnet,7330 Bakman Avenue Sun Valley CA 91352-4914,NA,NA,NA,not tested,LA,Los Angeles County,34.203613,-118.377792
Los Angeles Unified,Sunland Elementary,8350 Hillrose Street Sunland CA 91040-2406,NA,NA,NA,not tested,LA,Los Angeles County,34.263263,-118.314607
Los Angeles Unified,Sunny Brae Avenue Elementary,20620 Arminta Street Winnetka CA 91306-2109,NA,NA,NA,not tested,LA,Los Angeles County,34.213373,-118.581375
Los Angeles Unified,Sunrise Elementary,2821 East Seventh Street Los Angeles CA 90023-1501,NA,NA,NA,not tested,Los Angeles,Los Angeles County,34.029607,-118.210286
Los Angeles Unified,Superior Street Elementary,9756 Oso Avenue Chatsworth CA 91311-5359,NA,NA,NA,not tested,LA,Los Angeles County,34.247923,-118.575296
Los Angeles Unified,Susan Miller Dorsey Senior High,3537 Farmdale Avenue Los Angeles CA 90016-4707,NA,NA,NA,not tested,LA,Los Angeles County,34.022925,-118.345935
Los Angeles Unified,Sven Lokrantz Special Education Center,19451 Wyandotte Street Reseda CA 91335-3518,NA,NA,NA,not tested,LA,Los Angeles County,34.203004,-118.556842
Los Angeles Unified,Sylmar Biotech Health Academy,13050 Borden Avenue Sylmar CA 91342-4251,NA,NA,NA,not tested,NA,Los Angeles County,34.307778,-118.44175
Los Angeles Unified,Sylmar Charter High,13050 Borden Ave Sylmar CA 91342-4251,NA,NA,NA,not tested,NA,Los Angeles County,34.307778,-118.44175
Los Angeles Unified,Sylmar Elementary,13291 Phillippi Avenue Sylmar CA 91342-2810,NA,NA,NA,not tested,LA,Los Angeles County,34.312589,-118.446707
Los Angeles Unified,Sylmar Leadership Academy,14550 Bledsoe Street Sylmar CA 91342-1414,NA,NA,NA,not tested,LA,Los Angeles County,34.319143,-118.449669
Los Angeles Unified,Sylvan Park Elementary,6238 Noble Avenue Van Nuys CA 91411-2026,NA,NA,NA,not tested,LA,Los Angeles County,34.183809,-118.461713
Los Angeles Unified,Synergy Charter Academy,900 East 33rd Street Los Angeles CA 90011-2527,NA,NA,NA,not tested,LA,Los Angeles County,34.01451,-118.260759
Los Angeles Unified,Synergy Kinetic Academy,1420 East Adams Boulevard Los Angeles CA 90011-1820,NA,NA,NA,not tested,LA,Los Angeles County,34.015519,-118.248233
Los Angeles Unified,Synergy Quantum Academy,300 East 53rd St Los Angeles CA 90011-4522,NA,NA,NA,not tested,LA,Los Angeles County,33.994167,-118.269976
Los Angeles Unified,Taft Charter High,5461 Winnetka Avenue Woodland Hills CA 91364-2548,NA,NA,NA,not tested,Los Angeles,Los Angeles County,34.169615,-118.571682
Los Angeles Unified,Taper Avenue Elementary,1824 Taper Avenue San Pedro CA 90731-1175,NA,NA,NA,not tested,Los Angeles,Los Angeles County,33.76254,-118.298393
Los Angeles Unified,Tarzana Elementary,5726 Topeka Drive Tarzana CA 91356-1316,NA,NA,NA,not tested,LA,Los Angeles County,34.174937,-118.54604
Los Angeles Unified,TEACH Academy of Technologies,10045 South Western Avenue Los Angeles CA 90047,NA,NA,FALSE,tested,NA,Los Angeles County,33.917774,-118.30909
Los Angeles Unified,TEACH Tech Charter High,10000 South Western Avenue Los Angeles CA 90047-4254,NA,NA,NA,not tested,LA,Los Angeles County,33.945332,-118.308908
Los Angeles Unified,Telfair Avenue Elementary,10975 Telfair Avenue Pacoima CA 91331-2821,NA,NA,NA,not tested,LA,Los Angeles County,34.269153,-118.431593
Los Angeles Unified,Tenth Street Elementary,1000 Grattan Street Los Angeles CA 90015-2046,NA,NA,NA,not tested,LA,Los Angeles County,34.04864,-118.273255
Los Angeles Unified,Teresa Hughes Elementary,4242 Clara Street Cudahy CA 90201-5010,NA,NA,NA,not tested,NA,Los Angeles County,33.966178,-118.193199
Los Angeles Unified,The Accelerated,4000 South Main Street Los Angeles CA 90037-1022,NA,NA,FALSE,tested,LA,Los Angeles County,34.009967,-118.2739
Los Angeles Unified,The Incubator,"7400 West Manchester, Bldg K Los Angeles CA 90045-2322",NA,NA,NA,not tested,Los Angeles,Los Angeles County,33.957763,-118.428888
Los Angeles Unified,Theodore Roosevelt Senior High,456 South Mathews St. Los Angeles CA 90033-4350,NA,NA,NA,not tested,LA,Los Angeles County,34.039148,-118.211171
Los Angeles Unified,Third Street Elementary,201 South June Street Los Angeles CA 90004-1055,NA,NA,NA,not tested,LA,Los Angeles County,34.070944,-118.334886
Los Angeles Unified,Thirty-Second Street USC Performing Arts,822 West 32nd Street Los Angeles CA 90007-3601,NA,NA,NA,not tested,LA,Los Angeles County,34.024142,-118.28275
Los Angeles Unified,Thomas Jefferson Senior High,1319 East 41st Street B Los Angeles CA 90011-3301,NA,NA,NA,not tested,Los Angeles,Los Angeles County,34.010879,-118.25101
Los Angeles Unified,Thomas Riley High,1524 East 103rd Street Los Angeles CA 90002-3307,NA,NA,NA,not tested,LA,Los Angeles County,33.943183,-118.247297
Los Angeles Unified,Thomas Starr King Middle School Film and Media Magnet,4201 Fountain Avenue Los Angeles CA 90029-2223,NA,NA,NA,not tested,LA,Los Angeles County,34.095881,-118.28147
Los Angeles Unified,Toland Way Elementary,4545 Toland Way Los Angeles CA 90041-3427,NA,NA,NA,not tested,LA,Los Angeles County,34.121265,-118.218302
Los Angeles Unified,Toluca Lake Elementary,4840 Cahuenga Boulevard North Hollywood CA 91601-4799,NA,NA,NA,not tested,LA,Los Angeles County,34.158422,-118.361416
Los Angeles Unified,Tom Bradley Global Awareness Magnet,3875 Dublin Avenue Los Angeles CA 90008-1945,NA,NA,NA,not tested,LA,Los Angeles County,34.015237,-118.322364
Los Angeles Unified,Topanga Elementary Charter,22075 Topanga School Road Topanga CA 90290-3835,NA,NA,FALSE,tested,NA,Los Angeles County,34.091766,-118.603512
Los Angeles Unified,Topeka Charter School For Advanced Studies,9815 Topeka Drive Northridge CA 91324-1849,NA,NA,NA,not tested,LA,Los Angeles County,34.247703,-118.546418
Los Angeles Unified,Towne Avenue Elementary,18924 Towne Avenue Carson CA 90746-2165,NA,NA,NA,not tested,Carson,Los Angeles County,33.858753,-118.267876
Los Angeles Unified,Tri-C Community Day,"716 East 14th Street, Second Floor Los Angeles CA 90021-2114",NA,NA,NA,not tested,Los Angeles,Los Angeles County,34.031813,-118.253936
Los Angeles Unified,Trinity Street Elementary,3736 Trinity Street Los Angeles CA 90011-2635,NA,NA,NA,not tested,LA,Los Angeles County,34.01288,-118.26901
Los Angeles Unified,Tulsa Street Elementary,10900 Hayvenhurst Avenue Granada Hills CA 91344-5121,NA,NA,NA,not tested,LA,Los Angeles County,34.268468,-118.493394
Los Angeles Unified,Tweedy Elementary,9724 Pinehurst Avenue South Gate CA 90280-5222,NA,NA,FALSE,tested,South Gate,Los Angeles County,33.943115,-118.182434
Los Angeles Unified,Twentieth Street Elementary,1353 East 20th Street Los Angeles CA 90011-1226,NA,NA,NA,not tested,LA,Los Angeles County,34.022545,-118.250216
Los Angeles Unified,Twenty-Eighth Street Elementary,2807 Stanford Avenue Los Angeles CA 90011-2017,NA,NA,NA,not tested,LA,Los Angeles County,34.018867,-118.260816
Los Angeles Unified,Twenty-Fourth Street Elementary,2055 West 24th St Los Angeles CA 90018-1925,NA,NA,NA,not tested,LA,Los Angeles County,34.034639,-118.310758
Los Angeles Unified,Two Hundred Thirty-Second Place,23240 Archibald Avenue Carson CA 90745-5117,NA,NA,NA,not tested,Carson,Los Angeles County,33.814533,-118.282616
Los Angeles Unified,Ulysses S. Grant Senior High,13000 Oxnard Street Van Nuys CA 91401-4114,NA,NA,NA,not tested,LA,Los Angeles County,34.179411,-118.423731
Los Angeles Unified,Union Avenue Elementary,150 South Burlington Avenue Los Angeles CA 90057-2506,NA,NA,NA,not tested,LA,Los Angeles County,34.063929,-118.267381
Los Angeles Unified,University Preparatory Value High,700 Wilshire Boulevard Los Angeles CA 90017-3811,NA,NA,NA,not tested,LA,Los Angeles County,34.052999,-118.264867
Los Angeles Unified,University Senior High,11800 Texas Avenue Los Angeles CA 90025-1402,NA,NA,NA,not tested,LA,Los Angeles County,34.045897,-118.460959
Los Angeles Unified,USC East College Prep,3825 North Mission Road Los Angeles CA 90031-3137,NA,NA,NA,not tested,Los Angeles,Los Angeles County,34.07012,-118.199685
Los Angeles Unified,USC Hybrid High,"350 South Figueroa Street, Suite 100 Los Angeles CA 90071-1115",NA,NA,NA,not tested,Los Angeles,Los Angeles County,34.053718,-118.255002
Los Angeles Unified,Utah Street Elementary,255 Gabriel Garcia Marquez Street Los Angeles CA 90033-2746,NA,NA,NA,not tested,Los Angeles,Los Angeles County,34.048499,-118.224714
Los Angeles Unified,Valerio Street Elementary,15035 Valerio Street Van Nuys CA 91405-1742,NA,NA,NA,not tested,LA,Los Angeles County,34.204904,-118.460637
Los Angeles Unified,Valley Academy of Arts and Sciences,10445 Balboa Boulevard Granada Hills CA 91344-7323,NA,NA,NA,not tested,LA,Los Angeles County,34.260189,-118.503436
Los Angeles Unified,Valley Alternative Magnet,6701 Balboa Boulevard Van Nuys CA 91406-5531,NA,NA,NA,not tested,Los Angeles,Los Angeles County,34.192151,-118.501382
Los Angeles Unified,Valley Charter Elementary,16514 Nordhoff Street North Hills CA 91343-3724,NA,NA,NA,not tested,LA,Los Angeles County,34.234937,-118.491996
Los Angeles Unified,Valley Charter Middle,6952 Van Nuys Boulevard Van Nuys CA 91405-3984,NA,NA,NA,not tested,LA,Los Angeles County,34.196788,-118.448623
Los Angeles Unified,Valor Academy Elementary,17081 Devonshire St Northridge CA 91325-1616,NA,NA,FALSE,tested,LA,Los Angeles County,34.25762,-118.505806
Los Angeles Unified,Valor Academy High,8015 Van Nuys Boulevard Panorama City CA 91402-6009,NA,NA,NA,not tested,LA,Los Angeles County,34.22093,-118.448857
Los Angeles Unified,Valor Academy Middle,9034 Burnet Avenue North Hills CA 91343,NA,NA,NA,not tested,LA,Los Angeles County,34.23494,-118.462643
Los Angeles Unified,Van Deene Avenue Elementary,826 West Javelin Street Torrance CA 90502-1719,NA,NA,NA,not tested,Torrance,Los Angeles County,33.838662,-118.288428
Los Angeles Unified,Van Gogh Charter,17160 Van Gogh Street Granada Hills CA 91344-1217,NA,NA,NA,not tested,LA,Los Angeles County,34.305677,-118.505433
Los Angeles Unified,Van Ness Avenue Elementary,501 North Van Ness Avenue Los Angeles CA 90004-1527,NA,NA,NA,not tested,Los Angeles,Los Angeles County,34.08081,-118.316077
Los Angeles Unified,Van Nuys Community Adult,6535 Cedros Avenue Van Nuys CA 91411-1506,NA,NA,NA,not tested,LA,Los Angeles County,34.189158,-118.455263
Los Angeles Unified,Van Nuys Elementary,6464 Sylmar Avenue Van Nuys CA 91401-1433,NA,NA,NA,not tested,LA,Los Angeles County,34.188278,-118.446434
Los Angeles Unified,Van Nuys Middle,5435 Vesper Avenue Van Nuys CA 91411-3738,NA,NA,NA,not tested,LA,Los Angeles County,34.16915,-118.450984
Los Angeles Unified,Van Nuys Senior High,6535 Cedros Ave Van Nuys CA 91411-1506,NA,NA,NA,not tested,LA,Los Angeles County,34.189158,-118.455263
Los Angeles Unified,Vanalden Avenue Elementary,19019 Delano Street Reseda CA 91335-6727,NA,NA,NA,not tested,LA,Los Angeles County,34.182985,-118.525991
Los Angeles Unified,Vaughn Next Century Learning Center,13330 Vaughn Street San Fernando CA 91340-2216,NA,NA,NA,not tested,San Fernando,Los Angeles County,34.280478,-118.422589
Los Angeles Unified,Vena Avenue Elementary,9377 Vena Avenue Arleta CA 91331-4733,NA,NA,NA,not tested,LA,Los Angeles County,34.240606,-118.420203
Los Angeles Unified,Venice Senior High,13000 Venice Boulevard Los Angeles CA 90066-3512,NA,NA,NA,not tested,LA,Los Angeles County,33.99876,-118.442845
Los Angeles Unified,Venice Skills Center,611 Fifth Avenue Venice CA 90291-2674,NA,NA,NA,not tested,Los Angeles,Los Angeles County,33.995766,-118.473032
Los Angeles Unified,Verdugo Hills Senior High,10625 Plainview Avenue Tujunga CA 91042-1723,NA,NA,NA,not tested,LA,Los Angeles County,34.253429,-118.297941
Los Angeles Unified,Vermont Avenue Elementary,1435 West 27th Street Los Angeles CA 90007-2137,NA,NA,NA,not tested,LA,Los Angeles County,34.030567,-118.293423
Los Angeles Unified,Vernon City Elementary,2360 East Vernon Avenue Los Angeles CA 90058-1609,NA,NA,NA,not tested,NA,Los Angeles County,34.003869,-118.231125
Los Angeles Unified,Victoria Avenue Elementary,3320 Missouri Avenue South Gate CA 90280-4308,9,ppb,TRUE,tested,South Gate,Los Angeles County,33.946426,-118.210903
Los Angeles Unified,Victory Boulevard Elementary,6315 Radford Avenue North Hollywood CA 91606-3316,NA,NA,NA,not tested,LA,Los Angeles County,34.185208,-118.392243
Los Angeles Unified,View Park Continuation,4701 Rodeo Road Los Angeles CA 90016-4713,9.2,ppb,TRUE,tested,LA,Los Angeles County,34.021574,-118.348271
Los Angeles Unified,View Park Preparatory Accelerated Charter Middle,5010 11th Ave Los Angeles CA 90043-4816,NA,NA,NA,not tested,LA,Los Angeles County,33.998016,-118.329265
Los Angeles Unified,View Park Preparatory Accelerated High,5701 South Crenshaw Boulevard Los Angeles CA 90043-2409,NA,NA,NA,not tested,LA,Los Angeles County,33.990744,-118.331121
Los Angeles Unified,Village Charter Academy,7357 Jordan Avenue Canoga Park CA 91303-1238,NA,NA,FALSE,tested,LA,Los Angeles County,34.20386,-118.602963
Los Angeles Unified,Vine Street Elementary,955 North Vine Street Los Angeles CA 90038-2701,NA,NA,NA,not tested,Los Angeles,Los Angeles County,34.088233,-118.326972
Los Angeles Unified,Vinedale Elementary,10150 La Tuna Canyon Road Sun Valley CA 91352-2101,NA,NA,NA,not tested,LA,Los Angeles County,34.234111,-118.364606
Los Angeles Unified,Vintage Math/Science/Technology Magnet,15848 Stare Street North Hills CA 91343-1423,NA,NA,NA,not tested,LA,Los Angeles County,34.252655,-118.477239
Los Angeles Unified,Virgil Middle,152 North Vermont Avenue Los Angeles CA 90004-4897,NA,NA,NA,not tested,LA,Los Angeles County,34.073657,-118.291578
Los Angeles Unified,Virginia Road Elementary,2925 Virginia Road Los Angeles CA 90016-3628,NA,NA,NA,not tested,LA,Los Angeles County,34.02893,-118.339557
Los Angeles Unified,Vista Charter Middle,2900 West Temple Street Los Angeles CA 90026-4516,NA,NA,FALSE,tested,LA,Los Angeles County,34.058947,-118.24741
Los Angeles Unified,Vista del Valle Dual Language Academy,12441 Bromont Avenue San Fernando CA 91340-1306,NA,NA,NA,not tested,San Fernando,Los Angeles County,34.295765,-118.421513
Los Angeles Unified,Vista Middle,15040 Roscoe Boulevard Panorama City CA 91402-4513,NA,NA,NA,not tested,LA,Los Angeles County,34.219481,-118.460653
Los Angeles Unified,Visual and Performing Arts at Legacy High School Complex,5225 Tweedy Boulevard South Gate CA 90280-5332,NA,NA,NA,not tested,South Gate,Los Angeles County,33.94117,-118.179428
Los Angeles Unified,Wadsworth Avenue Elementary,981 East 41st Street Los Angeles CA 90011-2753,NA,NA,NA,not tested,LA,Los Angeles County,34.009305,-118.259283
Los Angeles Unified,Walgrove Avenue Elementary,1630 Walgrove Avenue Los Angeles CA 90066-2299,NA,NA,NA,not tested,LA,Los Angeles County,34.005939,-118.452888
Los Angeles Unified,Wallis Annenberg High,4000 South Main St. Los Angeles CA 90037-1022,NA,NA,FALSE,tested,LA,Los Angeles County,34.009967,-118.2739
Los Angeles Unified,Walnut Park Elementary,2642 Olive Street Huntington Park CA 90255-6324,NA,NA,NA,not tested,NA,Los Angeles County,33.968126,-118.223998
Los Angeles Unified,Walter Reed Middle,4525 Irvine Avenue North Hollywood CA 91602-1915,NA,NA,NA,not tested,LA,Los Angeles County,34.152688,-118.385599
Los Angeles Unified,Warner Avenue Elementary,615 Holmby Avenue Los Angeles CA 90024-2535,NA,NA,NA,not tested,LA,Los Angeles County,34.070114,-118.433872
Los Angeles Unified,"Washington Irving Middle School Math, Music and Engineering Magnet",3010 Estara Ave Los Angeles CA 90065-2205,NA,NA,NA,not tested,LA,Los Angeles County,34.116863,-118.239889
Los Angeles Unified,Washington Primary Center,860 West 112th Street Los Angeles CA 90044-4210,NA,NA,NA,not tested,LA,Los Angeles County,33.932365,-118.291151
Los Angeles Unified,Watts Learning Center,310 West 95th Street Los Angeles CA 90003-4012,NA,NA,NA,not tested,LA,Los Angeles County,33.950171,-118.278565
Los Angeles Unified,Watts Learning Center Charter Middle,8800 South San Pedro Street Los Angeles CA 90003-3541,NA,NA,NA,not tested,LA,Los Angeles County,34.041848,-118.245602
Los Angeles Unified,Weigand Avenue Elementary,10401 Weigand Avenue Los Angeles CA 90002-3865,NA,NA,NA,not tested,LA,Los Angeles County,33.941736,-118.229731
Los Angeles Unified,Welby Way Charter Elementary School And Gifted-High Ability Magnet,23456 Welby Way West Hills CA 91307-3328,NA,NA,NA,not tested,LA,Los Angeles County,34.192143,-118.637943
Los Angeles Unified,WESM Health/Sports Medicine,7400 West Manchester Avenue Los Angeles CA 90045-2322,NA,NA,NA,not tested,LA,Los Angeles County,33.95994,-118.385664
Los Angeles Unified,West Adams Preparatory High,1500 West Washington Boulevard Los Angeles CA 90007-1257,NA,NA,NA,not tested,LA,Los Angeles County,34.039432,-118.283185
Los Angeles Unified,West Athens Elementary,1110 West 119th Street Los Angeles CA 90044-6504,NA,NA,NA,not tested,LA,Los Angeles County,33.924971,-118.294409
Los Angeles Unified,West Hollywood Opportunity,1049 Fairfax Avenue West Hollywood CA 90046-6151,NA,NA,NA,not tested,LA,Los Angeles County,34.071017,-118.361411
Los Angeles Unified,West Valley Occupational Center,6200 Winnetka Avenue Woodland Hills CA 91367,NA,NA,NA,not tested,Los Angeles,Los Angeles County,34.183197,-118.570428
Los Angeles Unified,West Vernon Avenue Elementary,4312 South Grand Avenue Los Angeles CA 90037-2603,NA,NA,NA,not tested,LA,Los Angeles County,34.005277,-118.280422
Los Angeles Unified,Westchester-Emerson Community Adult,8810 Emerson Avenue Los Angeles CA 90045-2322,NA,NA,NA,not tested,LA,Los Angeles County,33.956754,-118.40384
Los Angeles Unified,Western Avenue Elementary,1724 West 53rd Street Los Angeles CA 90062-2718,NA,NA,NA,not tested,LA,Los Angeles County,33.994077,-118.307258
Los Angeles Unified,Westminster Avenue Elementary,1010 Abbott Kinney Boulevard Venice CA 90291-3312,NA,NA,NA,not tested,Los Angeles,Los Angeles County,33.991607,-118.4722
Los Angeles Unified,Westport Heights Elementary,6011 West 79th Street Los Angeles CA 90045-2946,NA,NA,NA,not tested,LA,Los Angeles County,33.966396,-118.388675
Los Angeles Unified,Westside Global Awareness Magnet,104 Anchorage Street Marina Del Rey CA 90292-5102,NA,NA,NA,not tested,Los Angeles,Los Angeles County,33.979115,-118.464817
Los Angeles Unified,Westside Innovative School House,6550 West 80th Street B Los Angeles CA 90045-1127,NA,NA,NA,not tested,Los Angeles,Los Angeles County,33.967702,-118.403863
Los Angeles Unified,Westside Innovative School House Charter Middle,7615 Cowan Avenue Los Angeles CA 90045-1206,NA,NA,NA,not tested,LA,Los Angeles County,33.972959,-118.404939
Los Angeles Unified,Westwood Charter Elementary,2050 Selby Avenue Los Angeles CA 90025-6311,NA,NA,NA,not tested,LA,Los Angeles County,34.047606,-118.43076
Los Angeles Unified,White Point Elementary,1410 Silvius Avenue San Pedro CA 90731-6099,NA,NA,NA,not tested,LA,Los Angeles County,33.716019,-118.308267
Los Angeles Unified,Whitman Continuation,7795 Rosewood Avenue Los Angeles CA 90036-1764,10.5,ppb,TRUE,tested,LA,Los Angeles County,34.080283,-118.359236
Los Angeles Unified,Whitney Young Continuation,3051 West 52nd Street Los Angeles CA 90043-4838,NA,NA,NA,not tested,LA,Los Angeles County,33.995077,-118.326369
Los Angeles Unified,Wilbur Charter For Enriched Academics,5213 Crebs Avenue Tarzana CA 91356-4010,NA,NA,NA,not tested,LA,Los Angeles County,34.165351,-118.544314
Los Angeles Unified,Will Rogers Continuation,14711 Gilmore St Van Nuys CA 91411-1595,NA,NA,NA,not tested,LA,Los Angeles County,34.187874,-118.453964
Los Angeles Unified,William J. Johnston Community Day,2210 Taper Avenue San Pedro CA 90731-1162,NA,NA,NA,not tested,Los Angeles,Los Angeles County,33.765376,-118.299405
Los Angeles Unified,William Jefferson Clinton Middle,3500 South Hill Street Los Angeles CA 90007-4333,NA,NA,NA,not tested,LA,Los Angeles County,34.01816,-118.275729
Los Angeles Unified,William Mulholland Middle,17120 Vanowen Street Van Nuys CA 91406-4449,NA,NA,NA,not tested,LA,Los Angeles County,34.193913,-118.486147
Los Angeles Unified,William R. Anton Elementary,831 North Bonnie Beach Place Los Angeles CA 90063-3404,NA,NA,NA,not tested,NA,Los Angeles County,34.02632,-118.181301
Los Angeles Unified,William Tell Aggeler Opportunity High,21050 Plummer Street Chatsworth CA 91311-4903,NA,NA,FALSE,tested,LA,Los Angeles County,34.242635,-118.591635
Los Angeles Unified,Willow Elementary,2777 Willow Place South Gate CA 90280-2816,NA,NA,FALSE,tested,South Gate,Los Angeles County,33.955291,-118.222026
Los Angeles Unified,"Wilmington Middle Science, Technology, Engineering, Arts, Mathematics (STEAM) Magnet",1700 Gulf Avenue Wilmington CA 90744-1311,NA,NA,NA,not tested,Los Angeles,Los Angeles County,33.797866,-118.274011
Los Angeles Unified,Wilmington Park Elementary,1140 Mahar Avenue Wilmington CA 90744-3815,NA,NA,NA,not tested,LA,Los Angeles County,33.785866,-118.246324
Los Angeles Unified,Wilshire Crest Elementary,5241 West Olympic Boulevard Los Angeles CA 90036-4902,NA,NA,NA,not tested,LA,Los Angeles County,34.057257,-118.344201
Los Angeles Unified,Wilshire Park Elementary,4063 Ingraham Street Los Angeles CA 90010-3217,NA,NA,NA,not tested,LA,Los Angeles County,34.060843,-118.316116
Los Angeles Unified,Wilton Place Elementary,745 South Wilton Place Los Angeles CA 90005-3552,NA,NA,NA,not tested,LA,Los Angeles County,34.058711,-118.314355
Los Angeles Unified,Windsor Hills Math Science,5215 Overdale Drive Los Angeles CA 90043-2020,NA,NA,FALSE,tested,NA,Los Angeles County,33.99565,-118.355433
Los Angeles Unified,Winnetka Avenue Elementary,8240 Winnetka Avenue Canoga Park CA 91306-1899,NA,NA,NA,not tested,LA,Los Angeles County,34.236134,-118.571061
Los Angeles Unified,Wisdom Elementary,1125 East 74th Street Los Angeles CA 90001-2405,NA,NA,NA,not tested,LA,Los Angeles County,33.9732,-118.255811
Los Angeles Unified,Wonderland Avenue Elementary,8510 Wonderland Avenue Los Angeles CA 90046-1451,NA,NA,NA,not tested,LA,Los Angeles County,34.114182,-118.379234
Los Angeles Unified,Woodcrest Elementary,1151 West 109th Street Los Angeles CA 90044-3011,NA,NA,NA,not tested,NA,Los Angeles County,33.937384,-118.294544
Los Angeles Unified,Woodlake Elementary Community Charter,23231 Hatteras Street Woodland Hills CA 91367-3119,NA,NA,NA,not tested,LA,Los Angeles County,34.175614,-118.632822
Los Angeles Unified,Woodland Hills Charter Academy,20800 Burbank Boulevard Woodland Hills CA 91367-6811,NA,NA,NA,not tested,LA,Los Angeles County,34.171885,-118.58556
Los Angeles Unified,Woodland Hills Elementary Charter For Enriched Studies,22201 San Miguel Street Woodland Hills CA 91364-3039,NA,NA,NA,not tested,LA,Los Angeles County,34.158627,-118.609265
Los Angeles Unified,Woodrow Wilson Senior High,4500 Multnomah Street Los Angeles CA 90032-3703,NA,NA,NA,not tested,LA,Los Angeles County,34.06993,-118.188082
Los Angeles Unified,YES Academy,3140 Hyde Park Boulevard Los Angeles CA 90043-4117,NA,NA,NA,not tested,Inglewood,Los Angeles County,33.980551,-118.328307
Los Angeles Unified,Yorkdale Elementary,5657 Meridian Street Los Angeles CA 90042-1850,NA,NA,NA,not tested,LA,Los Angeles County,34.120221,-118.175414
Los Angeles Unified,Young Oak Kim Academy,615 South Shatto Place Los Angeles CA 90005-1302,NA,NA,NA,not tested,Los Angeles,Los Angeles County,34.063302,-118.290209
Los Angeles Unified,Youth Opportunities Unlimited,915 West Manchester Avenue Los Angeles CA 90044-4915,NA,NA,NA,not tested,LA,Los Angeles County,33.959919,-118.393417
Los Angeles Unified,YPI Valley Public Charter High,12540 Pierce Street Pacoima CA 91331-1701,NA,NA,NA,not tested,LA,Los Angeles County,34.272534,-118.406421
Los Angeles Unified,Zane Grey Continuation,18230 Kittridge S Reseda CA 91335-6115,NA,NA,NA,not tested,LA,Los Angeles County,34.19023,-118.543032
