district,schoolName,schoolAddress,medianResult,unit,lead,status,city,county,latitude,longitude
Fairfield-Suisun Unified,Angelo Rodriguez High,5000 Red Top Road Fairfield CA 94534-9527,63.4,ppb,TRUE,tested,Fairfield,Solano County,38.199662,-122.145091
Fairfield-Suisun Unified,Anna Kyle Elementary,1600 Kidder Avenue Fairfield CA 94533-3914,NA,NA,FALSE,tested,Fairfield,Solano County,38.258928,-122.029076
Fairfield-Suisun Unified,Armijo High,824 Washington Street Fairfield CA 94533-5541,NA,NA,FALSE,tested,Fairfield,Solano County,38.251636,-122.036713
Fairfield-Suisun Unified,B. Gale Wilson Elementary,3301 Cherry Hills Court Fairfield CA 94534-7146,NA,NA,FALSE,tested,Fairfield,Solano County,38.271353,-122.081216
Travis Unified,Center Elementary,3101 Markeley Ln Fairfield CA 94533-6676,NA,NA,NA,not tested,Fairfield,Solano County,38.283295,-121.96803
Fairfield-Suisun Unified,Cleo Gordon Elementary,1950 Dover Avenue Fairfield CA 94533-2345,NA,NA,FALSE,tested,Fairfield,Solano County,38.266309,-122.023415
Fairfield-Suisun Unified,Cordelia Hills Elementary,4770 Canyon Hills Drive Fairfield CA 94534-6449,11.3,ppb,TRUE,tested,Fairfield,Solano County,38.169993,-122.13222
Fairfield-Suisun Unified,Dover Academy,301 East Alaska Avenue Fairfield CA 94533-2222,NA,NA,FALSE,tested,Fairfield,Solano County,38.272008,-122.029796
Fairfield-Suisun Unified,E. Ruth Sheldon Academy of Innovative Learning,1901 Woolner Avenue Fairfield CA 94533-5809,NA,NA,FALSE,tested,Fairfield,Solano County,38.244199,-122.06366
Fairfield-Suisun Unified,Edge Christian Academy,1101 Horizon Dr. Fairfield CA 94533,NA,NA,FALSE,tested,Fairfield,Solano County,38.275848,-122.010602
Private,Fairfield Christian School,2075 Dover Avenue Fairfield CA 94533,NA,NA,FALSE,tested,Fairfield,Solano County,38.269339,-122.02505
Fairfield-Suisun Unified,Fairfield High,205 East Atlantic Ave Fairfield CA 94533-1626,NA,NA,FALSE,tested,Fairfield,Solano County,38.27467,-122.029623
Fairfield-Suisun Unified,Fairfield-Suisun Adult,900 Travis Boulevard Fairfield CA 94533,5.29,ppb,TRUE,tested,Fairfield,Solano County,38.259839,-122.044045
Fairfield-Suisun Unified,Fairview Elementary,830 First Street Fairfield CA 94533-4724,NA,NA,FALSE,tested,Fairfield,Solano County,38.251502,-122.051215
Solano County Office of Education,Golden Hills Education Center,2460 Clay Bank Road Fairfield CA 94533,NA,NA,FALSE,tested,Fairfield,Solano County,38.27358,-122.006437
Travis Unified,Golden West Middle,2651 De Ronde Drive Fairfield CA 94533-9709,NA,NA,NA,not tested,Fairfield,Solano County,38.277633,-121.960617
Fairfield-Suisun Unified,Grange Middle,1975 Blossom Avenue Fairfield CA 94533-8010,5.48,ppb,TRUE,tested,Fairfield,Solano County,38.263849,-122.01661
Fairfield-Suisun Unified,Green Valley Middle,1350 Gold Hill Road Fairfield CA 94534-6422,NA,NA,FALSE,tested,Fairfield,Solano County,38.175745,-122.138778
Fairfield-Suisun Unified,H. Glenn Richardson,1069 Meadowlark Dr Fairfield CA 94533-2460,5.05,ppb,TRUE,tested,Fairfield,Solano County,38.267403,-122.01362
Private,Holy Spirit Elementary,1050 North Texas Street Fairfield CA 94533,NA,NA,FALSE,tested,Fairfield,Solano County,38.249315,-122.046561
Fairfield-Suisun Unified,K. I. Jones Elementary,2001 Winston Drive Fairfield CA 94534-3018,12,ppb,TRUE,tested,Fairfield,Solano County,38.267328,-122.060877
Fairfield-Suisun Unified,Laurel Creek Elementary,2900 Gulf Drive Fairfield CA 94533-8116,5.68,ppb,TRUE,tested,Fairfield,Solano County,38.281799,-122.016632
Fairfield-Suisun Unified,Mary Bird,420  East Tabor Avenue Fairfield CA 94533-4002,NA,NA,FALSE,tested,Fairfield,Solano County,38.265608,-122.029869
Fairfield-Suisun Unified,Matt Garcia Career and College Academy,1100 Civic Center Drive Fairfield CA 94533-4806,NA,NA,FALSE,tested,Fairfield,Solano County,38.253705,-122.047406
Fairfield-Suisun Unified,Nelda Mundy Elementary,570 Vintage Valley Drive Fairfield CA 94534-1416,NA,NA,FALSE,tested,Fairfield,Solano County,38.218323,-122.146017
Fairfield-Suisun Unified,Oakbrook Elementary,700 Oakbrook Drive Fairfield CA 94534-6841,NA,NA,FALSE,tested,Fairfield,Solano County,38.191895,-122.143415
Fairfield-Suisun Unified,P3 Academy,650 Parker Road Fairfield CA 94533-9001,14.4,ppb,TRUE,tested,Fairfield,Solano County,38.27222,-121.955055
Fairfield-Suisun Unified,Public Safety Academy,230 Atlantic Avenue Fairfield CA 94533-1539,7.09,ppb,TRUE,tested,Fairfield,Solano County,38.277185,-122.038794
Fairfield-Suisun Unified,Rolling Hills Elementary,2025 Fieldcrest Avenue Fairfield CA 94534-7995,NA,NA,FALSE,tested,Fairfield,Solano County,38.2909,-122.041813
Travis Unified,Scandia Elementary,100 Broadway Street Travis AFB CA 94535-1558,NA,NA,NA,not tested,Fairfield,Solano County,38.275222,-121.945633
Fairfield-Suisun Unified,Sem Yeto Continuation High,205 East Atlantic Avenue Fairfield CA 94533-1626,NA,NA,NA,not tested,Fairfield,Solano County,38.27467,-122.029623
Fairfield-Suisun Unified,Suisun Valley Elementary,4985 Lambert Road Fairfield CA 94534-9740,NA,NA,FALSE,tested,Fairfield,Solano County,38.288719,-122.116672
Solano County Office of Education,TC McDaniel School,1895 Woolner Avenue  Fairfield CA 94533,NA,NA,FALSE,tested,Fairfield,Solano County,38.245275,-122.062508
Fairfield-Suisun Unified,Tolenas Elementary,4500 Tolenas Road Fairfield CA 94533-6615,NA,NA,FALSE,tested,Fairfield,Solano County,38.262683,-121.996937
Travis Unified,Travis Community Day,2785 De Ronde Drive Fairfield CA 94533,NA,NA,NA,not tested,Fairfield,Solano County,38.28249,-121.960603
Travis Unified,Travis Education Center,2775 DeRonde Drive Fairfield CA 94533-9710,NA,NA,NA,not tested,Fairfield,Solano County,38.279861,-121.961388
Travis Unified,Travis Elementary,100 Fairfield Avenue Travis AFB CA 94535-1000,NA,NA,NA,not tested,Fairfield,Solano County,38.280252,-121.948483
Travis Unified,Travis Independent Study,2751 De Ronde Drive Fairfield CA 94533-9710,NA,NA,NA,not tested,Fairfield,Solano County,38.281294,-121.960602
Travis Unified,Vanden High,2951 Markeley Lane Fairfield CA 94533-6513,NA,NA,NA,not tested,Fairfield,Solano County,38.282944,-121.961642
Fairfield-Suisun Unified,Weir Preparatory Academy,1975 Pennsylvania Avenue Fairfield CA 94533-3643,NA,NA,FALSE,tested,Fairfield,Solano County,38.265366,-122.051339
