district,schoolName,schoolAddress,medianResult,unit,lead,status,city,county,latitude,longitude,maxResult
LAUSD,109TH STREET ELEMENTARY SCHOOL,"10915 S MC KINLEY AVE, LOS ANGELES,    CA 90059",,,,exempt,Los Angeles,Los Angeles County,33.937046,-118.26166200000002,
LAUSD,2ND STREET ELEMENTARY,"1942 E SECOND ST, LOS ANGELES,    CA 90033",,,,exempt,Los Angeles,Los Angeles County,34.044846,-118.216706,
LAUSD,31ST DIST PTSA,"17445 CANTLAY ST., LAKE BALBOA, CA 91406",,,,exempt,Los Angeles,Los Angeles County,34.202248,-118.513697,
LAUSD,36TH STREET EARLY EDUCATION CENTER,"3556 S ST ANDRES PL, LOS ANGELES,    CA 90018",,,,exempt,Los Angeles,Los Angeles County,34.023094,-118.311641,
LAUSD,42ND STREET ELEMENTARY,"4231 FOURTH AVE, LOS ANGELES,    CA 90008",,,,exempt,Los Angeles,Los Angeles County,34.006396,-118.321766,
LAUSD,59TH STREET ELEMENTARY,"5939 SECOND AVE, LOS ANGELES,    CA 90043",,,,exempt,Los Angeles,Los Angeles County,33.986036,-118.31993999999999,
LAUSD,6TH AVE EARLY EDUCATION CENTER,"3124 SEVENTH AVE, LOS ANGELES,    CA 90018",,,,exempt,Los Angeles,Los Angeles County,34.027014,-118.32451299999998,
LAUSD,6TH AVENUE ELEMENTARY,"3109 SIXTH AVE, LOS ANGELES,    CA 90018",,,,exempt,Los Angeles,Los Angeles County,34.02663,-118.324179,
LAUSD,7TH STREET ELEMENTARY,"1570 W SEVENTH ST, SAN PEDRO,      CA 90732",,,,exempt,Los Angeles,Los Angeles County,33.738076,-118.311229,
LAUSD,ALBION EARLY EDUCATION CENTER,"348 S AVE 18, LOS ANGELES,    CA 90031",,,,exempt,Los Angeles,Los Angeles County,34.069102,-118.22066799999999,
Los Angeles Unified,Albion Street Elementary,322 South Avenue 18 Los Angeles CA 90031-2507,,,,not tested,Los Angeles,Los Angeles County,34.069146999999994,-118.220476,
Los Angeles Unified,Alliance College-Ready Academy High 16,1552 W. Rockwood Street Los Angeles CA 90026-5520,,,,not tested,Los Angeles,Los Angeles County,34.063479,-118.26153500000001,
Los Angeles Unified,Alliance College-Ready Middle Academy 5,211 South Ave 20 Los Angeles CA 90031-2508,,,False,tested,Los Angeles,Los Angeles County,34.072226,-118.22040700000001,
Los Angeles Unified,Alliance Marc & Eva Stern Math and Science,5151 State University Drive Lot 2 Los Angeles CA 90032-4226,,,,not tested,Los Angeles,Los Angeles County,34.062039,-118.17365900000001,
Los Angeles Unified,Alliance Ouchi-O'Donovan 6-12 Complex,5356 South Fifth Avenue Los Angeles CA 90043-2622,,,False,tested,Los Angeles,Los Angeles County,33.993473,-118.322223,
Los Angeles Unified,Alliance Susan and Eric Smidt Technology High,211 South Avenue 20 Los Angeles CA 90031-2508,,,False,tested,Los Angeles,Los Angeles County,34.072226,-118.22040700000001,
LAUSD,ALLIANCE TECHNOLOGY & MATH SCIENCE HS @ SANDRA SOTOMAYOR LEARNING ACADEMY (FMR:CRHS #13E),"2050 NORTH SAN FERNANDO RD, LOS ANGELES, CA 90011",,,,exempt,Los Angeles,Los Angeles County,34.10226,-118.237398,
LAUSD,Alliance Ted K. Tajima High School,1552 West Rockwood Street Los Angeles CA 90026,,,False,tested,Los Angeles,Los Angeles County,34.063479,-118.26153500000001,
Los Angeles Unified,Anatola Avenue Elementary,7364 Anatola Avenue Van Nuys CA 91406-2350,,,,not tested,Los Angeles,Los Angeles County,34.203922999999996,-118.514521,
LAUSD,ANATOLA ELEMENTARY,"7364 ANATOLA AVE, LAKE BALBOA, CA 91406",,,,exempt,Los Angeles,Los Angeles County,34.203922999999996,-118.514521,
Los Angeles Unified,Animo Jefferson Charter Middle,1655 East 27th Street Suite A Los Angeles CA 90011-2202,,,False,tested,Los Angeles,Los Angeles County,34.01271,-118.243982,
Los Angeles Unified,Animo Ralph Bunche Charter High,1655 East 27th Street Suite B Los Angeles CA 90011-2202,,,False,tested,Los Angeles,Los Angeles County,34.01271,-118.243982,
Los Angeles Unified,Ann Street Elementary,126 East Bloom Street Los Angeles CA 90012-1902,,,,not tested,Los Angeles,Los Angeles County,34.064325,-118.230276,
Los Angeles Unified,APEX Academy,1309 North Wilton Place 3rd Floor Los Angeles CA 90028-8526,,,,not tested,Los Angeles,Los Angeles County,34.096271,-118.31483899999999,
LAUSD,ARLINGTON HEIGHTS ELEMENTARY,"1717 SEVENTH AVE, LOS ANGELES,    CA 90019",,,,exempt,Los Angeles,Los Angeles County,34.041191999999995,-118.325023,
Los Angeles Unified,Arlington Heights Elementary,1717 Seventh Avenue Los Angeles CA 90019-6098,,,,not tested,Los Angeles,Los Angeles County,34.041191999999995,-118.325023,
LAUSD,ARROYO SECO MUSEUM SCIENCE MAGNET,"4805 SYCAMORE AVE TR, LOS ANGELES,    CA 90042",,,,exempt,Los Angeles,Los Angeles County,34.014752,-118.358645,
Los Angeles Unified,Arts In Action Community Charter,1241 Soto Street Suite 212 Los Angeles CA 90023-2671,,,,not tested,Los Angeles,Los Angeles County,34.027525,-118.21985900000001,
Los Angeles Unified,Arts in Action Community Middle,1241 South Soto St Suite 212 Los Angeles CA 90023-2672,,,,not tested,Los Angeles,Los Angeles County,34.027525,-118.21985900000001,
Los Angeles Unified,Aspire Junior Collegiate Academy,6724 South Alameda Street Huntington Park CA 90255-4139,,,False,tested,Los Angeles,Los Angeles County,33.979471999999994,-118.23574199999999,
Los Angeles Unified,Aspire Titan Academy,6720 South Alameda St Huntington Park CA 90255-3617,,,False,tested,Los Angeles,Los Angeles County,33.979471999999994,-118.23574199999999,
LAUSD,BASSETT ELEMENTARY,"15756 BASSETT ST, LAKE BALBOA, CA 91406",,,,exempt,Los Angeles,Los Angeles County,34.195503,-118.476702,
Los Angeles Unified,Beckford Charter for Enriched Studies,19130 Tulsa Street Northridge CA 91326-2645,,,,not tested,Los Angeles,Los Angeles County,34.267732,-118.548831,
LAUSD,BECKFORD ELEMENTARY,"19130 TULSA ST, NORTHRIDGE, CA 91326",,,,exempt,Los Angeles,Los Angeles County,34.267732,-118.548831,
LAUSD,BELLEVUE AVE.  PRIMARY CENTER,"610 N MICHELTORENA ST, LOS ANGELES, CA 90026",,,,exempt,Los Angeles,Los Angeles County,34.079291999999995,-118.280732,
Los Angeles Unified,Belmont Community Adult,1575 West Second St. Los Angeles CA 90026-5701,,,False,tested,Los Angeles,Los Angeles County,34.061282,-118.26291299999998,
Los Angeles Unified,Belvedere Elementary,3724 East First Street Los Angeles CA 90063-2390,,,,not tested,Los Angeles,Los Angeles County,34.035759000000006,-118.186273,
LAUSD,BELVEDERE ELEMENTARY SCHOOL,"3724 E FIRST ST, LOS ANGELES, CA 90063",,,,exempt,Los Angeles,Los Angeles County,34.035759000000006,-118.186273,
LAUSD,BIRMINGHAM CHARTER HS,"17000 HAYNES ST, LAKE BALBOA, CA 91406",,,,exempt,Los Angeles,Los Angeles County,34.188159000000006,-118.504225,
LAUSD,BIRMINGHAM/CLEVELAND/RESEDA CLUSTER OFF,"6621 BALBOA BLVD, VAN NUYS, CA 91406",,,,exempt,Los Angeles,Los Angeles County,34.189814,-118.501354,
Los Angeles Unified,Boyle Heights STEM High,456 S. Mathews Boulevard Los Angeles CA 90033-4326,,,,not tested,Los Angeles,Los Angeles County,34.037521999999996,-118.212006,
LAUSD,BRAINARD ELEMENTARY,"11407 BRAINARD AVE, LAKEVIEWTERRACE CA 91342",,,,exempt,Los Angeles,Los Angeles County,34.277390000000004,-118.36462,
LAUSD,BREED ST. ELEMENTARY SCHOOL,"2226 E THIRD ST, LOS ANGELES,    CA 90033",,,,exempt,Los Angeles,Los Angeles County,34.04262,-118.21301899999999,
Los Angeles Unified,Bridge Street Elementary,605 North Boyle Avenue Los Angeles CA 90033-1603,,,,not tested,Los Angeles,Los Angeles County,34.052648,-118.216889,
LAUSD,BURBANK STATE PRESCHOOL,"12215 ALBERS STREET, NO HOLLYWOOD, CA 91607",,,,exempt,Los Angeles,Los Angeles County,34.170582,-118.399172,
LAUSD,BURROUGHS MIDDLE SCHOOL,"600 S MC CADDEN PL, LOS ANGELES,    CA 90005",,,,exempt,Los Angeles,Los Angeles County,34.063694,-118.33633200000001,
LAUSD,BYRD MIDDLE SCHOOL (NEW SITE),"8501 ARLETA AVENUE, SUN VALLEY,     CA 91352",,,,exempt,Los Angeles,Los Angeles County,34.223918,-118.407918,
LAUSD,CABRILLO EARLY EDUCATION CENTER,"741 W EIGHTH ST, SAN PEDRO,      CA 90731",,,,exempt,Los Angeles,Los Angeles County,33.736723,-118.293148,
Los Angeles Unified,Calvert Charter for Enriched Studies,19850 Delano Street Woodland Hills CA 91367-3816,,,,not tested,Los Angeles,Los Angeles County,34.181774,-118.565165,
LAUSD,CALVERT ELEMENTARY,"19850 DELANO ST, WOODLAND HILLS, CA 91367",,,,exempt,Los Angeles,Los Angeles County,34.181774,-118.565165,
LAUSD,CALVERT ES SPS,"19850 DELANO ST, WOODLAND HILLS, CA 91367",,,,exempt,Los Angeles,Los Angeles County,34.181774,-118.565165,
LAUSD,CAMINO NUEVO SENIOR HIGH (FRM: CENTRAL LA HS #12 @ CONTRERAS SH)),"1215 W. MIRAMAR ST., LOS ANGELES, CA  90026",,,,exempt,Los Angeles,Los Angeles County,34.058059,-118.257824,
Los Angeles Unified,Canterbury Avenue Elementary,13670 Montague Street Pacomia CA 91331-6129,,,,not tested,Los Angeles,Los Angeles County,34.232913,-118.429194,
LAUSD,CARVER MIDDLE SCHOOL,"4410 MC KINLEY AVE, LOS ANGELES,    CA 90011",,,,exempt,Los Angeles,Los Angeles County,34.003133,-118.2621,
Los Angeles Unified,Castlebay Lane Charter,19010 Castlebay Lane Northridge CA 91326-1005,,,,not tested,Los Angeles,Los Angeles County,34.293679,-118.54751499999999,
LAUSD,CASTLEBAY LANE ELEMENTARY,"19010 CASTLEBAY LN, NORTHRIDGE, CA 91326",,,,exempt,Los Angeles,Los Angeles County,34.293679,-118.54751499999999,
Los Angeles Unified,CDS Elementary,333 South Beaudry Avenue 18th Floor Los Angeles CA 90017-5108,,,,not tested,Los Angeles,Los Angeles County,34.056143,-118.257322,
Los Angeles Unified,CDS Secondary,727 South Wilson Street Los Angeles CA 90021-1625,,,,not tested,Los Angeles,Los Angeles County,34.033696,-118.234799,
Los Angeles Unified,Celerity Dyad Charter,4501 South Wadsworth Los Angeles CA 90011-3637,,,,not tested,Los Angeles,Los Angeles County,34.00261,-118.25928600000002,
LAUSD,CENTRAL CONTINUATION HIGH - CENTRAL OFFICE,"716 E 14TH ST 2ND FL, LOS ANGELES,    CA 90021",,,,exempt,Los Angeles,Los Angeles County,34.031813,-118.25393600000001,
Los Angeles Unified,Charles Maclay Middle,12540 Pierce Avenue Pacoima CA 91331-1701,,,,not tested,Los Angeles,Los Angeles County,34.271245,-118.40606299999999,
LAUSD,CHIME CHARTER MIDDLE SCHOOL,"19722 COLLIER ST, WOODLAND HILLS, CA 91364",,,,exempt,Los Angeles,Los Angeles County,34.165538,-118.56299399999999,
LAUSD,CHIME CHARTER SCHOOL,"19722 COLLIER STREET, WOODLAND HILLS, CA 91364",,,,exempt,Los Angeles,Los Angeles County,34.165538,-118.56299399999999,
LAUSD,CHIME CHARTER SCHOOL (MAXIIMO LOC 3185),"19722 COLLIER STREET, WOODLAND HILLS, CA 91364",,,,exempt,Los Angeles,Los Angeles County,34.165538,-118.56299399999999,
Los Angeles Unified,CHIME Institute's Schwarzenegger Community,19722 Collier Street Woodland Hills CA 91364-3618,,,,not tested,Los Angeles,Los Angeles County,34.165538,-118.56299399999999,
Los Angeles Unified,Christopher Dena Elementary,1314 Dacotah Street Los Angeles CA 90023-2707,,,,not tested,Los Angeles,Los Angeles County,34.022107,-118.211225,
Los Angeles Unified,City High,4650 West Olympic Boulevard B Los Angeles CA 90019-1831,,,,not tested,Los Angeles,Los Angeles County,34.055405,-118.33298500000001,
Los Angeles Unified,City Language Immersion Charter,4041 Hilcrest Drive Los Angeles CA 90008-2902,,,False,tested,Los Angeles,Los Angeles County,34.013276,-118.347633,
LAUSD,CIVITAS SCHOOL OF LEADERSHIP,"1201 W COLTON STREET, LOS ANGELES, CA 90026",,,,exempt,Los Angeles,Los Angeles County,34.062273,-118.25436200000001,
Los Angeles Unified,Coeur D'Alene Avenue Elementary,810 Coeur D'Alene Avenue Venice CA 90291-4927,,,,not tested,Los Angeles,Los Angeles County,33.989393,-118.453406,
LAUSD,COEUR D'ALENE ELEMENTARY,"810 COEUR D'ALENE AVE, VENICE,         CA 90291",,,,exempt,Los Angeles,Los Angeles County,33.989393,-118.453406,
LAUSD,COHASSET ELEMENTARY ELEMENTARY,"15810 SATICOY ST, LAKE BALBOA, CA 91406",,,,exempt,Los Angeles,Los Angeles County,34.207947999999995,-118.47809,
LAUSD,COMMUNITY CHARTER EARLY COLLEGE HIGH SCHOOL,"11500 ELDRIDGE AVENUE, LAKEVIEW TERR, CA 91342",,,,exempt,Los Angeles,Los Angeles County,34.280097,-118.382379,
LAUSD,COMMUNITY CHARTER MIDDLE SCHOOL,"11500 ELDRIDGE AVENUE, LAKEVIEW TERR, CA 91342",,,,exempt,Los Angeles,Los Angeles County,34.280097,-118.382379,
Los Angeles Unified,Contreras Learning Center-School of Social Justice,322 South Lucas Avenue Los Angeles CA 90017-1406,,,,not tested,Los Angeles,Los Angeles County,34.057798999999996,-118.261113,
LAUSD,CRENSHAW-WASHINGTON AEWC,"3741 STOCKER ST, ROOM 110, LOS ANGELES, CA 90008",,,,exempt,Los Angeles,Los Angeles County,34.006499,-118.33866200000001,
Los Angeles Unified,Crescent Heights Boulevard Elementary,1661 South Crescent Heights Los Angeles CA 90035-4529,,,,not tested,Los Angeles,Los Angeles County,34.047263,-118.373998,
LAUSD,CRESCENT HEIGHTS EARLY EDUCATION CENTER,"1700 S ALVIRA ST, LOS ANGELES,    CA 90035",,,,exempt,Los Angeles,Los Angeles County,34.046828000000005,-118.3749,
Los Angeles Unified,Crete Academy,5125 Crenshaw Blvd. Los Angeles CA 90043,,,False,tested,Los Angeles,Los Angeles County,33.995985,-118.331195,
Los Angeles Unified,Daniel Pearl Journalism & Communications Magnet,6649 Balboa Boulevard Van Nuys CA 91406-5529,,,,not tested,Los Angeles,Los Angeles County,34.191306,-118.50188200000001,
LAUSD,DANIEL PEARL JOURNALISM/COMMUNICATIONS MAGNET,"6649 BALBOA BLVD, LAKE BALBOA, CA 91406",,,,exempt,Los Angeles,Los Angeles County,34.191306,-118.50188200000001,
Los Angeles Unified,Daniel Webster Middle,11330 West Graham Place Los Angeles CA 90064-3725,,,,not tested,Los Angeles,Los Angeles County,34.029868,-118.43476000000001,
LAUSD,DANNY J BAKEWELL SR PRIMARY CENTER,"8261 S BARING CROSS ST, LOS ANGELES, CA 90044",,,,exempt,Los Angeles,Los Angeles County,33.959995,-118.28935600000001,
LAUSD,DENA ELEMENTARY,"1314 DACOTAH ST, LOS ANGELES,    CA 90023",,,,exempt,Los Angeles,Los Angeles County,34.022107,-118.211225,
Los Angeles Unified,Dr. Sammy Lee Medical and Health Science Magnet Elementary,3600 West Council Street Los Angeles CA 90004-4840,,,,not tested,Los Angeles,Los Angeles County,34.074275,-118.28856499999999,
LAUSD,EARLY COLLEGE ACADEMY OF LEADERS & SCHOLARS (eCALS) @ SANDRA SOTOMAYOR LEARNING ACADEMY (FMR:CRHS #13D),"2050 NORTH SAN FERNANDO RD, LOS ANGELES, CA 90065",,,,exempt,Los Angeles,Los Angeles County,34.10226,-118.237398,
LAUSD,EASTMAN ELEMENTARY,"4112 E OLYMPIC BL, LOS ANGELES, CA 90023",,,,exempt,Los Angeles,Los Angeles County,34.017241,-118.184719,
Los Angeles Unified,Esteban Torres East LA Performing Arts Magnet,4211 Dozier Street C Los Angeles CA 90063-3422,,,,not tested,Los Angeles,Los Angeles County,34.042107,-118.175269,
Los Angeles Unified,Extera Public,2226 East Third Street Los Angeles CA 90033-3906,,,,not tested,Los Angeles,Los Angeles County,34.04262,-118.21301899999999,
LAUSD,EXTERA PUBLIC ES (2ND SITE) @ 2ND ST ES,"1942 E SECOND ST, LOS ANGELES,    CA 90033",,,,exempt,Los Angeles,Los Angeles County,34.044846,-118.216706,
LAUSD,EXTERA PUBLIC ES @ BREED ES,"2226 E THIRD ST, LOS ANGELES,    CA 90033",,,,exempt,Los Angeles,Los Angeles County,34.04262,-118.21301899999999,
Los Angeles Unified,Fenton Avenue Charter,11828 Gain Street Lake View Terrace CA 91342-7132,,,False,tested,Los Angeles,Los Angeles County,34.28037,-118.390607,
Los Angeles Unified,Fenton Primary Center,11351 Dronfield Avenue Pacoima CA 91331-1404,,,False,tested,Los Angeles,Los Angeles County,34.276331,-118.403602,
Los Angeles Unified,Fenton STEM Academy: Elementary Center for Science Technology Engineering and Mathematics,8926 Sunland Blvd Sun Valley CA 91352-2843,,,False,tested,Los Angeles,Los Angeles County,34.231258000000004,-118.3661,
LAUSD,FERNANGELES ELEMENTARY,"12001 ART ST, SUN VALLEY,     CA 91352",,,,exempt,Los Angeles,Los Angeles County,34.231732,-118.39503,
Los Angeles Unified,Fernangeles Elementary,12001 Art Street Sun Valley CA 91352-2499,,,,not tested,Los Angeles,Los Angeles County,34.231732,-118.39503,
LAUSD,FERNANGELES STATE PRE-SCHOOL,"12001 ART ST, SUN VALLEY,     CA 91352",,,,exempt,Los Angeles,Los Angeles County,34.231732,-118.39503,
Los Angeles Unified,Fifty-Ninth Street Elementary,5939 Second Avenue Los Angeles CA 90043-3219,,,,not tested,Los Angeles,Los Angeles County,33.986036,-118.31993999999999,
Los Angeles Unified,First Street Elementary,2820 East First Street Los Angeles CA 90033-3636,,,,not tested,Los Angeles,Los Angeles County,34.040862,-118.20456999999999,
Los Angeles Unified,Forty-Second Street Elementary,4231 Fourth Avenue Los Angeles CA 90008-3903,,,,not tested,Los Angeles,Los Angeles County,34.006396,-118.321766,
LAUSD,FRANCISCO BRAVO MEDICAL MAGNET,"1200 N CORNWELL ST, LOS ANGELES,    CA 90033",,,,exempt,Los Angeles,Los Angeles County,34.057609,-118.203226,
Los Angeles Unified,Frank del Olmo Elementary,100 North New Hampshire Avenue Los Angeles CA 90004-4707,,,,not tested,Los Angeles,Los Angeles County,34.072925,-118.29259099999999,
Los Angeles Unified,Frida Kahlo High,1924 South Los Angeles Street Los Angeles CA 90011-1031,,,,not tested,Los Angeles,Los Angeles County,34.029815,-118.26378600000001,
LAUSD,FUTURO COLLEGE PREP ES @ DENA ES,"1314 DACOTAH ST, LOS ANGELES,    CA 90023",,,,exempt,Los Angeles,Los Angeles County,34.022107,-118.211225,
LAUSD,GARZA PRIMARY CENTER,"2750 E HOSTETTER ST, LOS ANGELES, CA 90023",,,,exempt,Los Angeles,Los Angeles County,34.024462,-118.21816799999999,
LAUSD,GAULT ELEMENTARY,"17000 GAULT ST, LAKE BALBOA, CA 91406",,,,exempt,Los Angeles,Los Angeles County,34.19907,-118.50416399999999,
LAUSD,GLASSELL PARK EARLY EDUCATION CENTER,"3303 N CARLYLE ST, LOS ANGELES, CA  90065",,,,exempt,Los Angeles,Los Angeles County,34.109652000000004,-118.234016,
Los Angeles Unified,Glenfeliz Boulevard Elementary,3955 Glenfeliz Boulevard Los Angeles CA 90039-1441,,,False,tested,Los Angeles,Los Angeles County,34.12251,-118.2676,
LAUSD,GLUCK (MAXWELL) EARLY EDUCATION CENTER,"11387 SHARP ST, MISSION HILLS,  CA 91345",,,,exempt,Los Angeles,Los Angeles County,34.277276,-118.45703400000001,
LAUSD,GRATTS NEW PC,"474 S HARTFORD, LOS ANGELES, CA 90017",,,,exempt,Los Angeles,Los Angeles County,34.056218,-118.26392,
LAUSD,HARBOR OCCUPATIONAL CENTER AEWC,"740 N PACIFIC, SAN PEDRO,      CA 90731",,,,exempt,Los Angeles,Los Angeles County,33.74982,-118.286781,
Los Angeles Unified,Harris Newmark Continuation,1575 West Second Street Los Angeles CA 90026-5701,,,,not tested,Los Angeles,Los Angeles County,34.061282,-118.26291299999998,
Los Angeles Unified,Henry David Thoreau Continuation,5429 Quakertown Avenue Woodland Hills CA 91364-2528,,,,not tested,Los Angeles,Los Angeles County,34.169031,-118.56997199999999,
Private,Heritage Christian School,9825 Woodley Avenue Northridge CA 91343,6.05,ppb,True,tested,Los Angeles,Los Angeles County,34.249193,-118.486447,6.3
Los Angeles Unified,Horace Mann Junior High,7001 South Saint Andrews Place Los Angeles CA 90047-1833,,,,not tested,Los Angeles,Los Angeles County,33.976186,-118.311526,
Los Angeles Unified,Hubert Howe Bancroft Middle,929 North Las Palmas Avenue Los Angeles CA 90038-2421,,,,not tested,Los Angeles,Los Angeles County,34.08879,-118.337451,
Los Angeles Unified,Huntington Drive Elementary,4435 North Huntington Drive Los Angeles CA 90032-2641,,,,not tested,Los Angeles,Los Angeles County,34.082693,-118.19183400000001,
LAUSD,HUNTINGTON DRIVE ELEMENTARY,"4435 N HUNTINGTON DR, LOS ANGELES,    CA 90032",,,,exempt,Los Angeles,Los Angeles County,34.082693,-118.19183400000001,
Los Angeles Unified,Independence Continuation,6501 Balboa Boulevard Van Nuys CA 91406-5526,,,,not tested,Los Angeles,Los Angeles County,34.189853,-118.50223500000001,
LAUSD,INDEPENDENCE CONTINUATION HIGH,"6501 BALBOA BLVD, LAKE BALBOA, CA 91406",,,,exempt,Los Angeles,Los Angeles County,34.189853,-118.50223500000001,
Los Angeles Unified,Ingenium Charter,22250 Elkwood Street c/o Columbus Middle School/Donna Kumar Canoga Park CA 91304-5501,,,,not tested,Los Angeles,Los Angeles County,34.211755,-118.611106,
Private,Isana Nascent Academy,4231 Fourth Ave. Los Angeles CA 90008,6.0,ppb,True,tested,Los Angeles,Los Angeles County,34.006396,-118.321766,6.0
Los Angeles Unified,Jack London Community Day,12924-A Oxnard Street Valley Glen CA 91401,,,,not tested,Los Angeles,Los Angeles County,34.179314,-118.41470100000001,
Los Angeles County Office of Education,Jardin de la Infancia,307 East Seventh Street Los Angeles CA 90014-2209,,,False,tested,Los Angeles,Los Angeles County,34.042353999999996,-118.248875,
LAUSD,JOHN FRANCIS POLY FRESHMAN CENTER (FRM: VRMS #3 @ BYRD MS),"8501 ARLETA AVE, SUN VALLEY, CA 91352",,,,exempt,Los Angeles,Los Angeles County,34.223918,-118.407918,
Los Angeles Unified,"Johnnie Cochran, Jr., Middle",4066 West Johnnie Cochran Vista Los Angeles CA 90019-6025,,,,not tested,Los Angeles,Los Angeles County,34.041746,-118.326835,
LAUSD,JOHNNIE L COCHRAN JR. MS,"4066 W JOHNNIE COCHRAN VISTA, LOS ANGELES, CA 90019",,,,exempt,Los Angeles,Los Angeles County,34.041746,-118.326835,
LAUSD,JOHNSTON COMMUNITY DAY SCHOOL (FRM:COOPER CDS),"2210 TAPER AVE., SAN PEDRO, CA 90731",,,,exempt,Los Angeles,Los Angeles County,33.765376,-118.29940500000001,
LAUSD,KENNEDY-SAN FERNANDO COMMUNITY ADULT SCHOOL (RINALDI ADULT CENTER),"17450 RINALDI STREET, GRANANDA HILLS, CA 91344",,,,exempt,Los Angeles,Los Angeles County,34.279090999999994,-118.51491499999999,
Los Angeles Unified,KIPP Academy of Opportunity,7019 South Van Ness Avenue Los Angeles CA 90047-1659,,,False,tested,Los Angeles,Los Angeles County,33.975705,-118.318022,
Los Angeles Unified,KIPP Scholar Academy,1729 West Martin Luther King Junior Boulevard Los Angeles CA 90062-1503,,,False,tested,Los Angeles,Los Angeles County,34.011112,-118.310005,
LAUSD,KIRK DOUGLAS HIGH SCHOOL @ GRANADA HILLS CHARTER SH,"10500 LINDLEY AVE, GRANANDA HILLS, CA 91344",,,,exempt,Los Angeles,Los Angeles County,34.260918,-118.52723700000001,
LAUSD,LA ArtLAB @ SANDRA SOTOMAYOR LEARNING ACADEMY (FMR:CRHS #13C),"2050 NORTH SAN FERNANDO RD, LOS ANGELES, CA 90065",,,,exempt,Los Angeles,Los Angeles County,34.10226,-118.237398,
Los Angeles Unified,Lafayette Park Primary Center,310 South La Fayette Park Place Los Angeles CA 90057-1604,,,,not tested,Los Angeles,Los Angeles County,34.066403,-118.28059499999999,
LAUSD,LEMAY EARLY EDUCATION CENTER,"17553 LEMAY ST, LAKE BALBOA, CA 91406",,,,exempt,Los Angeles,Los Angeles County,34.192586,-118.515225,
LAUSD,LEMAY ELEMENTARY,"17520 VANOWEN ST, LAKE BALBOA, CA 91406",,,,exempt,Los Angeles,Los Angeles County,34.192639,-118.51506699999999,
LAUSD,LEWIS CONTINUATION HIGH,"12508 WICKS ST, SUN VALLEY,     CA 91352",,,,exempt,Los Angeles,Los Angeles County,34.226157,-118.404227,
LAUSD,LOCAL DISTRICT - 1 ADMINISTRATIVE OFFICES,"6621 BALBOA BLVD., LAKE BALBOA, CA 91406",,,,exempt,Los Angeles,Los Angeles County,34.189814,-118.501354,
LAUSD,LORNE ELEMENTARY,"17440 LORNE ST, NORTHRIDGE, CA 91325",,,,exempt,Los Angeles,Los Angeles County,34.216713,-118.513131,
Los Angeles Unified,Lorne Street Elementary,17440 Lorne Street Northridge CA 91325-4459,,,,not tested,Los Angeles,Los Angeles County,34.216713,-118.513131,
Los Angeles Unified,Los Angeles Academy of Arts & Enterprise Charter,600 South La Fayette Park Place 1st Floor Los Angeles CA 90057-3243,,,,not tested,Los Angeles,Los Angeles County,34.062428000000004,-118.28217099999999,
Los Angeles Unified,Los Angeles Leadership Academy,234 East Avenue 33 Los Angeles CA 90031-1937,,,,not tested,Los Angeles,Los Angeles County,34.083197,-118.21058300000001,
LAUSD,LOS ANGELES RIVER SCHOOL @ SANDRA SOTOMAYOR LEARNING ACADEMY (FMR:CRHS #13A),"2050 NORTH SAN FERNANDO RD, LOS ANGELES, CA 90065",,,,exempt,Los Angeles,Los Angeles County,34.10226,-118.237398,
Los Angeles Unified,Los Angeles Senior High,4650 West Olympic Boulevard C Los Angeles CA 90019-1831,,,,not tested,Los Angeles,Los Angeles County,34.055405,-118.33298500000001,
Los Angeles Unified,Los Angeles Unified Alternative Education,333 South Beaudry Avenue Floor 18 Los Angeles CA 90017-5108,,,,not tested,Los Angeles,Los Angeles County,34.056143,-118.257322,
Los Angeles Unified,Los Feliz Science/Tech/Engineer/Math/Medicine Magnet,1740 North New Hampshire Avenue Los Angeles CA 90027-4208,,,,not tested,Los Angeles,Los Angeles County,34.102808,-118.29299499999999,
LAUSD,LOYOLA VILLAGE ELEMENTARY,"8821 VILLANOVA AVE, LOS ANGELES,    CA 90045",,,,exempt,Los Angeles,Los Angeles County,33.957623,-118.42126699999999,
Los Angeles Unified,Loyola Village Fine And Performing Arts Magnet,8821 Villanova Avenue Los Angeles CA 90045-3496,,,,not tested,Los Angeles,Los Angeles County,33.957623,-118.42126699999999,
LAUSD,LOYOLA VILLAGE PERFORMING ARTS MAGNET,"8821 VILLANOVA AVE, LOS ANGELES,    CA 90045",,,,exempt,Los Angeles,Los Angeles County,33.957623,-118.42126699999999,
Los Angeles Unified,MacArthur Park Elementary School for the Visual and Performing Arts,2300 West Seventh Street Los Angeles CA 90057-3903,,,,not tested,Los Angeles,Los Angeles County,34.057543,-118.27952900000001,
LAUSD,MACARTHUR PARK ES FOR THE VISUAL & PERFORMING ARTS (FMR: MACARTHUR PARK PRIMARY CENTER),"2300 W. SEVENTH ST., LOS ANGELES, CA 90057",,,,exempt,Los Angeles,Los Angeles County,34.057543,-118.27952900000001,
Los Angeles Unified,Magnolia Science Academy 4,11330 West Graham Place B-9 Los Angeles CA 90064,,,,not tested,Los Angeles,Los Angeles County,34.029868,-118.43476000000001,
LAUSD,MAGNOLIA SCIENCE ACADEMY 4 @ WEBSTER MS,"11330 W GRAHAM PL, LOS ANGELES,    CA 90064",,,,exempt,Los Angeles,Los Angeles County,34.029868,-118.43476000000001,
Los Angeles Unified,Malabar Street Elementary,3200 East Malabar Street Los Angeles CA 90063-4021,,,,not tested,Los Angeles,Los Angeles County,34.044251,-118.19431599999999,
LAUSD,MATH & SCIENCE SCHOOL - COLLEGE READY,"5151 STATE UNIVERSITY DR LOT 7, LOS ANGELES, CA 90032",,,,exempt,Los Angeles,Los Angeles County,34.062039,-118.17365900000001,
Los Angeles Unified,"Math, Science, & Technology Magnet Academy at Roosevelt High",456 South Mathews St B. Los Angeles CA 90033-4326,,,,not tested,Los Angeles,Los Angeles County,34.037515,-118.211977,
LAUSD,MAURICE SENDAK ELEMENTARY SCHOOL,"11414 W TIARA ST, N HOLLYWOOD, CA 91601",,,,exempt,Los Angeles,Los Angeles County,34.178419,-118.379826,
LAUSD,MAXINE WATERS EMPLOYMENT CENTER,"10925 S CENTRAL, LOS ANGELES,    CA 90059",,,,exempt,Los Angeles,Los Angeles County,33.937355,-118.254627,
LAUSD,MC KINLEY ELEMENTARY,"7812 MC KINLEY AVE, LOS ANGELES,    CA 90001",,,,exempt,Los Angeles,Los Angeles County,33.967977000000005,-118.26038899999999,
Los Angeles Unified,Melvin Avenue Elementary,7700 Melvin Avenue Reseda CA 91335-2327,,,,not tested,Los Angeles,Los Angeles County,34.209680999999996,-118.559851,
LAUSD,MELVIN ELEMENTARY,"7700 MELVIN AVE, RESEDA, CA 91335",,,,exempt,Los Angeles,Los Angeles County,34.209680999999996,-118.559851,
LAUSD,MENT HLTH CTR-VAL BR,"6651 BALBOA BLVD, LAKE BALBOA, CA 91406",,,,exempt,Los Angeles,Los Angeles County,34.19175,-118.502261,
Los Angeles Unified,Metro Charter,320 West 15th Street Suite 143 Los Angeles CA 90015-3092,,,False,tested,Los Angeles,Los Angeles County,34.036654,-118.26676599999999,
Los Angeles Unified,Metropolitan Continuation,727 South Wilson Street Los Angeles CA 90021-1625,,,,not tested,Los Angeles,Los Angeles County,34.033696,-118.234799,
LAUSD,METROPOLITAN CONTINUATION HIGH,"727 S WILSON ST, LOS ANGELES,    CA 90021",,,,exempt,Los Angeles,Los Angeles County,34.033696,-118.234799,
Los Angeles Unified,Michelle Obama Elementary,8150 North Cedros Avenue Panorama City CA 91402-4704,,,,not tested,Los Angeles,Los Angeles County,34.218956,-118.453144,
Los Angeles Unified,Middle College High,1600 West Imperial Hwy Building 16 Los Angeles CA 90047-4810,,,,not tested,Los Angeles,Los Angeles County,33.928810999999996,-118.306082,
LAUSD,MIGUEL CONTRERAS LEARNING COMPLEX,"322 S LUCAS AVE, LOS ANGELES, CA 90017",,,,exempt,Los Angeles,Los Angeles County,34.057798999999996,-118.261113,
Los Angeles Unified,Monterey Continuation,466 South Fraser Street Los Angeles CA 90022-1929,,,,not tested,Los Angeles,Los Angeles County,34.028341,-118.158883,
LAUSD,MONTEREY CONTINUATION HIGH,"466 S FRASER AVE, LOS ANGELES, CA 90022",,,,exempt,Los Angeles,Los Angeles County,34.028341,-118.158883,
LAUSD,MULHOLLAND MIDDLE SCHOOL,"17120 VANOWEN ST, LAKE BALBOA, CA 91406",,,,exempt,Los Angeles,Los Angeles County,34.193552000000004,-118.50532,
Los Angeles Unified,Multicultural Learning Center,7510 DeSoto Avenue Canoga Park CA 91303-1430,,,False,tested,Los Angeles,Los Angeles County,34.206689000000004,-118.588228,
Los Angeles Unified,Nathaniel Narbonne Senior High,24300 Western Ave Harbor City CA 90710-1742,,,,not tested,Los Angeles,Los Angeles County,33.803684999999994,-118.30651200000001,
Los Angeles Unified,New Heights Charter,2202 West Martin Luther King Jr Boulevard Los Angeles CA 90008-2723,,,,not tested,Los Angeles,Los Angeles County,34.010639000000005,-118.317679,
LAUSD,NOBLE AVENUE ELEMENTARY SCHOOL,"8329 NOBLE AVE, SEPULVEDA,      CA 91343",,,,exempt,Los Angeles,Los Angeles County,34.223053,-118.46173999999999,
Los Angeles Unified,North Valley Military Institute College Preparatory Academy,12105 Allegheny Street Sun Valley CA 91352,,,,not tested,Los Angeles,Los Angeles County,34.234189,-118.39723899999998,
Los Angeles Unified,North Valley Occupational Center,11450 Sharp Avenue Mission Hills CA 91345-1232,,,,not tested,Los Angeles,Los Angeles County,34.277994,-118.45655900000001,
LAUSD,NORTH VALLEY OCCUPATIONAL CENTER,"11450 SHARP AVE, MISSION HILLS,  CA 91345",,,,exempt,Los Angeles,Los Angeles County,34.277994,-118.45655900000001,
LAUSD,NORTH VALLEY OCCUPATIONAL-AEWC,"11450 SHARP, MISSION HILLS,  CA",,,,exempt,Los Angeles,Los Angeles County,34.277994,-118.45655900000001,
Los Angeles Unified,Olympic Primary Center,950 South Albany Street Los Angeles CA 90015-1212,,,,not tested,Los Angeles,Los Angeles County,34.047985,-118.27061499999999,
LAUSD,PALISADES CHARTER SENIOR HIGH SCHOOL,"15777 BOWDOIN ST, PAC PALISADES, CA 90272",,,,exempt,Los Angeles,Los Angeles County,34.047213,-118.530449,
Los Angeles Unified,Para Los Ninos - Evelyn Thurman Gratts Primary,474 South Hartford Avenue Los Angeles CA 90017-1306,,,,not tested,Los Angeles,Los Angeles County,34.056218,-118.26392,
Los Angeles Unified,Para Los Ninos Charter,1617 East Seventh Street Los Angeles CA 90021-1207,,,False,tested,Los Angeles,Los Angeles County,34.03526,-118.23703799999998,
LAUSD,PARA LOS NINOS CHARTER @ GRATTS NEW PC,"474 S HARTFORD, LOS ANGELES, CA 90017",,,,exempt,Los Angeles,Los Angeles County,34.056218,-118.26392,
Los Angeles Unified,Paseo del Rey Fundamental,7751 Paseo del Rey Playa Del Rey CA 90293-8372,,,,not tested,Los Angeles,Los Angeles County,33.956536,-118.43374399999999,
LAUSD,PC-MIDCITIES CLS EMP @MILLER ES,"944 W 77TH, LOS ANGELES,    CA 90044",,,,exempt,Los Angeles,Los Angeles County,33.969664,-118.291524,
Los Angeles County Office of Education,Phoenix Academy Residential Education Center,11600 Eldrige Avenue Lakeview Terrace CA 91342-6522,,,,not tested,Los Angeles,Los Angeles County,34.280288,-118.382751,
Los Angeles Unified,Pio Pico Middle,1512 South Arlington Avenue Los Angeles CA 90019-4552,,,,not tested,Los Angeles,Los Angeles County,34.045097,-118.3172,
LAUSD,PIO PICO SCHOOL,"1512 S ARLINGTON AVE, LOS ANGELES,    CA 90019",,,,exempt,Los Angeles,Los Angeles County,34.045097,-118.3172,
LAUSD,PLATT RANCH ELEMENTARY - CLOSED SITE,"5324 WILHELMINA AVE, WOODLSND HILLS, CA 91367",,,,exempt,Los Angeles,Los Angeles County,34.166446,-118.642572,
Los Angeles Unified,Playa Vista Elementary,13150 West Bluff Creek Drive Playa Vista CA 90094-2520,,,,not tested,Los Angeles,Los Angeles County,33.968623,-118.42439499999999,
LAUSD,POINT FERMIN CAMP,"3200 ALMA STREET, SAN PEDRO, CA 90731",,,,exempt,Los Angeles,Los Angeles County,33.715790000000005,-118.29881,
Los Angeles Unified,Point Fermin Elementary,3333 Kerckhoff Avenue San Pedro CA 90731-6712,,,,not tested,Los Angeles,Los Angeles County,33.71392,-118.290438,
LAUSD,POINT FERMIN MARINE SCIENCE MAGNET,"3333 KERCKHOFF AVE, SAN PEDRO,      CA 90731",,,,exempt,Los Angeles,Los Angeles County,33.71392,-118.290438,
Los Angeles Unified,Port of Los Angeles High,250 West Fifth Street San Pedro CA 90731-3304,,,False,tested,Los Angeles,Los Angeles County,33.740444000000004,-118.282582,
Los Angeles Unified,Porter Ranch Community,12450 Mason Avenue Porter Ranch CA 91326-4619,,,,not tested,Los Angeles,Los Angeles County,34.293056,-118.58129699999999,
LAUSD,PORTER RANCH COMMUNITY SCHOOL (FRM: VR SPAN K-8 #2),"12450 MASON AVE, PORTER RANCH, CA 91326",,,,exempt,Los Angeles,Los Angeles County,34.293056,-118.58129699999999,
Los Angeles Unified,PUC Community Charter Middle and PUC Community Charter Early College High,11500 Eldridge Avenue Lakeview Terrace CA 91342-6522,,,,not tested,Los Angeles,Los Angeles County,34.280097,-118.382379,
Los Angeles Unified,PUC Lakeview Charter Academy,11465 Kagel Canyon Street Lakeview Terrace CA 91342,,,,not tested,Los Angeles,Los Angeles County,34.280132,-118.38154399999999,
LAUSD,QUEEN ANNE EARLY EDUCATION CENTER,"1212 QUEEN ANN PLACE, LOS ANGELES,    CA 90019",,,,exempt,Los Angeles,Los Angeles County,34.052001000000004,-118.330945,
Los Angeles Unified,RFK Community Schools-Ambassador School-Global Education,3201 West Eighth Street Los Angeles CA 90005-2171,,,,not tested,Los Angeles,Los Angeles County,34.058285999999995,-118.29741200000001,
Los Angeles Unified,RFK Community Schools-New Open World Academy K-12,3201 West Eighth St Los Angeles CA 90010-2171,,,,not tested,Los Angeles,Los Angeles County,34.058285999999995,-118.29741200000001,
Los Angeles Unified,Richard E. Byrd Middle,8501 Arleta Avenue Sun Valley CA 91352-2958,,,,not tested,Los Angeles,Los Angeles County,34.223918,-118.407918,
Los Angeles Unified,Rise Ko Hyang Middle,3020 Wilshire Boulevard Suite 250 Los Angeles CA 90010-1111,,,,not tested,Los Angeles,Los Angeles County,34.061106,-118.28746899999999,
Los Angeles Unified,Robert H. Lewis Continuation,12508 Wicks Street Sun Valley CA 91352-2953,,,,not tested,Los Angeles,Los Angeles County,34.226157,-118.404227,
LAUSD,ROOSEVELT CAS ALTERNATIVE EDUCATION WORK CENTER,"1241 S. SOTO STREET, SUITE 118, LOS ANGELES, CA 90023",,,,exempt,Los Angeles,Los Angeles County,34.027525,-118.21985900000001,
Los Angeles Unified,Roosevelt Community Adult,456 South Matthews Street Los Angeles CA 90033-4326,,,,not tested,Los Angeles,Los Angeles County,34.037521999999996,-118.212006,
LAUSD,ROOSEVELT INFANT / EARLY EDUCATION CENTER,"456 S MATTHEWS ST, LOS ANGELES,    CA 90033",,,,exempt,Los Angeles,Los Angeles County,34.037521999999996,-118.212006,
Los Angeles Unified,ROP Center,333 South Beaudry Ave 18th Floor Los Angeles CA 90017-5108,,,,not tested,Los Angeles,Los Angeles County,34.056143,-118.257322,
Los Angeles Unified,Rosemont Avenue Elementary,421 North Rosemont Avenue Los Angeles CA 90026-4994,,,,not tested,Los Angeles,Los Angeles County,34.072312,-118.269907,
Los Angeles Unified,Russell Elementary,1263 East Firestone Boulevard Los Angeles CA 90001-3738,,,,not tested,Los Angeles,Los Angeles County,33.96052,-118.251703,
LAUSD,RUSSELL ELEMENTARY,"1263 E FIRESTONE BLVD, LOS ANGELES,    CA 90001",,,,exempt,Los Angeles,Los Angeles County,33.96052,-118.251703,
Los Angeles Unified,Sal Castro Middle,1575 West 2nd Street B Los Angeles CA 90026-5701,,,False,tested,Los Angeles,Los Angeles County,34.061282,-118.26291299999998,
LAUSD,SAN PEDRO/WILMINGTON ADULT SKL CTR,"920 W 36TH ST BLDG 950, SAN PEDRO, CA 90731",,,,exempt,Los Angeles,Los Angeles County,33.713573,-118.297723,
Los Angeles Unified,Santa Monica Boulevard Community Charter,1022 North Van Ness Avenue Los Angeles CA 90038-3252,,,,not tested,Los Angeles,Los Angeles County,34.089581,-118.31518999999999,
Los Angeles Unified,Sara Coughlin Elementary,11035 Borden Street Pacoima CA 91331-1533,,,,not tested,Los Angeles,Los Angeles County,34.270373,-118.402755,
LAUSD,SCHOOL OF HISTORY & DRAMATIC ARTS @ SANDRA SOTOMAYOR LEARNING ACADEMY (FMR:CRHS #13B),"2050 NORTH SAN FERNANDO RD, LOS ANGELES, CA 90065",,,,exempt,Los Angeles,Los Angeles County,34.10226,-118.237398,
Los Angeles Unified,School of History and Dramatic Arts at Sonia Sotomayor Learning Academies,2050 San Fernando Road B Los Angeles CA 90065-1267,,,,not tested,Los Angeles,Los Angeles County,34.10226,-118.237398,
Los Angeles Unified,Second Street Elementary,1942 East Second Street Los Angeles CA 90033-3417,,,,not tested,Los Angeles,Los Angeles County,34.044846,-118.216706,
Los Angeles Unified,Seventh Street Elementary,1570 West Seventh Street San Pedro CA 90732-3420,,,,not tested,Los Angeles,Los Angeles County,33.738076,-118.311229,
LAUSD,SHENANDOAH ELEMENTARY,"2450 SHENANDOAH ST, LOS ANGELES,    CA 90034",,,,exempt,Los Angeles,Los Angeles County,34.038507,-118.384125,
Los Angeles Unified,Shenandoah Street Elementary,2450 Shenandoah Street Los Angeles CA 90034-2026,,,,not tested,Los Angeles,Los Angeles County,34.038507,-118.384125,
Los Angeles Unified,Sixth Avenue Elementary,3109 Sixth Avenue Los Angeles CA 90018-2920,,,,not tested,Los Angeles,Los Angeles County,34.02663,-118.324179,
LAUSD,SOTO STREET ANNEX,"2151 N SOTO ST, LOS ANGELES,    CA 90032",,,,exempt,Los Angeles,Los Angeles County,34.069514,-118.196627,
Los Angeles Unified,Soto Street Elementary,1020 South Soto Street Los Angeles CA 90023-1324,6.7,ppb,True,tested,Los Angeles,Los Angeles County,34.031695,-118.21698300000001,8.0
Los Angeles Unified,Special Education-Infant/Preschool Program,333 South Beaudry Avenue Floor 17 Los Angeles CA 90017-5105,,,,not tested,Los Angeles,Los Angeles County,34.056143,-118.257322,
LAUSD,STAGG ELEMENTARY,"7839 AMESTOY AVE, LAKE BALBOA, CA 91406",,,,exempt,Los Angeles,Los Angeles County,34.212952,-118.506579,
LAUSD,STAGG STATE PRESCHOOL,"7839 AMESTOY AVE., LAKE BALBOA, CA 91406",,,,exempt,Los Angeles,Los Angeles County,34.212952,-118.506579,
Los Angeles Unified,Stagg Street Elementary,7839 Amestoy Avenue Van Nuys CA 91406-1602,,,,not tested,Los Angeles,Los Angeles County,34.212952,-118.506579,
Los Angeles Unified,Stella Middle Charter Academy,2636 Mansfield Avenue Los Angeles CA 90016-3512,,,False,tested,Los Angeles,Los Angeles County,34.03156,-118.352359,
Private,STEM Preparatory Academy,1374 W. 35th Street Los Angeles CA 90007,,,False,tested,Los Angeles,Los Angeles County,34.024325,-118.299663,
LAUSD,STONEHURST AVE. ES STATE PRE-SCHOOL,"9851 STONEHURST AVE, SUN VALLEY, CA 91352",,,,exempt,Los Angeles,Los Angeles County,34.249666,-118.36988899999999,
Los Angeles Unified,Stonehurst Avenue Elementary,9851 Stonehurst Avenue Sun Valley CA 91352-1222,,,,not tested,Los Angeles,Los Angeles County,34.249666,-118.36988899999999,
LAUSD,STONEHURST ELEMENTARY,"9851 STONEHURST AVE, SUN VALLEY,     CA 91352",,,,exempt,Los Angeles,Los Angeles County,34.249666,-118.36988899999999,
Los Angeles Unified,Sunrise Elementary,2821 East Seventh Street Los Angeles CA 90023-1501,,,,not tested,Los Angeles,Los Angeles County,34.029607,-118.21028600000001,
Los Angeles Unified,Taft Charter High,5461 Winnetka Avenue Woodland Hills CA 91364-2548,,,,not tested,Los Angeles,Los Angeles County,34.169615,-118.57168200000001,
LAUSD,TAFT SENIOR HIGH,"5461 WINNETKA AVE, WOODLAND HILLS, CA 91364",,,,exempt,Los Angeles,Los Angeles County,34.169615,-118.57168200000001,
Los Angeles Unified,Taper Avenue Elementary,1824 Taper Avenue San Pedro CA 90731-1175,,,,not tested,Los Angeles,Los Angeles County,33.76254,-118.29839299999999,
LAUSD,TAPER ELEMENTARY,"1824 TAPER AVE, SAN PEDRO,      CA 90731",,,,exempt,Los Angeles,Los Angeles County,33.76254,-118.29839299999999,
Private,TEACH Tech Charter High School,10616 S. Western Ave. Los Angeles CA 90044,,,False,tested,Los Angeles,Los Angeles County,33.9394,-118.308797,
LAUSD,TECH ANNEX / AREA-19 @SUNRISE EL (FRMR: ELA SKILL CENTER),"333 S. BEAUDRY AVE., 22ND FL, LOS ANGELES, CA 90017",,,,exempt,Los Angeles,Los Angeles County,34.056143,-118.257322,
Private,The City School,17424 Sherman Way Lake Balboa CA 91406,,,False,tested,Los Angeles,Los Angeles County,34.200775,-118.512739,
Los Angeles Unified,The Incubator,"7400 West Manchester, Bldg K Los Angeles CA 90045-2322",,,,not tested,Los Angeles,Los Angeles County,33.957763,-118.42888799999999,
Los Angeles Unified,Thomas Jefferson Senior High,1319 East 41st Street B Los Angeles CA 90011-3301,,,,not tested,Los Angeles,Los Angeles County,34.010878999999996,-118.25101000000001,
LAUSD,THOREAU CONTINUATION HIGH,"5429 QUAKERTOWN AVE, WOODLAND HILLS, CA 91364",,,,exempt,Los Angeles,Los Angeles County,34.169031,-118.56997199999999,
Los Angeles Unified,Tri-C Community Day,"716 East 14th Street, Second Floor Los Angeles CA 90021-2114",,,,not tested,Los Angeles,Los Angeles County,34.031813,-118.25393600000001,
LAUSD,TRI-C COMMUNITY DAY SCHOOL (CDS) - CENTRAL OFFICE,"716 E 14TH ST 2ND FL, LOS ANGELES,    CA 90021",,,,exempt,Los Angeles,Los Angeles County,34.031813,-118.25393600000001,
Los Angeles Unified,USC East College Prep,3825 North Mission Road Los Angeles CA 90031-3137,,,,not tested,Los Angeles,Los Angeles County,34.07012,-118.199685,
Los Angeles Unified,USC Hybrid High,"350 South Figueroa Street, Suite 100 Los Angeles CA 90071-1115",,,,not tested,Los Angeles,Los Angeles County,34.053717999999996,-118.255002,
Los Angeles Unified,Utah Street Elementary,255 Gabriel Garcia Marquez Street Los Angeles CA 90033-2746,,,,not tested,Los Angeles,Los Angeles County,34.048499,-118.22471399999999,
LAUSD,VALLEY ALTERNATIVE,"6701 BALBOA BLVD, LAKE BALBOA, CA 91406",,,,exempt,Los Angeles,Los Angeles County,34.192151,-118.501382,
Los Angeles Unified,Valley Alternative Magnet,6701 Balboa Boulevard Van Nuys CA 91406-5531,,,,not tested,Los Angeles,Los Angeles County,34.192151,-118.501382,
Los Angeles Unified,Van Ness Avenue Elementary,501 North Van Ness Avenue Los Angeles CA 90004-1527,,,,not tested,Los Angeles,Los Angeles County,34.08081,-118.316077,
LAUSD,VENICE CAS-AEWC @ 98TH STREET AEWC,"8701 PARK HILL DR, RM S15, LOS ANGELES, CA 90045",,,,exempt,Los Angeles,Los Angeles County,33.95711,-118.42803300000001,
Los Angeles Unified,Venice Skills Center,611 Fifth Avenue Venice CA 90291-2674,,,,not tested,Los Angeles,Los Angeles County,33.995765999999996,-118.473032,
Los Angeles Unified,Vine Street Elementary,955 North Vine Street Los Angeles CA 90038-2701,,,,not tested,Los Angeles,Los Angeles County,34.088233,-118.326972,
LAUSD,VINTAGE MATH/SCIENCE MAGNET,"15848 STARE ST, SEPULVEDA,      CA 91343",,,,exempt,Los Angeles,Los Angeles County,34.252544,-118.47763,
LAUSD,WATERS EARLY EDUCATION CENTER,"2531 E SANTA ANA BLVD, LOS ANGELES,    CA 90059",,,,exempt,Los Angeles,Los Angeles County,33.932891,-118.227341,
LAUSD,WEBSTER MIDDLE SCHOOL,"11330 W GRAHAM PL, LOS ANGELES,    CA 90064",,,,exempt,Los Angeles,Los Angeles County,34.029868,-118.43476000000001,
LAUSD,WEST VALLEY OCCUPATIONAL CENTER,"6200 WINNETKA AVE, WOODLAND HILLS, CA 91367",,,,exempt,Los Angeles,Los Angeles County,34.183197,-118.570428,
Los Angeles Unified,West Valley Occupational Center,6200 Winnetka Avenue Woodland Hills CA 91367,,,,not tested,Los Angeles,Los Angeles County,34.183197,-118.570428,
LAUSD,WEST VALLEY SPECIAL EDUCATION CENTER,"6649 BALBOA BLVD, LAKE BALBOA, CA 91406",,,,exempt,Los Angeles,Los Angeles County,34.191306,-118.50188200000001,
LAUSD,WEST VALLEY STATE PRESCHOOL,"6649 BALBOA BLVD, LAKE BALBOA, CA 91406",,,,exempt,Los Angeles,Los Angeles County,34.191306,-118.50188200000001,
Los Angeles Unified,Westminster Avenue Elementary,1010 Abbott Kinney Boulevard Venice CA 90291-3312,,,,not tested,Los Angeles,Los Angeles County,33.991607,-118.4722,
Los Angeles Unified,Westside Global Awareness Magnet,104 Anchorage Street Marina Del Rey CA 90292-5102,,,,not tested,Los Angeles,Los Angeles County,33.979115,-118.464817,
Los Angeles Unified,Westside Innovative School House,6550 West 80th Street B Los Angeles CA 90045-1127,,,,not tested,Los Angeles,Los Angeles County,33.967702,-118.40386299999999,
Los Angeles Unified,William J. Johnston Community Day,2210 Taper Avenue San Pedro CA 90731-1162,,,,not tested,Los Angeles,Los Angeles County,33.765376,-118.29940500000001,
LAUSD,WILMINGTON MIDDLE SCHOOL,"1700 GULF AVE, WILMINGTON,     CA 90744",,,,exempt,Los Angeles,Los Angeles County,33.797866,-118.27401100000002,
Los Angeles Unified,"Wilmington Middle Science, Technology, Engineering, Arts, Mathematics (STEAM) Magnet",1700 Gulf Avenue Wilmington CA 90744-1311,,,,not tested,Los Angeles,Los Angeles County,33.797866,-118.27401100000002,
LAUSD,WILMINGTON PARK EARLY EDUCATION CENTER,"1419 YOUNG ST, WILMINGTON,     CA 90744",,,,exempt,Los Angeles,Los Angeles County,33.786944,-118.245673,
LAUSD,WILTON PLACE EARLY EDUCATION CENTER,"4030 W LEEWARD AVE, LOS ANGELES,    CA 90005",,,,exempt,Los Angeles,Los Angeles County,34.058709,-118.29165400000001,
Los Angeles Unified,Young Oak Kim Academy,615 South Shatto Place Los Angeles CA 90005-1302,,,,not tested,Los Angeles,Los Angeles County,34.063302,-118.290209,
LAUSD,YOUNG OAK KIM ACADEMY,"615 S SHATTO PL, LOS ANGELES, CA 90005",,,,exempt,Los Angeles,Los Angeles County,34.063302,-118.290209,
