district,schoolName,schoolAddress,medianResult,unit,lead,status,city,county,latitude,longitude
Santa Rosa Elementary,Abraham Lincoln Elementary,850 West Ninth Street Santa Rosa CA 95401-5349,NA,NA,NA,not tested,Santa Rosa,Sonoma County,38.441288,-122.737188
Santa Rita Union Elementary,Abraham Lincoln Elementary,"850 W 9th St, Santa Rosa, CA 95401",NA,NA,NA,exempt,Santa Rosa,Sonoma County,38.44155,-122.736069
Santa Rita Union Elementary,Albert F. Biella Elementary,"2140 Jennings Ave, Santa Rosa, CA 95401",NA,NA,NA,exempt,Santa Rosa,Sonoma County,38.449857,-122.752925
Santa Rosa Elementary,Albert F. Biella Elementary,2140 Jennings Avenue Santa Rosa CA 95401-9528,11.7,ppb,TRUE,tested,Santa Rosa,Sonoma County,38.449804,-122.755566
Rincon Valley Union Elementary,Austin Creek Elementary,1480 Snowy Egret Drive Santa Rosa CA 95409-4387,NA,NA,FALSE,tested,Santa Rosa,Sonoma County,38.465097,-122.637426
Rincon Valley Union Elementary,Binkley Elementary Charter,4965 Canyon Drive Santa Rosa CA 95409-3204,NA,NA,FALSE,tested,Santa Rosa,Sonoma County,38.473956,-122.663572
Santa Rita Union Elementary,Brook Hill Elementary,"1850 Vallejo St, Santa Rosa, CA 95404",NA,NA,NA,exempt,Santa Rosa,Sonoma County,38.437847,-122.693908
Santa Rosa Elementary,Brook Hill Elementary,1850 Vallejo Street Santa Rosa CA 95404-5399,NA,NA,FALSE,tested,Santa Rosa,Sonoma County,38.437554,-122.692451
Private,Brush Creek Montessori,1569 Brush Creek Rd Santa Rosa CA 95404,NA,NA,FALSE,tested,Santa Rosa,Sonoma County,38.46623,-122.680655
Private,Cardinal Newman High School,50 Ursuline Road Santa Rosa CA 95403,NA,NA,FALSE,tested,Santa Rosa,Sonoma County,38.492001,-122.739786
Santa Rosa Elementary,Cesar Chavez Language Academy,2750 West Steele Lane Santa Rosa CA 95403-3236,NA,NA,NA,not tested,Santa Rosa,Sonoma County,38.459653,-122.747006
Santa Rosa High,Elsie Allen High,599 Bellevue Ave Santa Rosa CA 95407-7713,7.2,ppb,TRUE,tested,Santa Rosa,Sonoma County,38.404328,-122.734962
Santa Rosa High,Grace High,1700 Fulton Road Santa Rosa CA 95403-1815,NA,NA,NA,not tested,Santa Rosa,Sonoma County,38.45999,-122.769542
Santa Rita Union Elementary,Helen Lehman Elementary,"1700 Jennings Ave, Santa Rosa, CA 95401",NA,NA,NA,exempt,Santa Rosa,Sonoma County,38.449675,-122.745082
Santa Rosa Elementary,Helen M. Lehman Elementary,1700 Jennings Avenue Santa Rosa CA 95401-4556,NA,NA,NA,not tested,Santa Rosa,Sonoma County,38.449675,-122.745082
Santa Rosa High,Herbert Slater Middle,3500 Sonoma Avenue Santa Rosa CA 95405-5414,NA,NA,NA,not tested,Santa Rosa,Sonoma County,38.448451,-122.67303
Santa Rita Union Elementary,Herbert Slater Middle School,"3500 Sonoma Ave, Santa Rosa, CA 95405",NA,NA,NA,exempt,Santa Rosa,Sonoma County,38.448451,-122.67303
Santa Rosa Elementary,Hidden Valley Elementary,3435 Bonita Vista Drive Santa Rosa CA 95404-1573,NA,NA,FALSE,tested,Santa Rosa,Sonoma County,38.473291,-122.700396
Santa Rita Union Elementary,Hidden Valley Elementary,"3435 Bonita Vista Dr, Santa Rosa, CA 95404",NA,NA,NA,exempt,Santa Rosa,Sonoma County,38.475941,-122.699511
Santa Rosa High,Hilliard Comstock Middle,2750 West Steele Ln Santa Rosa CA 95403-3299,NA,NA,NA,not tested,Santa Rosa,Sonoma County,38.459653,-122.747006
Santa Rita Union Elementary,Hilliard Comstock Middle School,"2750 W Steele Ln, Santa Rosa, CA 95403",NA,NA,NA,exempt,Santa Rosa,Sonoma County,38.459653,-122.747006
Wright Elementary,J. X. Wilson Elementary,246 Brittain Lane Santa Rosa CA 95401-5810,NA,NA,FALSE,tested,Santa Rosa,Sonoma County,38.43307,-122.74937
Piner-Olivet Union Elementary,Jack London Elementary,2707 Francisco Avenue Santa Rosa CA 95403-1869,NA,NA,FALSE,tested,Santa Rosa,Sonoma County,38.480971,-122.764332
Santa Rosa Elementary,James Monroe Elementary,2567 Marlow Road Santa Rosa CA 95403-2473,NA,NA,NA,not tested,Santa Rosa,Sonoma County,38.456877,-122.752207
Santa Rita Union Elementary,James Monroe Elementary,"2567 Marlow Rd, Santa Rosa, CA 95403",NA,NA,NA,exempt,Santa Rosa,Sonoma County,38.456877,-122.752207
Mark West Union Elementary,John B. Riebli Elementary,315 Mark West Springs Road Santa Rosa CA 95404-1101,NA,NA,FALSE,tested,Santa Rosa,Sonoma County,38.500904,-122.741804
Bellevue Union Elementary,Kawana Elementary,2121 Moraga Drive Santa Rosa CA 95404-6114,NA,NA,FALSE,tested,Santa Rosa,Sonoma County,38.420815,-122.700413
Santa Rosa Elementary,Kid Street Learning Center Charter,709 Davis Street Santa Rosa CA 95401-4767,NA,NA,FALSE,tested,Santa Rosa,Sonoma County,38.440998,-122.722068
Santa Rosa High,Lawrence Cook Middle,2480 Sebastopol Rd Santa Rosa CA 95407-6728,NA,NA,NA,not tested,Santa Rosa,Sonoma County,38.426506,-122.746874
Santa Rita Union Elementary,Lawrence Cook Middle School,"2480 Sebastopol Rd, Santa Rosa, CA 95407",NA,NA,NA,exempt,Santa Rosa,Sonoma County,38.426506,-122.746874
Santa Rosa Elementary,Luther Burbank Elementary,203 South A Street Santa Rosa CA 95401-6302,NA,NA,NA,not tested,Santa Rosa,Sonoma County,38.43493,-122.715418
Santa Rita Union Elementary,Luther Burbank Elementary,"203 A St, Santa Rosa, CA 95401",NA,NA,NA,exempt,Santa Rosa,Sonoma County,38.442043,-122.719497
Rincon Valley Union Elementary,Madrone Elementary,4550 Rinconada Drive Santa Rosa CA 95409-3030,NA,NA,FALSE,tested,Santa Rosa,Sonoma County,38.468506,-122.674837
Santa Rosa High,Maria Carrillo High,6975 Montecito Boulevard Santa Rosa CA 95409-2787,NA,NA,FALSE,tested,Santa Rosa,Sonoma County,38.479936,-122.659649
Mark West Union Elementary,Mark West Elementary,4600 Lavell Road Santa Rosa CA 95403-7822,NA,NA,FALSE,tested,Santa Rosa,Sonoma County,38.502514,-122.759423
Windsor Unified,Mattie Washburn Elementary,75 Pleasant Avenue Santa Rosa CA 95403-1130,NA,NA,FALSE,tested,Santa Rosa,Sonoma County,38.541559,-122.791925
Bellevue Union Elementary,Meadow View Elementary,2665 Dutton Meadow Avenue Santa Rosa CA 95407-7730,NA,NA,FALSE,tested,Santa Rosa,Sonoma County,38.41252,-122.729497
Santa Rosa High,Mesa High,1235 Mendocino Avenue Santa Rosa CA 95401-4312,NA,NA,NA,not tested,Santa Rosa,Sonoma County,38.451894,-122.717564
Santa Rosa High,Montgomery High,1250 Hahman Drive Santa Rosa CA 95405-6934,NA,NA,NA,not tested,Santa Rosa,Sonoma County,38.441091,-122.685192
Santa Rita Union Elementary,Montgomery High School,"1250 Hahman Dr, Santa Rosa, CA 95405",NA,NA,NA,exempt,Santa Rosa,Sonoma County,38.441091,-122.685192
Piner-Olivet Union Elementary,Morrice Schaefer Charter,1370 San Miguel Avenue Santa Rosa CA 95403-1986,NA,NA,FALSE,tested,Santa Rosa,Sonoma County,38.474274,-122.754548
Santa Rosa High,Piner High,1700 Fulton Rd. Santa Rosa CA 95403-1815,NA,NA,NA,not tested,Santa Rosa,Sonoma County,38.45999,-122.769542
Santa Rita Union Elementary,Piner High School,"1700 Fulton Rd, Santa Rosa, CA 95403",NA,NA,NA,exempt,Santa Rosa,Sonoma County,38.45999,-122.769542
Piner-Olivet Union Elementary,Piner-Olivet Charter,2707 Francisco Ave Santa Rosa CA 95403-1869,NA,NA,FALSE,tested,Santa Rosa,Sonoma County,38.480971,-122.764332
Oak Grove Union Elementary,Pivot Online Charter - North Bay,2999 Cleveland Avenue Suite D Santa Rosa CA 95401-2761,NA,NA,FALSE,tested,Santa Rosa,Sonoma County,38.465996,-122.728813
Santa Rosa Elementary,Proctor Terrace Elementary,1711 Bryden Lane Santa Rosa CA 95404-3646,NA,NA,NA,not tested,Santa Rosa,Sonoma County,38.451668,-122.698978
Santa Rita Union Elementary,Proctor Terrace Elementary,"1711 Bryden Ln, Santa Rosa, CA 95404",NA,NA,NA,exempt,Santa Rosa,Sonoma County,38.451668,-122.698978
Santa Rosa High,Ridgway High (Continuation),325 Ridgway Avenue Santa Rosa CA 95401-4334,NA,NA,FALSE,tested,Santa Rosa,Sonoma County,38.449689,-122.722439
Rincon Valley Union Elementary,Rincon Valley Charter,5305 Dupont Dr Santa Rosa CA 95409-3843,NA,NA,FALSE,tested,Santa Rosa,Sonoma County,38.469809,-122.652908
Santa Rosa High,Rincon Valley Middle,4650 Badger Road Santa Rosa CA 95409-2699,NA,NA,NA,not tested,Santa Rosa,Sonoma County,38.482084,-122.672222
Santa Rita Union Elementary,Rincon Valley Middle School,"4650 Badger Rd, Santa Rosa, CA 95409",NA,NA,NA,exempt,Santa Rosa,Sonoma County,38.482084,-122.672222
Wright Elementary,Robert L. Stevens Elementary,2345 Giffen Avenue Santa Rosa CA 95407-7380,NA,NA,FALSE,tested,Santa Rosa,Sonoma County,38.418018,-122.742554
Roseland,Roseland Charter,100 Sebastopol Road Santa Rosa CA 95407-6928,NA,NA,NA,not tested,Santa Rosa,Sonoma County,38.430893,-122.723722
Roseland,Roseland Elementary,950 Sebastopol Road Santa Rosa CA 95407-6829,NA,NA,FALSE,tested,Santa Rosa,Sonoma County,38.429161,-122.731032
Santa Rosa High,Santa Rosa Accelerated Charter,4650 Badger Rd. Santa Rosa CA 95409-2633,NA,NA,FALSE,tested,Santa Rosa,Sonoma County,38.48108,-122.671347
Santa Rita Union Elementary,Santa Rosa Charter School for the Arts,"756 Humboldt St, Santa Rosa, CA 95404",NA,NA,NA,exempt,Santa Rosa,Sonoma County,38.446814,-122.714597
Santa Rosa Elementary,Santa Rosa French-American Charter (SRFACS),1350 Sonoma Avenue Santa Rosa CA 95405-6623,NA,NA,NA,not tested,Santa Rosa,Sonoma County,38.441743,-122.697472
Santa Rita Union Elementary,Santa Rosa French-American Charter School,"1350 Sonoma Ave, Santa Rosa, CA 95405",NA,NA,NA,exempt,Santa Rosa,Sonoma County,38.441743,-122.697472
Santa Rosa High,Santa Rosa High,1235 Mendocino Ave Santa Rosa CA 95401-4312,NA,NA,NA,not tested,Santa Rosa,Sonoma County,38.451894,-122.717564
Santa Rita Union Elementary,Santa Rosa High School,"1235 Mendocino Ave, Santa Rosa, CA 95401",NA,NA,NA,exempt,Santa Rosa,Sonoma County,38.451894,-122.717564
Santa Rosa High,Santa Rosa Middle,500 E Street Santa Rosa CA 95404-4373,NA,NA,NA,not tested,Santa Rosa,Sonoma County,38.444909,-122.710804
Santa Rita Union Elementary,Santa Rosa Middle School,"500 E St, Santa Rosa, CA 95404",NA,NA,NA,exempt,Santa Rosa,Sonoma County,38.444909,-122.710804
Rincon Valley Union Elementary,Sequoia Elementary,5305 Dupont Drive Santa Rosa CA 95409-3843,NA,NA,FALSE,tested,Santa Rosa,Sonoma County,38.469809,-122.652908
Roseland,Sheppard Elementary,1777 West Avenue Santa Rosa CA 95407-7449,NA,NA,FALSE,tested,Santa Rosa,Sonoma County,38.42002,-122.727894
Valley Center-Pauma Unified,Spring Creek Elementary School,4675 Mayette Ave Santa Rosa CA 95405,NA,NA,FALSE,tested,Santa Rosa,Sonoma County,38.444034,-122.666775
Rincon Valley Union Elementary,Spring Creek Matanzas Charter,1687 Yulupa Avenue Santa Rosa CA 95405-7778,NA,NA,FALSE,tested,Santa Rosa,Sonoma County,38.437492,-122.670745
Santa Rosa Elementary,Steele Lane Elementary,301 Steele Lane Santa Rosa CA 95403-3148,NA,NA,NA,not tested,Santa Rosa,Sonoma County,38.460548,-122.720485
Santa Rita Union Elementary,Steele Lane Elementary,"301 Steele Ln, Santa Rosa, CA 95403",NA,NA,NA,exempt,Santa Rosa,Sonoma County,38.460548,-122.720485
Bennett Valley Union Elementary,Strawberry Elementary,2311 Horseshoe Drive Santa Rosa CA 95405-8199,NA,NA,FALSE,tested,Santa Rosa,Sonoma County,38.434351,-122.661719
Bellevue Union Elementary,Taylor Mountain Elementary,1210 East Bellevue Avenue Santa Rosa CA 95407-2764,NA,NA,FALSE,tested,Santa Rosa,Sonoma County,38.400407,-122.708986
Rincon Valley Union Elementary,Village Elementary Charter,900 Yulupa Avenue Santa Rosa CA 95405-7018,NA,NA,FALSE,tested,Santa Rosa,Sonoma County,38.445394,-122.675026
Rincon Valley Union Elementary,Whited Elementary Charter,4995 Sonoma Highway Santa Rosa CA 95409-4240,NA,NA,FALSE,tested,Santa Rosa,Sonoma County,38.464697,-122.66282
Bennett Valley Union Elementary,Yulupa Elementary,2250 Mesquite Drive Santa Rosa CA 95405-8310,NA,NA,FALSE,tested,Santa Rosa,Sonoma County,38.42951,-122.673084
