district,schoolName,schoolAddress,medianResult,unit,lead,status,city,county,latitude,longitude,maxResult
Cypress Elementary,A. E. Arnold Elementary,9281 Denni Street Cypress CA 90630-2724,6.55,ppb,True,tested,Cypress,Orange County,33.824705,-118.054602,7.1
Tustin Unified,A. G. Currie Middle,1402 Sycamore Ave. Tustin CA 92780-6233,,,False,tested,Orange,Orange County,33.727177000000005,-117.826807,
Garden Grove Unified,A. J. Cook Elementary,9802 Woodbury Avenue Garden Grove CA 92844-2819,,,False,tested,Garden Grove,Orange County,33.763539,-117.95816599999999,
Santa Ana Unified,Abraham Lincoln Elementary,425 South Sullivan Santa Ana CA 92704-1631,,,False,tested,Santa Ana,Orange County,33.740542,-117.90215400000001,
Newport-Mesa Unified,Abraham Lincoln Elementary,3101 Pacific View Drive Corona Del Mar CA 92625-1108,,,False,tested,Newport Beach,Orange County,33.609716999999996,-117.861646,
Fullerton Elementary,Acacia Elementary,1200 North Acacia Avenue Fullerton CA 92831-2102,,,False,tested,Fullerton,Orange County,33.881564000000004,-117.89833300000001,
Westminster,Ada Clegg Elementary,6311 Larchwood Dr Huntington Beach CA 92647-2320,,,,not tested,Huntington Beach,Orange County,33.747037,-118.02041799999999,
Santa Ana Unified,Adams Elementary,2130 South Raitt Street Santa Ana CA 92704-5001,,,False,tested,Santa Ana,Orange County,33.719,-117.896176,
Newport-Mesa Unified,Adams Elementary,2850 Club House Road Costa Mesa CA 92626-4705,,,False,tested,Costa Mesa,Orange County,33.674343,-117.93196,
Garden Grove Unified,Adult Education,11262 Garden Grove Boulevard Garden Grove CA 92843,,,,not tested,Garden Grove,Orange County,33.774122999999996,-117.93704,
Santa Ana Unified,Advanced Learning Academy,335 East Walnut Avenue Santa Ana CA 92701,,,False,tested,Santa Ana,Orange County,33.744431,-117.86399399999999,
Huntington Beach City Elementary,Agnes L. Smith Elementary,770 17th Street Huntington Beach CA 92648-3426,,,False,tested,Huntington Beach,Orange County,33.670184000000006,-118.006777,
Garden Grove Unified,Agnes Ware Stanley Elementary,12201 Elmwood Avenue Garden Grove CA 92840-3439,,,False,tested,Garden Grove,Orange County,33.785712,-117.937955,
Garden Grove Unified,Alamitos Intermediate,12381 Dale Street Garden Grove CA 92841-3219,,,False,tested,Stanton,Orange County,33.782746,-117.98416,
Irvine Unified,Alderwood Elementary,2005 Knollcrest Irvine CA 92603-1600,5.08,ppb,True,tested,Irvine,Orange County,33.648739,-117.775925,5.08
Capistrano Unified,Aliso Niguel High,28000 Wolverine Way Aliso Viejo CA 92656-3385,,,False,tested,Aliso Viejo,Orange County,33.563297,-117.719641,
Capistrano Unified,Aliso Viejo Middle,111 Park Avenue Aliso Viejo CA 92656-2847,,,False,tested,Aliso Viejo,Orange County,33.579598,-117.713799,
Anaheim Union High,Anaheim High,811 West Lincoln Avenue Anaheim CA 92805-2499,5.9,ppb,True,tested,Anaheim,Orange County,33.835031,-117.925578,5.9
Orange Unified,Anaheim Hills Elementary,6450 East Serrano Anaheim CA 92807-5034,6.2,ppb,True,tested,Anaheim,Orange County,33.829133,-117.76091100000001,6.2
Westminster,Anderson Elementary,8902 Hewitt Place Garden Grove CA 92844-2630,,,,not tested,Garden Grove,Orange County,33.761784999999996,-117.97395800000001,
Westminster,Anderson Elementary School,"8902 Hewitt Pl, Garden Grove, CA 92844",,,,exempt,Garden Grove,Orange County,33.761784999999996,-117.97395800000001,
Santa Ana Unified,Andrew Jackson Elementary,1143 South Nakoma Drive Santa Ana CA 92704-3030,,,False,tested,Santa Ana,Orange County,33.732382,-117.90878500000001,
La Habra City Elementary,Arbolita Elementary,1001 East Brookdale Avenue La Habra CA 90631-3114,,,False,tested,La Habra,Orange County,33.943740000000005,-117.936416,
Tustin Unified,Arnold O. Beckman High,3588 Bryan Avenue Irvine CA 92602-1347,,,False,tested,Irvine,Orange County,33.718948,-117.780752,
Brea-Olinda Unified,Arovista Elementary,900 Eadington Drive Brea CA 92821-5298,,,False,tested,Brea,Orange County,33.913696,-117.911997,
Tustin Unified,Arroyo Elementary,11112 Coronel Road Santa Ana CA 92705-2492,,,False,tested,Santa Ana,Orange County,33.766596,-117.78566599999999,
Capistrano Unified,Arroyo Vista Elementary,23371 Arroyo Vista Rancho Santa Margarita CA 92688-4906,,,False,tested,Rancho Santa Margarita,Orange County,33.623206,-117.615429,
Buena Park Elementary,Arthur F. Corey Elementary,7351 Holder Street Buena Park CA 90620-1608,5.3,ppb,True,tested,Buena Park,Orange County,33.855509000000005,-118.019979,5.3
Newport-Mesa Unified,Back Bay High,390 Monte Vista Ave. Costa Mesa CA 92627-1495,,,False,tested,Costa Mesa,Orange County,33.653335999999996,-117.89035,
Anaheim Union High,Ball Junior High,1500 West Ball Road Anaheim CA 92802-1626,6.6,ppb,True,tested,Anaheim,Orange County,33.817915,-117.933481,6.6
Tustin Unified,Barbara Benson Elementary,12712 Elizabeth Way Tustin CA 92780-2811,,,False,tested,Tustin,Orange County,33.75139,-117.805291,
Anaheim Elementary,Barton (Clara) Elementary,1926 Clearbrook Lane Anaheim CA 92804-3519,,,False,tested,Anaheim,Orange County,33.823485,-117.973949,
Capistrano Unified,Bathgate Elementary,27642 Napoli Way Mission Viejo CA 92692-5276,,,False,tested,Mission Viejo,Orange County,33.580725,-117.64851000000002,
Irvine Unified,Beacon Park,200 Cultivate Irvine CA 92618,,,False,tested,Irvine,Orange County,33.687829,-117.73501599999999,
Fullerton Elementary,Beechwood Elementary,780 Beechwood Avenue Fullerton CA 92835-2777,,,False,tested,Fullerton,Orange County,33.901224,-117.91386899999999,
Tustin Unified,Benjamin F. Beswick Elementary,1362 Mitchell Avenue Tustin CA 92780-5746,,,False,tested,Tustin,Orange County,33.731186,-117.820591,
Placentia-Yorba Linda Unified,Bernardo Yorba Middle,5350 Fairmont Boulevard Yorba Linda CA 92886-4446,,,False,tested,Yorba Linda,Orange County,33.888733,-117.79043999999999,
Capistrano Unified,Bernice Ayer Middle,1271 Sarmentoso San Clemente CA 92673,,,False,tested,San Clemente,Orange County,33.474801,-117.6219,
Private,Bethany Christian Academy,13431 Edwards Street Westminster CA 92683,,,False,tested,Westminster,Orange County,33.767629,-118.01661499999999,
Private,Blessed Sacrament Schol,14146 South Olive Street Westminster CA 92683,,,False,tested,Westminster,Orange County,33.756865999999995,-118.00008899999999,
Garden Grove Unified,Bolsa Grande High,9401 Westminster Avenue Garden Grove CA 92844-2901,,,False,tested,Garden Grove,Orange County,33.759417,-117.962259,
Irvine Unified,Bonita Canyon Elementary,1 Sundance Irvine CA 92603-3608,,,False,tested,Irvine,Orange County,33.633672,-117.812839,
Brea-Olinda Unified,Brea Canyon High (Continuation),689 North Wildcat Way Brea CA 92821-7400,6.0,ppb,True,tested,Brea,Orange County,33.92958,-117.87518600000001,6.5
Brea-Olinda Unified,Brea Country Hills Elementary,150 North Associated Road Brea CA 92821-4669,17.0,ppb,True,tested,Brea,Orange County,33.920472,-117.873107,17.0
Brea-Olinda Unified,Brea Junior High,400 North Brea Boulevard Brea CA 92821-3399,14.0,ppb,True,tested,Brea,Orange County,33.92631,-117.894576,14.0
Brea-Olinda Unified,Brea-Olinda High,789 North Wildcat Way Brea CA 92821-7400,,,False,tested,Brea,Orange County,33.931962,-117.87597199999999,
Private,Brethren Christian Junior and Senior High,21141 Strathmoor Lane Huntington Beach CA 92646,,,False,tested,Huntington Beach,Orange County,33.655311,-117.958674,
Capistrano Unified,Bridges Community Day,31576 El Camino Real San Juan Capistrano CA 92675-2631,,,,not tested,San Juan Capistrano,Orange County,33.50525,-117.66288899999999,
Ocean View,Bright Star Academy,6621 Glen Dr. Huntington Beach CA 92647,7.5,ppb,True,tested,Huntington Beach,Orange County,33.734081,-118.01348899999999,7.5
Santa Ana Unified,Broadway/ Headstart,321 W Washington St Santa Ana CA 92706,,,False,tested,Santa Ana,Orange County,33.755981,-117.87086299999999,
Placentia-Yorba Linda Unified,Brookhaven Elementary,1851 North Brookhaven Avenue Placentia CA 92870-2610,,,False,tested,Placentia,Orange County,33.895513,-117.860171,
Garden Grove Unified,Brookhurst Elementary,9821 William Dalton Way Garden Grove CA 92841-3841,,,False,tested,Garden Grove,Orange County,33.783525,-117.96079499999999,
Anaheim Union High,Brookhurst Junior High,601 North Brookhurst Avenue Anaheim CA 92801-3879,,,False,tested,Anaheim,Orange County,33.841393,-117.95972900000001,
Garden Grove Unified,Bryant Elementary,8371 Orangewood Avenue Garden Grove CA 92841-1517,,,False,tested,Garden Grove,Orange County,33.795555,-118.00758400000001,
Placentia-Yorba Linda Unified,Bryant Ranch Elementary,24695 Paseo de Toronto Yorba Linda CA 92887-5116,,,False,tested,Yorba Linda,Orange County,33.878688000000004,-117.71845800000001,
Irvine Unified,Brywood Elementary,1 Westwood Irvine CA 92620-6200,,,False,tested,Irvine,Orange County,33.711533,-117.7738,
Fullerton Joint Union High,Buena Park High,8833 Academy Drive Buena Park CA 90621-3705,,,False,tested,Buena Park,Orange County,33.86102,-117.98016000000001,
Buena Park Elementary,Buena Park Junior High,6931 Orangethorpe Avenue Buena Park CA 90620-1350,,,False,tested,Buena Park,Orange County,33.858981,-118.012749,
Centralia Elementary,Buena Terra Elementary,8299 Holder Street Buena Park CA 90620-2957,,,False,tested,Buena Park,Orange County,33.843761,-118.018506,
Garden Grove Unified,C. C. Violette Elementary,12091 Lampson Avenue Garden Grove CA 92840-5643,,,False,tested,Garden Grove,Orange County,33.7817,-117.92291100000001,
Tustin Unified,C. E. Utt Middle,13601 Browning Avenue Tustin CA 92780-5212,,,False,tested,Tustin,Orange County,33.733753,-117.805558,
Orange Unified,California Elementary,1080 North California Street Orange CA 92867-5810,,,False,tested,Orange,Orange County,33.805702000000004,-117.842699,
Newport-Mesa Unified,California Elementary,3232 California Avenue Costa Mesa CA 92626-2231,,,False,tested,Costa Mesa,Orange County,33.688994,-117.925172,
Capistrano Unified,California Preparatory Academy,32972 Calle Perfecto San Juan Capistrano CA 92675-4706,,,,not tested,San Juan Capistrano,Orange County,33.483329,-117.67272700000001,
Orange Unified,Cambridge Elementary,425 North Cambridge Orange CA 92866-1149,8.86,ppb,True,tested,Orange,Orange County,33.793781,-117.844269,8.86
Orange Unified,Canyon High,220 South Imperial Highway Anaheim CA 92807-3945,,,False,tested,Anaheim,Orange County,33.848058,-117.78851200000001,
Orange Unified,Canyon Hills,260 South Imperial Highway Anaheim CA 92807-3945,7.3,ppb,True,tested,Anaheim,Orange County,33.850024,-117.79036299999999,7.3
Orange Unified,Canyon Rim Elementary,1090 The Highlands Drive Anaheim CA 92808-2144,,,False,tested,Anaheim,Orange County,33.844819,-117.74131799999999,
Irvine Unified,Canyon View Elementary,12025 Yale Court Irvine CA 92620-0210,,,False,tested,Irvine,Orange County,33.725715,-117.75323,
Capistrano Unified,Canyon Vista Elementary,27800 Oak View Drive Aliso Viejo CA 92656-6244,,,,not tested,Aliso Viejo,Orange County,33.562528,-117.73493899999998,
Capistrano Unified,Capistrano Connections Academy,33272 Valle Road San Juan Capistrano CA 92675-4842,,,,not tested,San Juan Capistrano,Orange County,33.488554,-117.662917,
Capistrano Unified,Capistrano Valley High,26301 Via Escolar Mission Viejo CA 92692-3999,,,False,tested,San Juan Capistrano,Orange County,33.542536,-117.673115,
Capistrano Unified,Capistrano Virtual/Home,32972 Calle Perfect San Juan Capistrano CA 92675-4706,,,,not tested,San Juan Capistrano,Orange County,33.483948,-117.67191000000001,
Private,Carden Conservatory,5702 Clark Drive Huntington Beach CA 92649,6.0,ppb,True,tested,Huntington Beach,Orange County,33.726721000000005,-118.029404,6.0
Buena Park Elementary,Carl E. Gilbert Elementary,7255 Eighth Street Buena Park CA 90621-2203,8.1,ppb,True,tested,Buena Park,Orange County,33.867455,-118.00703500000002,8.1
Capistrano Unified,Carl Hankey Elementary,27252 Nubles Street Mission Viejo CA 92692-3433,,,False,tested,Mission Viejo,Orange County,33.569588,-117.654886,
Santa Ana Unified,Carl Harvey Elementary,1635 South Center Street Santa Ana CA 92704-4111,6.2,ppb,True,tested,Santa Ana,Orange County,33.725218,-117.89806599999999,6.2
Capistrano Unified,Castille Elementary,24042 Via la Coruna Mission Viejo CA 92691-3529,11.0,ppb,True,tested,Mission Viejo,Orange County,33.614556,-117.658027,11.0
Centralia Elementary,Centralia Elementary,195 North Western Avenue Anaheim CA 92801-6040,,,False,tested,Anaheim,Orange County,33.832805,-118.00233100000001,
Santa Ana Unified,Century High,1401 South Grand Avenue Santa Ana CA 92705-4408,,,False,tested,Santa Ana,Orange County,33.709156,-117.851863,
Savanna Elementary,Cerritos Elementary,3731 Cerritos Anaheim CA 92804-4603,,,False,tested,Anaheim,Orange County,33.810497,-117.958969,
Orange Unified,Cerro Villa Middle,17852 East Serrano Avenue Villa Park CA 92861-1214,,,False,tested,Orange,Orange County,33.821101,-117.82501299999998,
Santa Ana Unified,Cesar E. Chavez High,2128 South Cypress Santa Ana CA 92707-3244,,,False,tested,Santa Ana,Orange County,33.718733,-117.86711100000001,
Capistrano Unified,Chaparral Elementary,29001 Sienna Parkway Ladera Ranch CA 92694-0433,,,False,tested,Ladera Ranch,Orange County,33.561762,-117.63436200000001,
Orange Unified,Chapman Hills Elementary,170 North Aspen Street Orange CA 92869-6557,,,False,tested,Santa Ana,Orange County,33.767638,-117.854712,
Buena Park Elementary,Charles G. Emery Elementary,8600 Somerset Street Buena Park CA 90621-1402,,,False,tested,Buena Park,Orange County,33.884445,-117.983275,
Newport-Mesa Unified,Charles W. Tewinkle Middle,3224 California Avenue Costa Mesa CA 92626-2231,,,False,tested,Costa Mesa,Orange County,33.688652000000005,-117.924254,
Placentia-Yorba Linda Unified,Charles Wagner Elementary,717 East Yorba Linda Boulevard Placentia CA 92870-3008,,,False,tested,Placentia,Orange County,33.891627,-117.851774,
Private,Christ Lutheran,820 West Imperial Highway Brea CA 92821,,,False,tested,Brea,Orange County,33.917553000000005,-117.911302,
Saddleback Valley Unified,Cielo Vista Elementary,21811 Avenida De Los Fundadores Rancho Santa Margarita CA 92688-5444,,,False,tested,Rancho Santa Margarita,Orange County,33.646536,-117.58588999999999,
Saddleback Valley Unified,Cielo Vista Elementary,"21811 Ave. De Los Fundadores, Rancho Santa Margarita, CA 92688",,,,exempt,Rancho Santa Margarita,Orange County,33.646264,-117.586353,
Saddleback Valley Unified,Cielo Vista Elementary,"21811 Ave. De Los Fundadores, Rancho Santa Margarita, CA 92688",,,,exempt,Rancho Santa Margarita,Orange County,33.646264,-117.586353,
Saddleback Valley Unified,Cielo Vista Elementary,"21811 Ave. De Los Fundadores, Rancho Santa Margarita, CA 92688",,,,exempt,Rancho Santa Margarita,Orange County,33.646264,-117.586353,
Saddleback Valley Unified,Cielo Vista Elementary,"21811 Ave. De Los Fundadores, Rancho Santa Margarita, CA 92688",,,,exempt,Rancho Santa Margarita,Orange County,33.646264,-117.586353,
Ocean View,Circle View Elementary,6261 Hooker Drive Huntington Beach CA 92647-2800,9.3,ppb,True,tested,Huntington Beach,Orange County,33.73255,-118.018932,9.3
Cypress Elementary,Clara J. King Elementary,8710 Moody Street Cypress CA 90630-2220,,,False,tested,Cypress,Orange County,33.814886,-118.04551000000001,
Capistrano Unified,Clarence Lobo Elementary,200 Avenida Vista Montana San Clemente CA 92672-9400,,,False,tested,San Clemente,Orange County,33.437782,-117.597571,
Garden Grove Unified,Clinton Elementary,13641 Clinton Street Garden Grove CA 92843-4110,,,False,tested,Garden Grove,Orange County,33.764860999999996,-117.911514,
Huntington Beach Union High,Coast High,17231 Gothard Street Huntington Beach CA 92647-5421,,,False,tested,Huntington Beach,Orange County,33.712354,-118.00031499999999,
Placentia-Yorba Linda Unified,Col. J. K. Tuffree Middle,2151 North Kraemer Boulevard Placentia CA 92870-1930,,,False,tested,Placentia,Orange County,33.88027,-117.86359399999999,
Irvine Unified,College Park Elementary,3700 Chaparral Avenue Irvine CA 92606-2199,,,False,tested,Irvine,Orange County,33.705745,-117.792842,
Newport-Mesa Unified,College Park Elementary,2380 Notre Dame Road Costa Mesa CA 92626-6400,,,False,tested,Costa Mesa,Orange County,33.660732,-117.911449,
Ocean View,College View Elementary,6582 Lennox Drive Huntington Beach CA 92647-3452,5.1,ppb,True,tested,Huntington Beach,Orange County,33.727508,-118.013745,5.1
Tustin Unified,Columbus Tustin Middle,17952 Beneta Way Tustin CA 92780-2659,,,False,tested,Tustin,Orange County,33.751018,-117.81941,
Fullerton Elementary,Commonwealth Elementary,2200 East Commonwealth Avenue Fullerton CA 92831-4212,,,False,tested,Fullerton,Orange County,33.870458,-117.893322,
Santa Ana Unified,Community Day Intermediate and High,804 N Fairview Street Santa Ana CA 92703,,,,not tested,Santa Ana,Orange County,33.7544,-117.9026,
Capistrano Unified,Community Roots Academy,23431 Knollwood P-31 Aliso Viejo CA 92656,,,False,tested,Aliso Viejo,Orange County,33.554458000000004,-117.720726,
Capistrano Unified,Concordia Elementary,3120 Avenida del Presidente San Clemente CA 92672-4517,5.5,ppb,True,tested,San Clemente,Orange County,33.403126,-117.597645,5.5
Saddleback Valley Unified,Cordillera Elem,"25952 Cordillera Dr, Mission Viejo, CA 92691",,,,exempt,Mission Viejo,Orange County,33.6101,-117.677676,
Saddleback Valley Unified,Cordillera Elementary,25952 Cordillera Drive Mission Viejo CA 92691-4099,,,,not tested,Mission Viejo,Orange County,33.6101,-117.677676,
Newport-Mesa Unified,Corona del Mar High,2101 Eastbluff Drive Newport Beach CA 92660-4530,,,False,tested,Newport Beach,Orange County,33.631196,-117.87463799999999,
Newport-Mesa Unified,Costa Mesa High,2650 Fairview Road Costa Mesa CA 92626-5537,,,False,tested,Costa Mesa,Orange County,33.693573,-117.90781299999999,
Fountain Valley Elementary,Courreges (Roch) Elementary,18313 Santa Carlotta Fountain Valley CA 92708-5616,,,False,tested,Fountain Valley,Orange County,33.696647,-117.97606699999999,
Fountain Valley Elementary,Cox (James H.) Elementary,17615 Los Jardines East Fountain Valley CA 92708-5340,,,False,tested,Fountain Valley,Orange County,33.707484,-117.939004,
Irvine Unified,Creekside High,3387 Barranca Pkwy Irvine CA 92606-8272,,,False,tested,Irvine,Orange County,33.685065,-117.80985700000001,
Orange Unified,Crescent Elementary,5001 Gerda Drive Anaheim CA 92807-3090,,,False,tested,Anaheim,Orange County,33.852419,-117.807919,
Irvine Unified,Culverdale Elementary,2 Paseo Westpark Irvine CA 92614-5311,,,False,tested,Irvine,Orange County,33.681519,-117.81805700000001,
Anaheim Union High,Cypress High,9801 Valley View Street Cypress CA 90630-3994,6.0,ppb,True,tested,Cypress,Orange County,33.819547,-118.02822900000001,6.0
Irvine Unified,Cypress Village Elementary,355 Rush Lily Irvine CA 92620-4112,,,False,tested,Irvine,Orange County,33.686527000000005,-117.756128,
Fullerton Elementary,D. Russell Parks Junior High,1710 Rosecrans Avenue Fullerton CA 92833-1912,,,False,tested,Fullerton,Orange County,33.892587,-117.952523,
Anaheim Union High,Dale Junior High,900 South Dale Street Anaheim CA 92804-4097,,,False,tested,Anaheim,Orange County,33.819641,-117.982671,
Capistrano Unified,Dana Hills High,33333 Golden Lantern Dana Point CA 92629-1840,,,False,tested,Dana Point,Orange County,33.47806,-117.699933,
Centralia Elementary,Danbrook Elementary,320 Danbrook Street Anaheim CA 92804-2715,8.3,ppb,True,tested,Anaheim,Orange County,33.828462,-118.008133,8.3
Saddleback Valley Unified,De Portola Elem.,"27031 Preciados Dr, Mission Viejo, CA 92691",,,,exempt,Mission Viejo,Orange County,33.601471000000004,-117.659954,
Saddleback Valley Unified,De Portola Elementary,27031 Preciados Drive Mission Viejo CA 92691-5214,,,,not tested,Mission Viejo,Orange County,33.601471000000004,-117.659954,
Irvine Unified,Deerfield Elementary,2 Deerfield Avenue Irvine CA 92604-3048,6.89,ppb,True,tested,Irvine,Orange County,33.700131,-117.798956,8.68
Saddleback Valley Unified,Del Cerro Elementary,24382 Regina Street Mission Viejo CA 92691-4735,,,False,tested,Mission Viejo,Orange County,33.607649,-117.68104699999999,
Saddleback Valley Unified School Distict,Del Cerro Elementary School,"24382 Regina St, Mission Viejo, CA 92691",,,,exempt,Mission Viejo,Orange County,33.608416999999996,-117.68135,
Saddleback Valley Unified,Del Lago Elementary,27181 Entidad Street Mission Viejo CA 92691-1029,,,False,tested,Mission Viejo,Orange County,33.648302,-117.655106,
Saddleback Valley Unified,Del Lago Elementary,"27181 Entidad, Mission Viejo, CA 92691",,,,exempt,Mission Viejo,Orange County,33.6473,-117.656948,
Saddleback Valley Unified,Del Lago Elementary,"27181 Entidad, Mission Viejo, CA 92691",,,,exempt,Mission Viejo,Orange County,33.6473,-117.656948,
Saddleback Valley Unified,Del Lago Elementary,"27181 Entidad, Mission Viejo, CA 92691",,,,exempt,Mission Viejo,Orange County,33.6473,-117.656948,
Saddleback Valley Unified,Del Lago Elementary,"27181 Entidad, Mission Viejo, CA 92691",,,,exempt,Mission Viejo,Orange County,33.6473,-117.656948,
Capistrano Unified,Del Obispo Elementary,25591 Camino del Avion San Juan Capistrano CA 92675-4328,,,,not tested,San Juan Capistrano,Orange County,33.487896,-117.68016200000001,
Private,Del Sol School,5340 Myra Avenue Cypress CA 90630,,,False,tested,Cypress,Orange County,33.814869,-118.039971,
Westminster,Demille Elementary,15400 Van Buren Midway City CA 92655-1660,5.2,ppb,True,tested,Midway City,Orange County,33.739481,-117.98580700000001,5.2
Santa Ana Unified,Diamond Elementary,1450 South Center Street Santa Ana CA 92704-3660,,,False,tested,Santa Ana,Orange County,33.728023,-117.89824399999999,
Capistrano Unified,Don Juan Avila Elementary,26278 Wood Canyon Drive Aliso Viejo CA 92656-8060,,,False,tested,Aliso Viejo,Orange County,33.562022,-117.734664,
Capistrano Unified,Don Juan Avila Middle,26278 Wood Canyon Dr Aliso Viejo CA 92656-8060,,,,not tested,Aliso Viejo,Orange County,33.562022,-117.734664,
Garden Grove Unified,Donald S. Jordan Intermediate,9821 Woodbury Road Garden Grove CA 92844-2835,,,False,tested,Garden Grove,Orange County,33.763659000000004,-117.939508,
Santa Ana Unified,Douglas MacArthur Fundamental Intermediate,600 West Alton Avenue Santa Ana CA 92707-4073,,,False,tested,Santa Ana,Orange County,33.704318,-117.875638,
Magnolia Elementary,Dr. Albert Schweitzer,229 South Dale Avenue Anaheim CA 92804-2006,,,False,tested,Anaheim,Orange County,33.829522,-117.98480500000001,
Magnolia Elementary,Dr. Peter Marshall,2627 Crescent Avenue Anaheim CA 92801-4902,5.3,ppb,True,tested,Anaheim,Orange County,33.839604,-117.978602,5.3
Garden Grove Unified,Dr. Walter C. Ralston Intermediate,10851 East Lampson Avenue Garden Grove CA 92840-5134,,,False,tested,Garden Grove,Orange County,33.782429,-117.94343400000001,
Garden Grove Unified,Dwight D. Eisenhower Elementary,13221 Lilly Street Garden Grove CA 92843-2156,,,False,tested,Garden Grove,Orange County,33.770614,-117.906954,
Garden Grove Unified,Earl Warren Elementary,12871 Estock Drive Garden Grove CA 92840-4205,,,False,tested,Garden Grove,Orange County,33.785421,-117.909194,
Irvine Unified,Early Childhood Learning Center,1 Smoketree Irvine CA 92604-3158,,,False,tested,Irvine,Orange County,33.684571000000005,-117.77658000000001,
Newport-Mesa Unified,Early College High,2990 Mesa Verde Drive Costa Mesa CA 92626-3636,6.0,ppb,True,tested,Costa Mesa,Orange County,33.680624,-117.92783200000001,6.0
East Whittier City Elementary,East Whittier Middle,14421 East Whittier Boulevard Whittier CA 90605-2188,,,False,tested,La Habra,Orange County,33.939116999999996,-117.94471499999999,
Newport-Mesa Unified,Eastbluff Elementary,2627 Vista del Oro Newport Beach CA 92660-3548,5.3,ppb,True,tested,Newport Beach,Orange County,33.639713,-117.882194,5.3
Irvine Unified,Eastshore Elementary,155 Eastshore Irvine CA 92604-4625,6.539999999999999,ppb,True,tested,Irvine,Orange County,33.677960999999996,-117.79023000000001,7.81
Westminster,Eastwood Elementary,13552 University Westminster CA 92683-2770,,,False,tested,Westminster,Orange County,33.765436,-118.035953,
Anaheim Elementary,Edison (Thomas) Elementary,1526 East Romneya Drive Anaheim CA 92805-1214,,,False,tested,Anaheim,Orange County,33.850807,-117.89582800000001,
Huntington Beach Union High,Edison High,21400 Magnolia Huntington Beach CA 92646-6306,,,False,tested,Huntington Beach,Orange County,33.665034999999996,-117.97121299999999,
Santa Ana Unified,Edward B. Cole Academy,333 East Walnut Street Santa Ana CA 92701-5928,,,False,tested,Santa Ana,Orange County,33.744509,-117.86463,
Garden Grove Unified,Edward Russell Elementary,600 South Jackson Street Santa Ana CA 92704-1457,,,False,tested,Santa Ana,Orange County,33.739862,-117.915791,
Placentia-Yorba Linda Unified,El Camino Real Continuation High,1351 East Orangethorpe Avenue Placentia CA 92870-5302,,,False,tested,Placentia,Orange County,33.868249,-117.838334,
Irvine Unified,El Camino Real Elementary,4782 Karen Ann Ln Irvine CA 92604,,,False,tested,Irvine,Orange County,33.696585,-117.779684,
La Habra City Elementary,El Cerrito Elementary,1051 North Hillside La Habra CA 90631-2820,,,False,tested,La Habra,Orange County,33.941839,-117.94890900000001,
Placentia-Yorba Linda Unified,El Dorado High,1651 North Valencia Avenue Placentia CA 92870-3030,,,False,tested,Placentia,Orange County,33.891816,-117.85498600000001,
Orange Unified,El Modena High,3920 Spring Street Orange CA 92869-3599,,,False,tested,,Orange County,33.791361,-117.80132900000001,
Laguna Beach Unified,El Morro Elementary,"8681 N Coast Hwy, Laguna Beach, CA 92651",,,,exempt,Laguna Beach,Orange County,33.5481,-117.79936299999999,
Laguna Beach Unified,El Morro Elementary,8681 North Coast Highway Laguna Beach CA 92651-1032,,,,not tested,Laguna Beach,Orange County,33.5481,-117.79936299999999,
Lowell Joint,El Portal Elementary,200 North Nada Street La Habra CA 90631-4451,,,False,tested,La Habra,Orange County,33.933824,-117.96601799999999,
Orange Unified,El Rancho Charter,181 South Del Giorgio Road Anaheim CA 92808-1307,,,False,tested,Anaheim,Orange County,33.857729,-117.767982,
Santa Ana Unified,El Sol Santa Ana Science and Arts Academy,1010 North Broadway Street Santa Ana CA 92701-3408,,,,not tested,Santa Ana,Orange County,33.753778999999994,-117.869993,
Saddleback Valley Unified,El Toro High,25255 Toledo Way Lake Forest CA 92630-4203,,,,not tested,Lake Forest,Orange County,33.636973,-117.687752,
Saddleback Valley Unified School Distict,El Toro High School,"25255 Toledo Way, Lake Forest, CA 92630",,,,exempt,Lake Forest,Orange County,33.636973,-117.687752,
Garden Grove Unified,Enders Elementary,12302 Springdale Street Garden Grove CA 92845-2239,,,False,tested,Garden Grove,Orange County,33.785053000000005,-118.01971699999999,
Garden Grove Unified,Ernest O. Lawrence Elementary,12521 Monroe Garden Grove CA 92841-4422,,,False,tested,Garden Grove,Orange County,33.780172,-117.987347,
Saddleback Valley Unified,Esperanza,25121 Pradera Drive Mission Viejo CA 92691-5310,,,,not tested,Mission Viejo,Orange County,33.597054,-117.667657,
Placentia-Yorba Linda Unified,Esperanza High,1830 North Kellogg Dr Anaheim CA 92807-1218,,,False,tested,Anaheim,Orange County,33.869338,-117.80339099999999,
Placentia-Yorba Linda Unified,Esperanza High,1830 North Kellogg Drive Anaheim CA 92807-1218,11.0,ppb,True,tested,Anaheim,Orange County,33.869338,-117.80339099999999,11.0
Saddleback Valley Unified,Esperanza Sp. Educ.,"25121 Pradera Dr, Mission Viejo, CA 92691",,,,exempt,Mission Viejo,Orange County,33.597054,-117.667657,
Orange Unified,Esplanade Elementary,381 North Esplanade Street Orange CA 92869-2909,,,False,tested,Orange,Orange County,33.794114,-117.80843700000001,
Newport-Mesa Unified,Estancia High,2323 Placentia Avenue Costa Mesa CA 92627-3305,5.5,ppb,True,tested,Costa Mesa,Orange County,33.657616,-117.93225,5.5
Magnolia Elementary,Esther L. Walter,10802 Rustic Lane Anaheim CA  92804-6356,,,False,tested,Stanton,Orange County,33.805534,-117.97338500000001,
Magnolia Elementary,Esther L. Walter,10802 Rustic Lane Anaheim CA 92804-6356,,,False,tested,Stanton,Orange County,33.805534,-117.97338500000001,
Garden Grove Unified,Ethan B. Allen Elementary,16200 Bushard Street Fountain Valley CA 92708-1505,,,False,tested,Fountain Valley,Orange County,33.715969,-117.963197,
Huntington Beach City Elementary,Ethel Dwyer Middle,1502 Palm Avenue Huntington Beach CA 92648-4007,,,False,tested,Huntington Beach,Orange County,33.668873,-118.005581,
Garden Grove Unified,Ethel M. Evans Elementary,12281 Nelson Street Garden Grove CA 92840-3205,,,False,tested,Garden Grove,Orange County,33.785788000000004,-117.94561000000002,
Newport-Mesa Unified,Everett A. Rea Elementary,661 Hamilton Street Costa Mesa CA 92627-2678,,,False,tested,Costa Mesa,Orange County,33.650618,-117.926249,
Garden Grove Unified,Excelsior Elementary,10421 Woodbury Road Garden Grove CA 92843-3277,,,False,tested,Garden Grove,Orange County,33.763687,-117.94792,
Orange Unified,Fairhaven Elementary,1415 East Fairhaven Avenue Santa Ana CA 92705-6822,,,False,tested,Santa Ana,Orange County,33.773795,-117.849999,
Placentia-Yorba Linda Unified,Fairmont Elementary,5241 Fairmont Boulevard Yorba Linda CA 92886-4400,,,False,tested,Yorba Linda,Orange County,33.88745,-117.79038,
Garden Grove Unified,Faylane Elementary,11731 Morrie Lane Garden Grove CA 92840-1906,,,False,tested,Garden Grove,Orange County,33.79182,-117.95281200000001,
Fullerton Elementary,Fern Drive Elementary,1400 West Fern Drive Fullerton CA 92833-2331,,,False,tested,Fullerton,Orange County,33.879717,-117.95095900000001,
Westminster,Finley Elementary,13521 Edwards Street Westminster CA 92683-2502,,,False,tested,Westminster,Orange County,33.762005,-118.016049,
Orange Unified,Fletcher Elementary,515 West Fletcher Street Orange CA 92865-2521,8.22,ppb,True,tested,Orange,Orange County,33.829874,-117.85738799999999,9.59
Tustin Unified,Foothill High,19251 Dodge Avenue Santa Ana CA 92705-2236,,,False,tested,Santa Ana,Orange County,33.766807,-117.797529,
Saddleback Valley Unified,Foothill Ranch Elementary,1 Torino Drive Foothill Ranch CA 92691-3142,,,,not tested,Lake Forest,Orange County,33.682052,-117.661726,
Saddleback Valley Unified School Distict,Foothill Ranch Elementary School,"1 Torino Dr, Foothill Ranch, CA 92610",,,,exempt,Lake Forest,Orange County,33.682052,-117.661726,
Huntington Beach Union High,Fountain Valley High,17816 Bushard Fountain Valley CA 92708-4598,,,False,tested,Fountain Valley,Orange County,33.705789,-117.960559,
Los Alamitos Unified,Francis Hopkinson Elementary,12582 Kensington Road Los Alamitos CA 90720-4749,,,False,tested,,Orange County,33.799018,-118.08260600000001,
Cypress Elementary,Frank Vessels Elementary,5900 Cathy Ave Cypress CA 90630-4615,9.9,ppb,True,tested,Cypress,Orange County,33.811659999999996,-118.03009099999998,9.9
Anaheim Elementary,Franklin (Benjamin) Elementary,521 West Water Street Anaheim CA 92805-4542,,,False,tested,Anaheim,Orange County,33.8276,-117.91771000000001,
Santa Ana Unified,Franklin Elementary,210 West Cubbon Santa Ana CA 92701-5649,,,False,tested,Santa Ana,Orange County,33.735594,-117.869561,
Santa Ana Unified,Frederick Remington Elementary,1325 East Fourth Street Santa Ana CA 92701-5111,,,False,tested,Santa Ana,Orange County,33.748558,-117.85105,
Santa Ana Unified,Fremont Elementary,1930 West 10th Street Santa Ana CA 92703-2045,,,False,tested,Santa Ana,Orange County,33.75333,-117.895924,
Westminster,Fryberger Elementary,6952 Hood Drive Westminster CA 92683-2122,5.1,ppb,True,tested,Westminster,Orange County,33.771228,-118.010225,5.1
Fullerton Joint Union High,Fullerton School District Nutrition Center,389 W Truslow Fullerton CA 92832,12.0,ppb,True,tested,Fullerton,Orange County,33.867364,-117.93063300000001,12.0
Fullerton Joint Union High,Fullerton Union High,201 East Chapman Avenue Fullerton CA 92832-1925,,,False,tested,Fullerton,Orange County,33.874068,-117.92194599999999,
Fountain Valley Elementary,Fulton (Harry C.) Middle,8778 El Lago Street Fountain Valley CA 92708-4320,,,False,tested,Fountain Valley,Orange County,33.705379,-117.97592399999999,
Garden Grove Unified,Garden Grove High,11271 Stanford Avenue Garden Grove CA 92840-5317,,,False,tested,Garden Grove,Orange County,33.777936,-117.93558300000001,
Garden Grove Unified,Garden Park Elementary,6562 Stanford Avenue Garden Grove CA 92845-2243,,,False,tested,Garden Grove,Orange County,33.777645,-118.01825,
Santa Ana Unified,Garfield Elementary,850 East Brown Street Santa Ana CA 92701-3902,,,False,tested,Santa Ana,Orange County,33.74944,-117.86028700000001,
Anaheim Elementary,Gauer (Melbourne A.) Elementary,810 North Gilbert Street Anaheim CA 92801-3348,,,False,tested,Anaheim,Orange County,33.843368,-117.967693,
Garden Grove Unified,Genevieve M. Crosby Elementary,12181 West Street Garden Grove CA 92840-3803,,,False,tested,Garden Grove,Orange County,33.786113,-117.923795,
Centralia Elementary,George B. Miller Elementary,7751 Furman Road La Palma CA 90623-1536,,,,not tested,La Palma,Orange County,33.850226,-118.033051,
Placentia-Yorba Linda Unified,George Key,710 East Golden Avenue Placentia CA 92870-1635,,,False,tested,Placentia,Orange County,33.903294,-117.85268,
Santa Ana Unified,George Washington Carver Elementary,1401 West Santa Ana Boulevard Santa Ana CA 92703-3708,,,False,tested,Santa Ana,Orange County,33.747948,-117.886921,
Capistrano Unified,George White Elementary,25422 Chapparosa Park Drive Laguna Niguel CA 92677-5715,,,,not tested,Laguna Niguel,Orange County,33.516047,-117.68574199999999,
Santa Ana Unified,Gerald P. Carr Intermediate,2120 West Edinger Street Santa Ana CA 92704-4106,,,False,tested,Santa Ana,Orange County,33.726928,-117.897117,
Garden Grove Unified,Gilbert Elementary,9551 Orangewood Avenue Garden Grove CA 92841-1737,,,False,tested,Garden Grove,Orange County,33.795891999999995,-117.966575,
Anaheim Union High,Gilbert High (Continuation),1800 Ball Road Anaheim CA 92804-5516,,,False,tested,Anaheim,Orange County,33.817658,-117.968255,
Fountain Valley Elementary,Gisler (Robert) Elementary,18720 Las Flores Street Fountain Valley CA 92708-7113,,,False,tested,Fountain Valley,Orange County,33.693843,-117.94974099999999,
Centralia Elementary,Glen H. Dysinger Sr. Elementary,7770 Camellia Drive Buena Park CA 90620-2152,,,False,tested,Buena Park,Orange County,33.850449,-117.99176299999999,
Saddleback Valley Unified,Glen Yermo Elementary,26400 Trabuco Road Mission Viejo CA 92691-1999,,,,not tested,Mission Viejo,Orange County,33.613253,-117.65685500000001,
Saddleback Valley Unified,Glen Yermo.,"26400 Trabuco Rd, Mission Viejo, CA 92691",,,,exempt,Mission Viejo,Orange County,33.613253,-117.65685500000001,
Placentia-Yorba Linda Unified,Glenknoll Elementary,6361 Glenknoll Drive Yorba Linda CA 92886-6416,,,False,tested,Yorba Linda,Orange County,33.869374,-117.788253,
Placentia-Yorba Linda Unified,Glenview Elementary,1775 Glenview Avenue Anaheim CA 92807-1040,,,False,tested,Anaheim,Orange County,33.868871999999996,-117.81266399999998,
Anaheim Elementary,GOALS Academy,412 W. Carl Karcher Way Anaheim CA 92801-2408,,,False,tested,Anaheim,Orange County,33.850737,-117.92299299999999,
Placentia-Yorba Linda Unified,Golden Elementary,740 East Golden Avenue Placentia CA 92870-1635,,,False,tested,Placentia,Orange County,33.903763,-117.85463200000001,
Fullerton Elementary,Golden Hill Elementary,732 Barris Drive Fullerton CA 92832-1002,,,False,tested,Fullerton,Orange County,33.878407,-117.939384,
Ocean View,Golden View Elementary,17251 Golden View Lane Huntington Beach CA 92647-5664,,,False,tested,Huntington Beach,Orange County,33.711581,-118.010797,
Santa Ana Unified,Gonzalo Felicitas Mendez Fundamental Intermediate,2000 North Bristol Santa Ana CA 92706-2451,,,False,tested,Santa Ana,Orange County,33.762477000000004,-117.88668,
Buena Park Elementary,Gordon H. Beatty Elementary,8201 Country Club Drive Buena Park CA 90621-1529,,,False,tested,Buena Park,Orange County,33.883937,-117.988927,
Private,Grace Lutheran School,5172 McFadden Avenue Huntington Beach CA 92649,,,False,tested,Huntington Beach,Orange County,33.736183000000004,-118.03846000000001,
Irvine Unified,Greentree Elementary,4200 Manzanita Irvine CA 92604-2711,,,False,tested,Irvine,Orange County,33.698263,-117.78911000000001,
Santa Ana Unified,Greenville Fundamental Elementary,3600 South Raitt Street Santa Ana CA 92704-7531,,,False,tested,Santa Ana,Orange County,33.699013,-117.89917700000001,
Tustin Unified,Guin Foss Elementary,18492 Vanderlip Avenue Santa Ana CA 92705-3242,,,False,tested,Santa Ana,Orange County,33.75588,-117.81105,
Anaheim Elementary,Guinn (James M.) Elementary,1051 South Sunkist Street Anaheim CA 92806-5051,,,False,tested,Anaheim,Orange County,33.823452,-117.880652,
Orange Unified,Handy Elementary,860 North Handy Street Orange CA 92867-7243,7.59,ppb,True,tested,Orange,Orange County,33.801262,-117.828621,7.59
Savanna Elementary,Hansen Elementary,1300 South Knott Anaheim CA 92804-4711,,,False,tested,Anaheim,Orange County,33.815393,-118.009993,
Orange County Department of Education,Harbor Learning Center,15872 Harbor Boulevard Fountain Valley CA 92708,,,False,tested,Fountain Valley,Orange County,33.731936,-117.91903500000001,
Newport-Mesa Unified,Harbor View Elementary,900 Goldenrod Avenue Corona Del Mar CA 92625-1503,,,False,tested,Newport Beach,Orange County,33.603728000000004,-117.869954,
Ocean View,Harbour View Elementary,4343 Pickwick Circle Huntington Beach CA 92649-3108,5.5,ppb,True,tested,Huntington Beach,Orange County,33.720712,-118.05219699999999,5.5
Capistrano Unified,Harold Ambuehl Elementary,28001 San Juan Creek Road San Juan Capistrano CA 92675-3321,,,,not tested,San Juan Capistrano,Orange County,33.503529,-117.645226,
Newport-Mesa Unified,Harper,425 East 18th Street Costa Mesa CA 92627-3161,,,False,tested,Costa Mesa,Orange County,33.632002,-117.90718700000001,
Santa Ana Unified,Hector G. Godinez,3002 Centennial Road Santa Ana CA 92704-3904,,,False,tested,Santa Ana,Orange County,33.723061,-117.909503,
Private,Heights Christian School / Brea,200 South Associated Road Brea CA 92821,,,False,tested,Brea,Orange County,33.917260999999996,-117.87603500000002,
Newport-Mesa Unified,Heinz Kaiser Elementary,2130 Santa Ana Avenue Costa Mesa CA 92627-1826,,,False,tested,Costa Mesa,Orange County,33.644801,-117.903576,
Tustin Unified,Helen Estock Elementary,14741 North B Street Tustin CA 92780-2529,,,False,tested,Tustin,Orange County,33.750111,-117.82571399999999,
Westminster,Helen Stacey Middle,6311 Larchwood Drive Huntington Beach CA 92647-2320,,,,not tested,Huntington Beach,Orange County,33.747037,-118.02041799999999,
Anaheim Elementary,Henry (Patrick) Elementary,1123 West Romneya Drive Anaheim CA 92801-2109,,,False,tested,Anaheim,Orange County,33.850844,-117.933081,
Garden Grove Unified,Heritage Elementary,426 South Andres Place Santa Ana CA 92704-1123,,,False,tested,Santa Ana,Orange County,33.740718,-117.931575,
Tustin Unified,Heritage Elementary,15400 Lansdowne Rd. Tustin CA 92782,,,False,tested,Tustin,Orange County,33.718208000000004,-117.828946,
Fullerton Elementary,Hermosa Drive Elementary,400 East Hermosa Drive Fullerton CA 92835-1654,,,False,tested,Fullerton,Orange County,33.910129,-117.925059,
Santa Ana Unified,Heroes Elementary,1111 Civic Center Drive Santa Ana CA 92703-2229,,,False,tested,Santa Ana,Orange County,33.751692999999996,-117.88241399999998,
Tustin Unified,Hewes Middle,13232 Hewes Avenue Santa Ana CA 92705-2246,5.6,ppb,True,tested,Santa Ana,Orange County,33.77049,-117.804993,5.6
Tustin Unified,Hicks Canyon Elementary,3817 Viewpark Irvine CA 92602-2036,7.52,ppb,True,tested,Irvine,Orange County,33.728221000000005,-117.77350200000001,7.52
Capistrano Unified,Hidden Hills Elementary,25142 Hidden Hills Road Laguna Niguel CA 92677-8894,,,,not tested,Laguna Niguel,Orange County,33.52883,-117.68743,
Tustin Unified,Hillview High (Continuation),1151 San Juan Street Tustin CA 92780-4629,,,False,tested,Tustin,Orange County,33.739984,-117.81611799999999,
Garden Grove Unified,Hilton D. Bell Intermediate,12345 Springdale Street Garden Grove CA 92845-2238,,,False,tested,Garden Grove,Orange County,33.785548999999996,-118.01991100000001,
Savanna Elementary,Holder Elementary,9550 Holder Street Buena Park CA 90620-4209,,,False,tested,Buena Park,Orange County,33.823547999999995,-118.01825600000001,
Santa Ana Unified,Hoover Elementary,408 East Santa Clara Avenue Santa Ana CA 92706-2957,,,False,tested,Santa Ana,Orange County,33.7659,-117.86328600000002,
Anaheim Union High,Hope,7901 Knott Avenue Buena Park CA 90620-2469,7.3,ppb,True,tested,Buena Park,Orange County,33.8614,-118.011197,7.3
Ocean View,Hope View Elementary,17622 Flintstone Lane Huntington Beach CA 92647-6413,5.2,ppb,True,tested,Huntington Beach,Orange County,33.706298,-118.019392,5.2
Newport-Mesa Unified,Horace Ensign Intermediate,2000 Cliff Drive Newport Beach CA 92663-5223,,,False,tested,Newport Beach,Orange County,33.619345,-117.915892,
Huntington Beach Union High,Huntington Beach High,1905 Main Street Huntington Beach CA 92648-2705,,,False,tested,Huntington Beach,Orange County,33.675358,-118.00185900000001,
Private,Huntington Christian,9700 Levee Drive Huntington Beach CA 92646,,,False,tested,Huntington Beach,Orange County,33.660993,-117.958491,
Huntington Beach City Elementary,Huntington Seacliff Elementary,6701 Garfield Avenue Huntington Beach CA 92648-1510,,,False,tested,Huntington Beach,Orange County,33.686671999999994,-118.01134499999999,
Orange Unified,Imperial Elementary,400 South Imperial Highway Anaheim CA 92807-3946,,,False,tested,Anaheim,Orange County,33.849109999999996,-117.79009599999999,
La Habra City Elementary,Imperial Middle,1450 South Schoolwood Drive La Habra CA 90631-7276,5.4,ppb,True,tested,La Habra,Orange County,33.914458,-117.953396,5.4
Imperial Valley ROP,Imperial Valley ROP,687 State Street El Centro CA 92243-2943,,,,not tested,Newport Beach,Orange County,33.611214000000004,-117.914601,
Santa Ana Unified,Independent Study Program,2802 S Flower St Santa Ana CA 92707,,,,not tested,Santa Ana,Orange County,33.709076,-117.876935,
Irvine Unified,Irvine Adult Transition Programs,311 West Yale Loop Irvine CA 92604-4736,6.79,ppb,True,tested,Irvine,Orange County,33.682122,-117.806096,6.79
Irvine Unified,Irvine High,4321 Walnut Avenue Irvine CA 92604-2239,,,False,tested,Irvine,Orange County,33.701744,-117.78348100000001,
Huntington Beach City Elementary,Isaac L. Sowers Middle,9300 Indianapolis Avenue Huntington Beach CA 92646-5900,,,False,tested,Huntington Beach,Orange County,33.664936,-117.966903,
Garden Grove Unified,Izaak Walton Intermediate,12181 Buaro Street Garden Grove CA 92840-3924,,,False,tested,Garden Grove,Orange County,33.786945,-117.919315,
Los Alamitos Unified,J. H. McGaugh Elementary,1698 Bolsa Avenue Seal Beach CA 90740-6212,,,False,tested,Seal Beach,Orange County,33.744938,-118.09374299999999,
Los Alamitos Unified,Jack L. Weaver Elementary,11872 Wembley Road Los Alamitos CA 90720-2200,,,False,tested,,Orange County,33.798179,-118.08223100000001,
Buena Park Elementary,James A. Whitaker Elementary,8401 Montana Street Buena Park CA 90621-3629,,,False,tested,Buena Park,Orange County,33.862525,-117.98641599999999,
Garden Grove Unified,James Irvine Intermediate,10552 Hazard Avenue Garden Grove CA 92843-5109,,,False,tested,Orange,Orange County,33.752225,-117.945297,
Garden Grove Unified,James Monroe Elementary,16225 Newhope Street Fountain Valley CA 92708-1703,,,False,tested,Fountain Valley,Orange County,33.727865,-117.928671,
Tustin Unified,Jeane Thorman Elementary,1402 Sycamore Avenue Tustin CA 92780-6233,,,False,tested,Orange,Orange County,33.727177000000005,-117.826807,
Anaheim Elementary,Jefferson (Thomas) Elementary,504 East South Street Anaheim CA 92805-5338,,,False,tested,Anaheim,Orange County,33.827811,-117.90590300000001,
Santa Ana Unified,Jefferson Elementary,1522 West Adams Street Santa Ana CA 92704-5798,,,False,tested,Santa Ana,Orange County,33.711933,-117.891153,
Irvine Unified,Jeffrey Trail Middle,155 Visions Irvine CA 92620-3682,,,False,tested,Irvine,Orange County,33.693661,-117.761825,
Westminster,Jessie Hayden Elementary,14782 Eden Street Midway City CA 92655-1108,,,False,tested,Midway City,Orange County,33.747779,-117.97592399999999,
Santa Ana Unified,Jim Thorpe Fundamental,2450 West Alton Santa Ana CA 92704-7118,,,False,tested,Santa Ana,Orange County,33.702709999999996,-117.90233500000001,
Santa Ana Unified,John F. Kennedy Elementary,1300 East McFadden Santa Ana CA 92705-4104,,,False,tested,Santa Ana,Orange County,33.732459000000006,-117.853721,
Anaheim Union High,John F. Kennedy High,8281 Walker Street La Palma CA 90623-2126,,,False,tested,La Palma,Orange County,33.842096999999995,-118.037233,
Huntington Beach City Elementary,John H. Eader Elementary,9291 Banning Avenue Huntington Beach CA 92646-8302,,,False,tested,Huntington Beach,Orange County,33.643346,-117.96525700000001,
Capistrano Unified,John Malcom Elementary,32261 Charles Avenue Laguna Niguel CA 92677-4258,,,,not tested,Laguna Niguel,Orange County,33.495283,-117.70783,
Garden Grove Unified,John Marshall Elementary,15791 Bushard Street Westminster CA 92683-7455,,,False,tested,Orange,Orange County,33.733259999999994,-117.96351200000001,
Santa Ana Unified,John Muir Fundamental Elementary,1951 North Mabury Santa Ana CA 92705-1854,,,False,tested,Santa Ana,Orange County,33.763325,-117.843455,
Garden Grove Unified,John Murdy Elementary,14851 Donegal Drive Garden Grove CA 92844-3237,,,False,tested,Garden Grove,Orange County,33.746928000000004,-117.96129099999999,
Placentia-Yorba Linda Unified,John O. Tynes Elementary,735 Stanford Placentia CA 92870-5117,,,False,tested,Placentia,Orange County,33.872088,-117.85605,
Huntington Beach City Elementary,John R. Peterson Elementary,20661 Farnsworth Lane Huntington Beach CA 92646-5511,,,False,tested,Huntington Beach,Orange County,33.662467,-117.984245,
Westminster,Johnson Middle,13603 Edwards Street Westminster CA 92683-3006,7.1,ppb,True,tested,Westminster,Orange County,33.764452,-118.015902,7.1
Magnolia Elementary,Jonas E. Salk,1411 South Gilbert Street Anaheim CA 92804-5230,,,False,tested,,Orange County,33.812436,-117.96769499999999,
Orange Unified,Jordan Elementary,4319 East Jordan Avenue Orange CA 92869-5431,,,False,tested,Orange,Orange County,33.780219,-117.80728899999998,
Garden Grove Unified,Jordan Secondary Learning Center,9915 Woodbury Avenue Garden Grove CA 92844-2838,,,False,tested,Garden Grove,Orange County,33.763504,-117.95691599999999,
Santa Ana Unified,Jose Sepulveda Elementary,1801 South Poplar Santa Ana CA 92704-4321,,,False,tested,Santa Ana,Orange County,33.72404,-117.887098,
Huntington Beach City Elementary,Joseph R. Perry Elementary,19231 Harding Lane Huntington Beach CA 92646-2023,,,False,tested,Huntington Beach,Orange County,33.68318,-117.982795,
Capistrano Unified,Journey,27102 Foxborough Aliso Viejo CA 92656-3377,,,False,tested,Aliso Viejo,Orange County,33.567081,-117.719505,
Anaheim Elementary,Juarez (Benito) Elementary,841 South Sunkist Street Anaheim CA 92806-4716,,,False,tested,Anaheim,Orange County,33.818577000000005,-117.88058600000001,
Santa Ana Unified,Julia C. Lathrop Intermediate,1111 South Broadway Santa Ana CA 92707-1205,,,False,tested,Santa Ana,Orange County,33.734173,-117.86971399999999,
Cypress Elementary,Juliet Morris Elementary,9952 Graham Street Cypress CA 90630-3815,5.8,ppb,True,tested,Cypress,Orange County,33.818178,-118.034526,5.8
Magnolia Elementary,Juliette Low,215 North Ventura Anaheim CA 92801-5167,,,False,tested,Anaheim,Orange County,33.833812,-117.96337199999999,
Capistrano Unified,Junipero Serra High,31422 Camino Capistrano San Juan Capistrano CA 92675-2600,,,,not tested,San Juan Capistrano,Orange County,33.505853,-117.664602,
Anaheim Union High,Katella High,2200 East Wagner Avenue Anaheim CA 92806-4999,,,False,tested,Anaheim,Orange County,33.825305,-117.889128,
Anaheim Elementary,Key (Francis Scott),2000 West Ball Road Anaheim CA 92804,9.55,ppb,True,tested,Anaheim,Orange County,33.817778999999994,-117.956423,13.0
Newport-Mesa Unified,Killybrooke Elementary,3155 Killybrooke Lane Costa Mesa CA 92626-2613,,,False,tested,Costa Mesa,Orange County,33.685753000000005,-117.91396200000001,
Huntington Beach City Elementary,Kinetic Academy,721 Utica Avenue Huntington Beach CA 92648,,,,not tested,Huntington Beach,Orange County,33.676228,-117.990108,
Capistrano Unified,Kinoshita Elementary,2 Via Positiva San Juan Capistrano CA 92675-4318,,,,not tested,San Juan Capistrano,Orange County,33.490144,-117.676717,
Placentia-Yorba Linda Unified,Kraemer Middle,645 North Angelina Drive Placentia CA 92870-5007,,,False,tested,Placentia,Orange County,33.876183000000005,-117.86484399999999,
Placentia-Yorba Linda Unified,La Entrada High,"4999 Casa Loma Ave Yorba Linda, CA CA 92886-3398",,,,not tested,Yorba Linda,Orange County,33.895311,-117.824427,
Placentia-Yorba Linda Unified,La Entrada High,4999 Casa Loma Ave Yorba Linda CA 92886-3398,,,False,tested,Yorba Linda,Orange County,33.888925,-117.824725,
Fullerton Joint Union High,La Habra High,801 West Highlander Avenue La Habra CA 90631-3720,,,False,tested,La Habra,Orange County,33.937265000000004,-117.95703999999999,
Saddleback Valley Unified,La Madera Elementary,25350 Serrano Road Lake Forest CA 92630-3599,,,,not tested,Lake Forest,Orange County,33.639925,-117.689089,
Saddleback Valley Unified School Distict,La Madera Elementary School,"25350 Serrano Rd, Lake Forest, CA 92630",,,,exempt,Lake Forest,Orange County,33.639925,-117.689089,
Saddleback Valley Unified,La Paz Inter.,"25151 Pradera Dr, Mission Viejo, CA 92691",,,,exempt,Mission Viejo,Orange County,33.597618,-117.66649699999999,
Saddleback Valley Unified,La Paz Intermediate,25151 Pradera Drive Mission Viejo CA 92691-5310,,,,not tested,Mission Viejo,Orange County,33.597618,-117.66649699999999,
Garden Grove Unified,La Quinta High,10372 McFadden Street Westminster CA 92683-7098,,,False,tested,Westminster,Orange County,33.735988,-117.94940600000001,
Fullerton Joint Union High,La Sierra High (Alternative),951 North State College Boulevard Fullerton CA 92831,,,False,tested,Fullerton,Orange County,33.886559999999996,-117.88975400000001,
Saddleback Valley Unified,La Tierra Early Childhood Center,24150 Lindley Street Mission Viejo CA 92691-3719,,,False,tested,Mission Viejo,Orange County,33.610772,-117.691402,
Saddleback Valley Unified School Distict,La Tierra Early Childhood Center,"24150 Lindley St, Mission Viejo, CA 92691",,,,exempt,Mission Viejo,Orange County,33.611581,-117.691372,
Orange Unified,La Veta Elementary,2800 East La Veta Avenue Orange CA 92869-5111,8.04,ppb,True,tested,Orange,Orange County,33.779589,-117.82381399999998,8.04
Fullerton Joint Union High,La Vista High (Continuation),909 North State College Boulevard Fullerton CA 92831-3013,,,False,tested,Fullerton,Orange County,33.878029999999995,-117.88976799999999,
Tustin Unified,Ladera Elementary,2515 Rawlings Way Tustin CA 92782-5111,,,False,tested,Tustin,Orange County,33.743449,-117.77934499999999,
La Habra City Elementary,Ladera Palma Elementary,2151 East Brookdale Avenue La Habra CA 90631-3267,,,False,tested,La Habra,Orange County,33.944012,-117.92223200000001,
Capistrano Unified,Ladera Ranch Elementary,29551 Sienna Parkway Ladera Ranch CA 92694-0789,,,False,tested,Mission Viejo,Orange County,33.55353,-117.63702099999999,
Capistrano Unified,Ladera Ranch Middle,29551 Sienna Pkwy Ladera Ranch CA 92694-0789,,,False,tested,Mission Viejo,Orange County,33.55353,-117.63702099999999,
Fullerton Elementary,Ladera Vista Junior High School of the Arts,1700 East Wilshire Drive Fullerton CA 92831-4115,,,False,tested,Fullerton,Orange County,33.871602,-117.89621799999999,
Laguna Beach Unified,Laguna Beach High,625 Park Avenue Laguna Beach CA 92651-2340,,,,not tested,Laguna Beach,Orange County,33.540372,-117.77606899999999,
Laguna Beach Unified,Laguna Beach High School,"625 Park Ave, Laguna Beach, CA 92651",,,,exempt,Laguna Beach,Orange County,33.540372,-117.77606899999999,
Saddleback Valley Unified,Laguna Hills High,25401 Paseo de Valencia Laguna Hills CA 92653-5395,,,,not tested,Laguna Hills,Orange County,33.60586,-117.70508400000001,
Saddleback Valley Unified,Laguna Hills HS,"25401 Paseo De Valencia, Laguna Hills, CA 92653",,,,exempt,Laguna Hills,Orange County,33.60586,-117.70508400000001,
Capistrano Unified,Laguna Niguel Elementary,27922 Niguel Heights Boulevard Laguna Niguel CA 92677-7204,,,,not tested,Laguna Niguel,Orange County,33.556748,-117.70451100000001,
Fullerton Elementary,Laguna Road Elementary,300 West Laguna Road Fullerton CA 92835-2504,,,False,tested,Fullerton,Orange County,33.896929,-117.932557,
Saddleback Valley Unified,Lake Forest Elementary,21801 Pittsford Drive Lake Forest CA 92630-7518,,,,not tested,Lake Forest,Orange County,33.644979,-117.671365,
Saddleback Valley Unified School Distict,Lake Forest Elementary School,"21801 Pittsford Drive, Lake Forest, CA 92630",,,,exempt,Lake Forest,Orange County,33.644979,-117.671365,
Garden Grove Unified,Lake Intermediate School,10801 Orangewood Avenue Garden Grove CA 92840-1644,,,False,tested,Garden Grove,Orange County,33.795815999999995,-117.94243200000001,
Ocean View,Lake View Elementary,17451 Zeider Lane Huntington Beach CA 92647-6361,,,False,tested,Huntington Beach,Orange County,33.708698,-117.98151100000001,
Irvine Unified,Lakeside Middle,3 Lemongrass Irvine CA 92604-3608,,,False,tested,Irvine,Orange County,33.685526,-117.795272,
Placentia-Yorba Linda Unified,Lakeview Elementary,17510 Lakeview Avenue Yorba Linda CA 92886-2381,,,False,tested,Yorba Linda,Orange County,33.886008000000004,-117.8132,
Orange Unified,Lampson Elementary,13321 Lampson Avenue Garden Grove CA 92840-6141,,,False,tested,Garden Grove,Orange County,33.782669,-117.900749,
Capistrano Unified,Las Flores Elementary,25862 Antonio Parkway Rancho Santa Margarita CA 92688-5541,,,False,tested,Rancho Santa Margarita,Orange County,33.58579,-117.62908700000001,
Capistrano Unified,Las Flores Middle,25862 Antonio Pkway Los Flores CA 92688,,,False,tested,Rancho Santa Margarita,Orange County,33.58579,-117.62908700000001,
La Habra City Elementary,Las Lomas Elementary,301 Las Lomas Drive La Habra CA 90631-7171,,,False,tested,La Habra,Orange County,33.921285,-117.947375,
Capistrano Unified,Las Palmas Elementary,1101 Calle Puente San Clemente CA 92672-5019,,,False,tested,San Clemente,Orange County,33.428657,-117.62368400000001,
La Habra City Elementary,Las Positas Elementary,1400 South Schoolwood Drive La Habra CA 90631-7276,,,False,tested,La Habra,Orange County,33.914516,-117.955288,
Brea-Olinda Unified,Laurel Elementary,200 South Flower Avenue Brea CA 92821-4944,,,False,tested,Brea,Orange County,33.916069,-117.896975,
Garden Grove Unified,Leo Carrillo Elementary,15270 Bushard Street Westminster CA 92683-6502,,,False,tested,Orange,Orange County,33.740781,-117.96341299999999,
Private,LePort Schools - Huntington Harbor,16081 Waikiki Lane Huntington Beach CA 92649,7.4,ppb,True,tested,Huntington Beach,Orange County,33.727857,-118.044407,7.4
Garden Grove Unified,Leroy L. Doig Intermediate,12752 Trask Avenue Garden Grove CA 92843-3041,,,False,tested,Garden Grove,Orange County,33.76701,-117.92434899999999,
Anaheim Union High,Lexington Junior High,4351 Orange Avenue Cypress CA 90630-2799,,,False,tested,Cypress,Orange County,33.824227,-118.057046,
Anaheim Elementary,Lincoln (Abraham) Elementary,1413 East Broadway Anaheim CA 92805-4214,,,False,tested,Anaheim,Orange County,33.836781,-117.898579,
Saddleback Valley Unified,Linda Vista Elem.,"25222 Pericia Dr, Mission Viejo, CA 92691",,,,exempt,Mission Viejo,Orange County,33.596441999999996,-117.666715,
Orange Unified,Linda Vista Elementary,1200 North Cannon Street Orange CA 92869-1303,6.15,ppb,True,tested,Orange,Orange County,33.808544,-117.79596299999999,6.17
Placentia-Yorba Linda Unified,Linda Vista Elementary,5600 South Ohio Street Yorba Linda CA 92886-5499,6.15,ppb,True,tested,Yorba Linda,Orange County,33.882690999999994,-117.805341,6.17
Newport-Mesa Unified,Lindberg School,220 23rd St. Costa Mesa CA 92627,10.9,ppb,True,tested,Costa Mesa,Orange County,33.651078999999996,-117.900384,10.9
Garden Grove Unified,Linton T. Simmons Elementary,11602 Steele Drive Garden Grove CA 92841-2121,,,False,tested,Garden Grove,Orange County,33.793591,-117.945073,
Anaheim Elementary,Loara Elementary,1601 West Broadway Anaheim CA 92802-1107,,,False,tested,Anaheim,Orange County,33.829021999999995,-117.937284,
Anaheim Union High,Loara High,1765 West Cerritos Avenue Anaheim CA 92804-6198,,,False,tested,Anaheim,Orange County,33.810109000000004,-117.90713500000001,
Tustin Unified,Loma Vista Elementary,13822 Prospect Avenue Santa Ana CA 92705-2690,5.8,ppb,True,tested,Santa Ana,Orange County,33.762159999999994,-117.819079,5.8
Saddleback Valley Unified,Lomarena Elem.,"25100 Earhart Rd, Laguna Hills, CA 92653",,,,exempt,Laguna Hills,Orange County,33.595578,-117.691131,
Saddleback Valley Unified,Lomarena Elementary,25100 Earhart Road Laguna Hills CA 92653-5257,,,,not tested,Laguna Hills,Orange County,33.595578,-117.691131,
Magnolia Elementary,Lord Baden-Powell,2911 Stonybrook Drive Anaheim CA 92804-3931,,,False,tested,Anaheim,Orange County,33.823116999999996,-118.001567,
Santa Ana Unified,Lorin Griset Academy,1915 West McFadden Santa Ana CA 92704-2902,,,False,tested,Santa Ana,Orange County,33.734946,-117.894279,
Los Alamitos Unified,Los Alamitos Elementary,10862 Bloomfield Street Los Alamitos CA 90720-2598,,,False,tested,,Orange County,33.805184999999994,-118.06318,
Los Alamitos Unified,Los Alamitos High,3591 Cerritos Avenue Los Alamitos CA 90720-2414,,,False,tested,,Orange County,33.810472,-118.07179,
Saddleback Valley Unified,Los Alisos Intermediate,25171 Moor Avenue Mission Viejo CA 92691-3099,,,False,tested,Mission Viejo,Orange County,33.616819,-117.690919,
Saddleback Valley Unified School Distict,Los Alisos Intermediate School,"25171 Moor Ave, Mission Viejo, CA 92691",,,,exempt,Mission Viejo,Orange County,33.615852000000004,-117.691308,
Garden Grove Unified,Los Amigos High,16566 Newhope Street Fountain Valley CA 92708-2403,,,False,tested,Fountain Valley,Orange County,33.721861,-117.92629,
Centralia Elementary,Los Coyotes Elementary,8122 Moody Street La Palma CA 90623-2046,,,,not tested,La Palma,Orange County,33.844713,-118.046049,
Garden Grove Unified,Louis G. Zeyen Elementary,12081 South Magnolia Street Garden Grove CA 92841-3314,,,False,tested,Anaheim,Orange County,33.803115999999996,-117.97563500000001,
Santa Ana Unified,Lowell Elementary,700 South Flower Street Santa Ana CA 92703-4896,,,False,tested,Santa Ana,Orange County,33.738708,-117.87705600000001,
Garden Grove Unified,Loyal Barker Elementary,12565 Springdale Street Garden Grove CA 92845-2841,,,False,tested,Garden Grove,Orange County,33.780172,-118.02004199999999,
Santa Ana Unified,Lydia Romero-Cruz Elementary,1512 West Santa Ana Boulevard Santa Ana CA 92703-3603,,,False,tested,Santa Ana,Orange County,33.747457,-117.88861100000001,
Buena Park Elementary,Mabel L. Pendleton Elementary,7101 Stanton Avenue Buena Park CA 90621-3825,5.9,ppb,True,tested,Buena Park,Orange County,33.857673,-117.994675,5.9
Placentia-Yorba Linda Unified,Mabel M. Paine Elementary,4444 Plumosa Drive Yorba Linda CA 92886-2399,,,False,tested,Yorba Linda,Orange County,33.896833,-117.81581200000001,
Lowell Joint,Macy Elementary,2301 West Russell Street La Habra CA 90631-2473,,,False,tested,La Habra,Orange County,33.944796000000004,-117.97188600000001,
Anaheim Elementary,Madison (James) Elementary,1510 South Nutwood Street Anaheim CA 92804-6023,,,False,tested,Anaheim,Orange County,33.81029,-117.950235,
Santa Ana Unified,Madison Elementary,1124 East Hobart Street Santa Ana CA 92707-1999,,,False,tested,Santa Ana,Orange County,33.729465000000005,-117.857076,
Anaheim Union High,Magnolia High,2450 West Ball Road Anaheim CA 92804-5298,,,False,tested,Anaheim,Orange County,33.817723,-117.970432,
Garden Grove Unified,Mamie L. Northcutt Elementary,11303 Sandstone Street Fountain Valley CA 92708-3025,,,False,tested,Fountain Valley,Orange County,33.71901,-117.931646,
Anaheim Elementary,Mann (Horace) Elementary,600 West La Palma Avenue Anaheim CA 92801-2361,,,False,tested,Anaheim,Orange County,33.847171,-117.91191,
Santa Ana Unified,Manuel Esqueda Elementary,2240 South Main Street Santa Ana CA 92707-3264,,,False,tested,Santa Ana,Orange County,33.697065,-117.86816999999999,
Fullerton Elementary,Maple Elementary,244 East Valencia Drive Fullerton CA 92832-2440,,,False,tested,Fullerton,Orange County,33.866156,-117.92108700000001,
Capistrano Unified,Marblehead Elementary,2410 Via Turqueza San Clemente CA 92673-3912,,,False,tested,San Clemente,Orange County,33.450697,-117.620401,
Capistrano Unified,Marco Forster Middle,25601 Camino del Avion San Juan Capistrano CA 92675-4330,,,,not tested,San Juan Capistrano,Orange County,33.489838,-117.67950900000001,
Private,Mardan School of Educational Therapy,1 Osborn Street Irvine CA 92604,,,False,tested,Irvine,Orange County,33.674712,-117.791529,
Cypress Elementary,Margaret Landell Elementary,9739 Denni Street Cypress CA 90630-3447,,,,not tested,Cypress,Orange County,33.819769,-118.05452700000001,
Capistrano Unified,Marian Bergeson Elementary,25302 Rancho Niguel Road Laguna Niguel CA 92677-7300,,,,not tested,Laguna Niguel,Orange County,33.553008,-117.68821799999999,
Garden Grove Unified,Marie L. Hare High,12012 Magnolia Street Garden Grove CA 92841-1644,14.3,ppb,True,tested,Garden Grove,Orange County,33.78817,-117.97533200000001,14.3
Huntington Beach Union High,Marina High,15871 Springdale Street Huntington Beach CA 92649-1727,,,False,tested,Huntington Beach,Orange County,33.730771999999995,-118.024185,
Ocean View,Marine View Middle,5682 Tilburg Drive Huntington Beach CA 92649-4699,6.1,ppb,True,tested,Huntington Beach,Orange County,33.710260999999996,-118.02941499999999,6.1
Newport-Mesa Unified,Mariners Elementary,2100 Mariners Drive Newport Beach CA 92660-4633,,,False,tested,Newport Beach,Orange County,33.630623,-117.90486499999999,
Brea-Olinda Unified,Mariposa Elementary,1111 West Mariposa Drive Brea CA 92821-2599,,,False,tested,Brea,Orange County,33.935145,-117.896934,
Tustin Unified,Marjorie Veeh Elementary,1701 San Juan Street Tustin CA 92780-5204,,,False,tested,Tustin,Orange County,33.735316999999995,-117.809395,
Garden Grove Unified,Mark Twain Special Center,11802 Loara Street Garden Grove CA 92840-2324,,,False,tested,Garden Grove,Orange County,33.791046,-117.936769,
Anaheim Elementary,Marshall (John) Elementary,2066 Falmouth Avenue Anaheim CA 92801-1751,,,False,tested,Anaheim,Orange County,33.848289,-117.95045,
Santa Ana Unified,Martin Elementary,939 West Wilshire Santa Ana CA 92707-1142,,,False,tested,Santa Ana,Orange County,33.731592,-117.87821299999999,
Santa Ana Unified,Martin Luther King Jr. Elementary,1001 South Graham Lane Santa Ana CA 92703-4726,,,False,tested,Santa Ana,Orange County,33.735128,-117.88689199999999,
Santa Ana Unified,Martin R. Heninger Elementary,417 West Walnut Street Santa Ana CA 92701-5562,,,False,tested,Santa Ana,Orange County,33.744877,-117.871756,
Fountain Valley Elementary,Masuda (Kazuo) Middle,17415 Los Jardines West Fountain Valley CA 92708-4846,5.6,ppb,True,tested,Fountain Valley,Orange County,33.709297,-117.94338,5.6
Magnolia Elementary,Mattie Lou Maxwell,2613 West Orange Avenue Anaheim CA 92804-3201,,,False,tested,Anaheim,Orange County,33.826245,-117.977028,
Newport-Mesa Unified,Maude B. Davis Elementary,1050 Arlington Drive Costa Mesa CA 92626-5626,,,False,tested,Costa Mesa,Orange County,33.668952000000004,-117.90606000000001,
Santa Ana Unified,McFadden Intermediate,2701 South Raitt Santa Ana CA 92704-5599,,,False,tested,Santa Ana,Orange County,33.710812,-117.89530900000001,
Orange Unified,McPherson Magnet,333 South Prospect Street Orange CA 92869-4825,,,False,tested,Orange,Orange County,33.783685,-117.81716899999999,
Irvine Unified,Meadow Park Elementary,50 Blue Lake South Irvine CA 92614-5472,,,False,tested,Irvine,Orange County,33.671206,-117.80903500000001,
Westminster,Meairs Elementary,8441 Trask Avenue Garden Grove CA 92844-1811,,,,not tested,Garden Grove,Orange County,33.766675,-117.973274,
Westminster,Meairs Elementary School,"8441 Trask Ave, Garden Grove, CA 92844",,,,exempt,Garden Grove,Orange County,33.766675,-117.973274,
Saddleback Valley Unified,Melinda Heights Elementary,"21001 Rancho Trabuco, Rancho Santa Margarita, CA 92688",,,,exempt,Rancho Santa Margarita,Orange County,33.65592,-117.61458400000001,
Saddleback Valley Unified,Melinda Heights Elementary,"21001 Rancho Trabuco, Rancho Santa Margarita, CA 92688",,,,exempt,Rancho Santa Margarita,Orange County,33.65592,-117.61458400000001,
Saddleback Valley Unified,Melinda Heights Elementary,"21001 Rancho Trabuco, Rancho Santa Margarita, CA 92688",,,,exempt,Rancho Santa Margarita,Orange County,33.65592,-117.61458400000001,
Saddleback Valley Unified,Melinda Heights Elementary,"21001 Rancho Trabuco, Rancho Santa Margarita, CA 92688",,,,exempt,Rancho Santa Margarita,Orange County,33.65592,-117.61458400000001,
Saddleback Valley Unified,Melinda Heights Elementary,21001 Rancho Trabuco Rancho Santa Margarita CA 92688-3444,,,False,tested,Rancho Santa Margarita,Orange County,33.657527,-117.614423,
Placentia-Yorba Linda Unified,Melrose Elementary,974 South Melrose Street Placentia CA 92870-7117,,,False,tested,Placentia,Orange County,33.85892,-117.87363300000001,
Garden Grove Unified,Merton E. Hill Elementary,9681 11th Street Garden Grove CA 92844-3101,,,False,tested,Garden Grove,Orange County,33.754099,-117.960117,
Ocean View,Mesa View Middle,17601 Avilla Lane Huntington Beach CA 92647-6612,,,False,tested,Huntington Beach,Orange County,33.706317999999996,-118.01071100000001,
Santa Ana Unified,Middle College High,1530 West 17th Street Santa Ana CA 92706-3398,,,,not tested,Santa Ana,Orange County,33.759964000000004,-117.89000700000001,
Saddleback Valley Unified,Mission Viejo High,25025 Chrisanta Drive Mission Viejo CA 92691-5326,,,,not tested,Mission Viejo,Orange County,33.599402000000005,-117.67186000000001,
Saddleback Valley Unified,Mission Viejo HS,"25025 Chrisanta Dr, Mission Viejo, CA 92691",,,,exempt,Mission Viejo,Orange County,33.599402000000005,-117.67186000000001,
Santa Ana Unified,Mitchell Child Development,3001 West Harvard Santa Ana CA 92704-3913,,,False,tested,Santa Ana,Orange County,33.720647,-117.909224,
Santa Ana Unified,Monroe Elementary,417 East Central Avenue Santa Ana CA 92707-3501,,,False,tested,Santa Ana,Orange County,33.713992,-117.86393100000001,
Santa Ana Unified,Monte Vista Elementary,2116 West Monta Vista Avenue Santa Ana CA 92704-2826,,,False,tested,Santa Ana,Orange County,33.737595,-117.896825,
Private,Montessori of Brea Inc.,701 Mulberry Avenue Brea CA 92821,,,False,tested,Brea,Orange County,33.9106,-117.90730900000001,
Saddleback Valley Unified,Montevideo Elem.,"24071 Carrillo, Mission Viejo, CA 92691",,,,exempt,Mission Viejo,Orange County,33.613166,-117.667381,
Saddleback Valley Unified,Montevideo Elementary,24071 Carrillo Drive Mission Viejo CA 92691-4222,,,,not tested,Mission Viejo,Orange County,33.613166,-117.667381,
Garden Grove Unified,Morningside Elementary,10521 Morningside Drive Garden Grove CA 92843-4810,,,False,tested,Garden Grove,Orange County,33.75649,-117.946398,
Placentia-Yorba Linda Unified,Morse Avenue Elementary,431 East Morse Avenue Placentia CA 92870-3413,,,False,tested,Placentia,Orange County,33.884355,-117.85943600000002,
Capistrano Unified,Moulton Elementary,29851 Highlands Avenue Laguna Niguel CA 92677-2008,,,False,tested,Laguna Niguel,Orange County,33.526064,-117.720891,
Tustin Unified,Myford Elementary,3181 Trevino Drive Irvine CA 92602-0795,,,False,tested,Tustin,Orange County,33.735679,-117.775899,
Capistrano Unified,Newhart Middle,25001 Veterans Way Mission Viejo CA 92692-2735,,,False,tested,Mission Viejo,Orange County,33.6,-117.64998,
Garden Grove Unified,Newhope Elementary,4419 West Regent Drive Santa Ana CA 92704-2245,,,False,tested,Santa Ana,Orange County,33.732195000000004,-117.927151,
Fountain Valley Elementary,Newland (William T.) Elementary,8787 Dolphin Street Huntington Beach CA 92646-3218,,,,not tested,Huntington Beach,Orange County,33.67667,-117.974792,
Newport-Mesa Unified,Newport Coast Elementary,6655 Ridge Park Road Newport Beach CA 92657-1232,,,False,tested,Newport Beach,Orange County,33.606851,-117.82932199999999,
Newport-Mesa Unified,Newport Elementary,1327 West Balboa Boulevard Newport Beach CA 92661-1043,,,False,tested,Newport Beach,Orange County,33.606584999999995,-117.91803700000001,
Newport-Mesa Unified,Newport Harbor High,600 Irvine Avenue Newport Beach CA 92663-5412,,,False,tested,Newport Beach,Orange County,33.622894,-117.914068,
Newport-Mesa Unified,Newport Heights Elementary,300 East 15th Street Newport Beach CA 92663-4840,6.15,ppb,True,tested,Newport Beach,Orange County,33.626182,-117.918875,7.2
Fullerton Elementary,Nicolas Junior High,1100 West Olive Avenue Fullerton CA 92833-4132,,,False,tested,Fullerton,Orange County,33.862840999999996,-117.946982,
Capistrano Unified,Niguel Hills Middle,29070 Paseo Escuela Laguna Niguel CA 92677,,,False,tested,Laguna Niguel,Orange County,33.539237,-117.687031,
Orange Unified,Nohl Canyon Elementary,4100 East Nohl Ranch Road Anaheim CA 92807-3415,6.4,ppb,True,tested,Anaheim,Orange County,33.837751000000004,-117.825126,6.4
North Monterey County Unified,North Orange County ROP,385 North Muller Street Anaheim CA 92801-5456,,,False,tested,Anaheim,Orange County,33.838306,-117.95028400000001,
Irvine Unified,Northwood Elementary,28 Carson Irvine CA 92620-3313,7.305,ppb,True,tested,Irvine,Orange County,33.704941999999996,-117.769805,7.44
Irvine Unified,Northwood High,4515 Portola Parkway Irvine CA 92620-2200,,,False,tested,Irvine,Orange County,33.733947,-117.75046499999999,
Santa Ana Unified,Nova Academy,1010 West 17th Street Santa Ana CA 92706-3504,,,,not tested,Santa Ana,Orange County,33.75997,-117.877908,
Irvine Unified,Oak Creek Elementary,1 Dove Creek Irvine CA 92618-3997,,,False,tested,Irvine,Orange County,33.664858,-117.78345,
Capistrano Unified,Oak Grove Elementary,22705 Sanborn Aliso Viejo CA 92656-6055,,,False,tested,Aliso Viejo,Orange County,33.575081,-117.73556200000002,
Los Alamitos Unified,Oak Middle,10821 Oak Street Los Alamitos CA 90720-2313,,,False,tested,,Orange County,33.807478,-118.07583600000001,
Ocean View,Oak View Elementary,17241 Oak Lane Huntington Beach CA 92647-5895,,,False,tested,Huntington Beach,Orange County,33.712282,-117.993629,
Huntington Beach Union High,Ocean View High,17071 Gothard Street Huntington Beach CA 92647-5417,6.4,ppb,True,tested,Huntington Beach,Orange County,33.714019,-118.00017199999999,6.4
Saddleback Valley Unified,Ocean View NPS School,24521 Moulton Pkwy Aliso Viejo CA 92657,,,False,tested,Laguna Woods,Orange County,33.606072,-117.72153,
Garden Grove Unified,Ocia A. Peters Elementary,13162 Newhope Street Garden Grove CA 92843-1416,,,False,tested,Garden Grove,Orange County,33.771559,-117.92901200000001,
Santa Ana Unified,OCSA,1010 North Main Street Santa Ana CA 92701-3608,,,,not tested,Santa Ana,Orange County,33.753609000000004,-117.867709,
Fountain Valley Elementary,Oka (Isojiro) Elementary,9800 Yorktown Avenue Huntington Beach CA 92646-2841,,,,not tested,Huntington Beach,Orange County,33.679528000000005,-117.95714299999999,
Brea-Olinda Unified,Olinda Elementary,3145 East Birch Street Brea CA 92821-6250,,,False,tested,Brea,Orange County,33.919475,-117.853967,
Lowell Joint,Olita Elementary,950 South Briercliff Drive La Habra CA 90631-6223,8.3,ppb,True,tested,La Habra,Orange County,33.920367999999996,-117.973665,8.3
Orange Unified,Olive Elementary,3038 North Magnolia Orange CA 92865-1631,,,False,tested,Orange,Orange County,33.84005,-117.84418500000001,
Anaheim Elementary,Olive Street Elementary,890 South Olive Street Anaheim CA 92805-5214,,,False,tested,Anaheim,Orange County,33.826059,-117.90663799999999,
Saddleback Valley Unified,Olivewood Elementary,23391 Dune Mear Road Lake Forest CA 92630-3819,,,False,tested,Lake Forest,Orange County,33.623477,-117.705277,
Saddleback Valley Unified,Olivewood Elementary School,"23391 Dune Mear Rd, Lake Forest, CA 92630",,,,exempt,Lake Forest,Orange County,33.623464,-117.70578700000002,
Saddleback Valley Unified,Olivewood Elementary School,"23391 Dune Mear Rd, Lake Forest, CA 92630",,,,exempt,Lake Forest,Orange County,33.623464,-117.70578700000002,
Saddleback Valley Unified School Distict,Olivewood Elementary School,"23391 Dune Mear Rd, Lake Forest, CA 92630",,,,exempt,Lake Forest,Orange County,33.623464,-117.70578700000002,
Saddleback Valley Unified School Distict,Olivewood Elementary School,"23391 Dune Mear Rd, Lake Forest, CA 92630",,,,exempt,Lake Forest,Orange County,33.623464,-117.70578700000002,
Tustin Unified,Orange County Department of Education Foothill HS Annex,19061 Foothill Blvd Santa Ana CA 92705,,,,not tested,North Tustin,Orange County,33.769420000000004,-117.80043700000002,
Santa Ana Unified,Orange County Educational Arts Academy,825 North Broadway Santa Ana CA 92701-3423,,,,not tested,Santa Ana,Orange County,33.752196999999995,-117.869606,
Orange County Department of Education,Orange County Workforce Innovation High,505 North Euclid Street Anaheim CA 92805-5506,,,,not tested,Anaheim,Orange County,33.837814,-117.94166100000001,
Anaheim Elementary,Orange Grove Elementary,1000 South Harbor Boulevard Anaheim CA 92805-5531,,,False,tested,Anaheim,Orange County,33.820817,-117.913749,
Orange Unified,Orange High,525 North Shaffer Street Orange CA 92867-6824,5.84,ppb,True,tested,Orange,Orange County,33.79802,-117.84679299999999,6.0
Orange Unified,Orange Unified Pre-K SDC,5125 East Gerda Drive Anaheim CA 92807-3009,,,False,tested,Anaheim,Orange County,33.852073,-117.80548300000001,
Fullerton Elementary,Orangethorpe Elementary,1400 South Brookhurst Road Fullerton CA 92833-4493,,,False,tested,Fullerton,Orange County,33.857302000000004,-117.95831100000001,
Anaheim Union High,Orangeview Junior High,3715 West Orange Avenue Anaheim CA 92804-2899,5.2,ppb,True,tested,Anaheim,Orange County,33.826446999999995,-118.013899,5.2
Tustin Unified,Orchard Hills,11555 Culver Drive Irvine CA 92602-0835,,,False,tested,Irvine,Orange County,33.727937,-117.76431399999998,
Capistrano Unified,Oso Grande Elementary,30251 Sienna Parkway Ladera Ranch CA 92694-1459,,,False,tested,Ladera Ranch,Orange County,33.54432,-117.63954199999999,
Orange Unified,OUSD Community Day,250 South Yorba St Orange CA 92869-3609,,,,not tested,Orange,Orange County,33.78519,-117.82716200000002,
Orange Unified,OUSD Home Sch,250 S Yorba Street Orange CA 92869-3609,,,,not tested,Orange,Orange County,33.78519,-117.82716200000002,
Anaheim Union High,Oxford Academy,5172 Orange Avenue Cypress CA 90630-2921,,,False,tested,Cypress,Orange County,33.822275,-118.042542,
Saddleback Valley Unified,Oxford Preparatory Academy,22882 Loumont Dr. Lake Forest CA 92630,10.0,ppb,True,tested,Lake Forest,Orange County,33.629853999999995,-117.700718,11.0
Capistrano Unified,Oxford Preparatory Academy - South Orange County,23000 Via Santa Maria Mission Viejo CA 92692-1827,,,False,tested,Mission Viejo,Orange County,33.629017,-117.658553,
Fullerton Elementary,Pacific Drive Elementary,1501 West Valencia Drive Fullerton CA 92833-3940,,,False,tested,Fullerton,Orange County,33.867222,-117.953195,
Garden Grove Unified,Pacifica High,6851 Lampson Avenue Garden Grove CA 92845-2211,,,False,tested,Garden Grove,Orange County,33.781087,-118.01438999999999,
Capistrano Unified,Palisades Elementary,26462 Via Sacramento Capistrano Beach CA 92624-1399,,,False,tested,Dana Point,Orange County,33.461154,-117.66798600000001,
Anaheim Elementary,Palm Lane Elementary,1646 West Palm Lane Anaheim CA 92802-2007,,,False,tested,Anaheim,Orange County,33.816034,-117.940197,
Orange Unified,Palmyra Elementary,1325 East Palmyra Avenue Orange CA 92866-2428,6.425000000000002,ppb,True,tested,Orange,Orange County,33.784690999999995,-117.83903600000001,16.2
Orange Unified,Panorama Elementary,10512 Crawford Canyon Rd Santa Ana CA 92705,7.7799999999999985,ppb,True,tested,Santa Ana,Orange County,33.780839,-117.79136399999999,10.3
Garden Grove Unified,Parkview Elementary,12272 Wilken Way Garden Grove CA 92840-2699,,,False,tested,Garden Grove,Orange County,33.793744000000004,-117.92298000000001,
Garden Grove Unified,Patton Elementary,6861 Santa Rita Avenue Garden Grove CA 92845-1443,,,False,tested,Garden Grove,Orange County,33.78937,-118.01321000000002,
Newport-Mesa Unified,Paularino Elementary,1060 Paularino Avenue Costa Mesa CA 92626-2849,,,False,tested,Costa Mesa,Orange County,33.682477,-117.90094099999999,
Tustin Unified,Peters Canyon Elementary,26900 Peters Canyon Road Tustin CA 92782-3300,,,False,tested,Irvine,Orange County,33.711015,-117.79872900000001,
Capistrano Unified,Philip J. Reilly Elementary/Special Education,24171 Pavion Mission Viejo CA 92692-2200,,,False,tested,Mission Viejo,Orange County,33.61446,-117.63456299999999,
Santa Ana Unified,Pio Pico Elementary,931 West Highland Santa Ana CA 92703-4809,,,False,tested,Santa Ana,Orange County,33.737693,-117.877936,
Tustin Unified,Pioneer Middle,2700 Pioneer Rd. Irvine CA 92782,,,False,tested,Tustin,Orange County,33.749951,-117.77323100000001,
Orange County Department of Education,Placentia Education Center,5247 E Orangethorpe Avenue Anaheim CA 92807,,,,not tested,Anaheim,Orange County,33.859494,-117.918477,
Fountain Valley Elementary,Plavan (Urbain H.) Elementary,9675 Warner Avenue Fountain Valley CA 92708-2823,,,False,tested,Fountain Valley,Orange County,33.716138,-117.95942099999999,
Irvine Unified,Plaza Vista,670 Paseo Westpark Irvine CA 92606-8946,,,False,tested,Irvine,Orange County,33.691677,-117.80836299999999,
Ocean View,Pleasant View,16692 Landau Lane Huntington Beach CA 92647-5097,8.7,ppb,True,tested,Westminster,Orange County,33.721351,-117.975752,8.7
Newport-Mesa Unified,Pomona Elementary,2051 Pomona Avenue Costa Mesa CA 92627-2921,,,False,tested,Costa Mesa,Orange County,33.648939,-117.927618,
Anaheim Elementary,Ponderosa Elementary,2135 South Mountain View Avenue Anaheim CA 92802-4917,,,False,tested,Anaheim,Orange County,33.794629,-117.904179,
Irvine Unified,Portola High,1001 Cadence Irvine CA 92618,,,False,tested,Irvine,Orange County,33.672934999999995,-117.71288,
Saddleback Valley Unified,Portola Hills Elementary,19422 Saddleback Ranch Road Trabuco Canyon CA 92679-1177,,,,not tested,Trabuco Canyon,Orange County,33.679652000000004,-117.631447,
Saddleback Valley Unified School Distict,Portola Hills Elementary School,"19422 Saddleback Ranch Rd, Trabuco Canyon, CA 92679",,,,exempt,Trabuco Canyon,Orange County,33.679652000000004,-117.631447,
Orange Unified,Portola Middle,270 North Palm Drive Orange CA 92868-2428,,,False,tested,Orange,Orange County,33.791056,-117.869775,
Irvine Unified,Portola Springs Elementary,12100 Portola Springs Irvine CA 92618,,,False,tested,Irvine,Orange County,33.6943,-117.71148899999999,
Garden Grove Unified,Post Elementary,14641 Ward Street Westminster CA 92683-5830,,,False,tested,Westminster,Orange County,33.739583,-117.946099,
Anaheim Elementary,Price (Adelaide) Elementary,1516 West North Street Anaheim CA 92801-4332,5.2,ppb,True,tested,Anaheim,Orange County,33.840771999999994,-117.9365,5.2
Orange Unified,Prospect Elementary,379 North Virage Street Orange CA 92869-2856,7.53,ppb,True,tested,Orange,Orange County,33.792504,-117.81612,7.53
Garden Grove Unified,R. F. Hazard Elementary,4218 West Hazard Avenue Santa Ana CA 92703-2610,,,False,tested,Santa Ana,Orange County,33.751521999999994,-117.9256,
Saddleback Valley Unified,Ralph A. Gates Elementary,23882 Landisview Avenue Lake Forest CA 92630-5152,,,False,tested,Lake Forest,Orange County,33.615094,-117.696678,
Saddleback Valley Unified School District,Ralph A. Gates Elementary School,"23882 Landisview Ave, Lake Forest, CA 92630",,,,exempt,Lake Forest,Orange County,33.615584999999996,-117.697405,
Huntington Beach City Elementary,Ralph E. Hawes Elementary,9682 Yellowstone Drive Huntington Beach CA 92646-4857,,,False,tested,Huntington Beach,Orange County,33.668658,-117.95934199999999,
Garden Grove Unified,Rancho Alamitos High,11351 Dale Street Garden Grove CA 92841-1598,,,False,tested,Garden Grove,Orange County,33.797909000000004,-117.98451299999999,
Saddleback Valley Unified,Rancho Canada Elementary,21801 Winding Way Lake Forest CA 92630-2599,,,,not tested,Lake Forest,Orange County,33.646258,-117.69197,
Saddleback Valley Unified School Distict,Rancho Canada Elementary School,"21801 Winding Way, Lake Forest, CA 92630",,,,exempt,Lake Forest,Orange County,33.646258,-117.69197,
Irvine Unified,Rancho San Joaquin Middle,4861 Michelson Drive Irvine CA 92612-2826,,,False,tested,Irvine,Orange County,33.663685,-117.80671399999999,
Saddleback Valley Unified,Rancho Santa Margarita Intermediate,21931 Alma Aldea Rancho Santa Margarita CA 92688-2342,,,False,tested,Rancho Santa Margarita,Orange County,33.644284000000006,-117.5876,
Saddleback Valley Unified,Rancho Santa Margarita Intermediate,"21931 Alma Aldea, Rancho Santa Margarita, CA 92688",,,,exempt,Rancho Santa Margarita,Orange County,33.644024,-117.589584,
Saddleback Valley Unified,Rancho Santa Margarita Intermediate,"21931 Alma Aldea, Rancho Santa Margarita, CA 92688",,,,exempt,Rancho Santa Margarita,Orange County,33.644024,-117.589584,
Saddleback Valley Unified,Rancho Santa Margarita Intermediate,"21931 Alma Aldea, Rancho Santa Margarita, CA 92688",,,,exempt,Rancho Santa Margarita,Orange County,33.644024,-117.589584,
Saddleback Valley Unified,Rancho Santa Margarita Intermediate,"21931 Alma Aldea, Rancho Santa Margarita, CA 92688",,,,exempt,Rancho Santa Margarita,Orange County,33.644024,-117.589584,
Santa Ana Unified,Raymond A. Villa Fundamental Intermediate,1441 East Chestnut Avenue Santa Ana CA 92701-6318,,,False,tested,Santa Ana,Orange County,33.742883,-117.84933600000001,
Fullerton Elementary,Raymond Elementary,517 North Raymond Avenue Fullerton CA 92831-3310,,,False,tested,Fullerton,Orange County,33.874404,-117.90711200000001,
Centralia Elementary,Raymond Temple Elementary,7800 Holder Street Buena Park CA 90620-2315,,,False,tested,Buena Park,Orange County,33.850241,-118.01972099999999,
Santa Ana Unified,REACH Academy,804 North Fairview Road Santa Ana CA 92703-1840,,,False,tested,Santa Ana,Orange County,33.752345,-117.904301,
Tustin Unified,Red Hill Elementary,11911 Red Hill Avenue Santa Ana CA 92705-3105,,,False,tested,Santa Ana,Orange County,33.704698,-117.844315,
Anaheim Elementary,Revere (Paul) Elementary,140 West Guinida Lane Anaheim CA 92805-6507,,,False,tested,Anaheim,Orange County,33.814136,-117.908409,
Capistrano Unified,Richard Henry Dana Elementary,24242 La Cresta Dr Dana Point CA 92629-2561,,,False,tested,Dana Point,Orange County,33.469114000000005,-117.706106,
Capistrano Unified,Richard Henry Dana Exceptional Needs,24242 La Cresta Drive Dana Point CA 92629-2561,8.5,ppb,True,tested,Dana Point,Orange County,33.469114000000005,-117.706106,11.0
Los Alamitos Unified,Richard Henry Lee Elementary,11481 Foster Road Los Alamitos CA 90720-3818,,,False,tested,,Orange County,33.795997,-118.08201299999999,
Orange Unified,Richland Continuation High,615 North Lemon Street Orange CA 92867-6611,,,False,tested,Orange,Orange County,33.797016,-117.85481100000001,
Fullerton Elementary,Richman Elementary,700 South Richman Avenue Fullerton CA 92832-2724,,,False,tested,Fullerton,Orange County,33.86483,-117.93297,
Placentia-Yorba Linda Unified,Rio Vista Elementary,310 North Rio Vista Street Anaheim CA 92806-3767,,,False,tested,Anaheim,Orange County,33.843225,-117.871646,
Garden Grove Unified,Riverdale Elementary,13222 Lewis Street Garden Grove CA 92843-2229,10.2,ppb,True,tested,Garden Grove,Orange County,33.771243,-117.89701000000001,10.2
Fullerton Elementary,Robert C. Fisler Elementary,1350 Starbuck Street Fullerton CA 92833-5668,,,False,tested,Fullerton,Orange County,33.885934999999996,-117.962456,
Tustin Unified,Robert Heideman Elementary,15571 Williams Street Tustin CA 92780-4146,5.9,ppb,True,tested,Tustin,Orange County,33.737406,-117.84087199999999,5.9
Magnolia Elementary,Robert M. Pyles,10411 South Dale Street Stanton CA 90680-2505,,,False,tested,Anaheim,Orange County,33.815642,-117.98473500000001,
Saddleback Valley Unified,Robinson Elementary,21400 Lindsay Drive Trabuco Canyon CA 92679-3213,,,,not tested,Trabuco Canyon,Orange County,33.651897,-117.57234,
Trabuco Canyon Water District,Robinson Elementary,"21400 Lindsay Dr, Trabuco Canyon, CA 92679",,,,exempt,Trabuco Canyon,Orange County,33.651897,-117.57234,
Trabuco Canyon Water District,Robinson Elementary,"21400 Lindsay Dr., Trabuco Canyon, CA 92679",,,,exempt,Trabuco Canyon,Orange County,33.651897,-117.57234,
Fullerton Elementary,Rolling Hills Elementary,1460 East Rolling Hills Drive Fullerton CA 92835-2008,,,False,tested,Fullerton,Orange County,33.90251,-117.90160300000001,
Anaheim Elementary,Roosevelt (Theodore) Elementary,1600 East Vermont Avenue Anaheim CA 92805-5628,6.85,ppb,True,tested,Anaheim,Orange County,33.826925,-117.893047,8.6
Orange Unified,ROP-Career Education,250 South Yorba Street Orange CA 92869,,,,not tested,Orange,Orange County,33.78519,-117.82716200000002,
Private,Rosary Academy,1340 North Acacia Avenue Fullerton CA 92831,,,False,tested,Fullerton,Orange County,33.887169,-117.898416,
Placentia-Yorba Linda Unified,Rose Drive Elementary,4700 Rose Drive Yorba Linda CA 92886-2096,,,False,tested,Yorba Linda,Orange County,33.890667,-117.841691,
Garden Grove Unified,Rosita Elementary,4726 Hazard Avenue Santa Ana CA 92703-2537,,,False,tested,Orange,Orange County,33.752347,-117.93206299999999,
Anaheim Elementary,Ross (Betsy) Elementary,535 South Walnut Street Anaheim CA 92802-1450,6.9,ppb,True,tested,Anaheim,Orange County,33.826569,-117.929578,6.9
Private,Rossier Park School,7100 Knott Avenue Buena Park CA 90620,,,False,tested,Buena Park,Orange County,33.8614,-118.011197,
Los Alamitos Unified,Rossmoor Elementary,3272 Shakespeare Drive Los Alamitos CA 90720-3842,,,False,tested,,Orange County,33.793412,-118.075981,
Newport-Mesa Unified,Roy O. Andersen Elementary,1900 Port Seabourne Way Newport Beach CA 92660-6634,,,False,tested,Newport Beach,Orange County,33.62127,-117.85596000000001,
Placentia-Yorba Linda Unified,Ruby Drive Elementary,601 Ruby Drive Placentia CA 92870-4828,5.7,ppb,True,tested,Placentia,Orange County,33.879143,-117.874652,5.7
Orange Unified,Running Springs Elementary,8670 East Running Springs Drive Anaheim CA 92808-1693,,,False,tested,Anaheim,Orange County,33.859008,-117.725101,
Huntington Beach City Elementary,S. A. Moffett Elementary,8800 Burlcrest Avenue Huntington Beach CA 92646-4620,11.0,ppb,True,tested,Huntington Beach,Orange County,33.668172999999996,-117.974369,11.0
Santa Ana Unified,Saddleback High,2801 South Flower Santa Ana CA 92707-3935,,,False,tested,Santa Ana,Orange County,33.709682,-117.87678600000001,
Private,Saint Jeanne de Lestonnac School,16791 East Main Street Tustin CA 92780,9.7,ppb,True,tested,Tustin,Orange County,33.743023,-117.83705,9.7
Private,"Saint Vincent's Day Home, Inc.",1086 Eighth Street Oakland CA 94607,,,False,tested,,Orange County,28.557538,-81.632829,
Private,Salem Lutheran,6411 East Frank Lane Orange CA 92869,5.05,ppb,True,tested,Orange,Orange County,33.812261,-117.784848,5.05
Orange County Department of Education,Samueli Academy,1901 North Fairview Street Santa Ana CA 92706-2205,,,False,tested,Santa Ana,Orange County,33.763154,-117.90233500000001,
Capistrano Unified,San Clemente High,700 Avenido Pico San Clemente CA 92673-5681,,,False,tested,San Clemente,Orange County,33.439840000000004,-117.617333,
Private,San Clemente Presbyterian Preschool,119 Ave De La Estrella San Clemente CA 92672,,,False,tested,San Clemente,Orange County,33.429356,-117.61336599999998,
Saddleback Valley Unified,San Joaquin Elementary,22182 Barbera Laguna Hills CA 92653-1899,,,False,tested,Laguna Hills,Orange County,33.617321999999994,-117.742621,
Saddleback Valley Unified School Distict,San Joaquin Elementary School,"22182 Barbera, Laguna Hills, CA 92653",,,,exempt,Laguna Hills,Orange County,33.617858,-117.742621,
Capistrano Unified,San Juan Elementary,31642 El Camino Real San Juan Capistrano CA 92675-2616,,,,not tested,San Juan Capistrano,Orange County,33.502701,-117.661791,
Capistrano Unified,San Juan Hills High,29211 Stallion Ridge San Juan Capistrano CA 92675-3639,,,,not tested,San Juan Capistrano,Orange County,33.499262,-117.62141899999999,
Centralia Elementary,San Marino Elementary,6215 San Rolando Way Buena Park CA 90620-3635,5.8,ppb,True,tested,Buena Park,Orange County,33.836940999999996,-118.024373,6.1
Santa Ana Unified,Santa Ana High,520 West Walnut Santa Ana CA 92701-5559,,,False,tested,Santa Ana,Orange County,33.743997,-117.874724,
Santa Ana Unified,Santa Ana Unified School District Food and Nutrition Services,1749 E Carnegie Ave Santa Ana CA 92705,,,False,tested,Santa Ana,Orange County,33.712551,-117.845704,
Santa Ana Unified,Santa Ana Unified School District Office,1601 E Chestnut Ave Santa Ana CA 92701,,,False,tested,Santa Ana,Orange County,33.743376,-117.847078,
Santa Ana Unified,Santiago Elementary,2212 North Baker Street Santa Ana CA 92706-1999,,,False,tested,Santa Ana,Orange County,33.764824,-117.88257800000001,
Saddleback Valley Unified School Distict,Santiago Elementary School,"2212 N Baker St, Santa Ana, CA 92706",,,,exempt,Santa Ana,Orange County,33.764824,-117.88257800000001,
Garden Grove Unified,Santiago High,12342 Trask Avenue Garden Grove CA 92843-2812,5.46,ppb,True,tested,Garden Grove,Orange County,33.76701,-117.92434899999999,5.46
Irvine Unified,Santiago Hills Elementary,29 Christamon West Irvine CA 92620-1836,9.385,ppb,True,tested,Irvine,Orange County,33.718993,-117.758407,12.0
Orange Unified,Santiago Middle,515 North Rancho Santiago Boulevard Orange CA 92869-2724,5.565,ppb,True,tested,Orange,Orange County,33.795547,-117.798896,5.67
Garden Grove Unified,Sarah McGarvin Intermediate,9802 Bishop Place Westminster CA 92683-6605,,,False,tested,Westminster,Orange County,33.741198,-117.959598,
Anaheim Union High,Savanna High,301 North Gilbert Street Anaheim CA 92801-5099,,,False,tested,Anaheim,Orange County,33.835376000000004,-117.967782,
Westminster,Schmitt Elementary,7200 Trask Avenue Westminster CA 92683-2626,,,False,tested,Westminster,Orange County,33.766328,-118.003902,
Westminster,Schroeder Elementary,15151 Columbia Lane Huntington Beach CA 92647-2507,,,,not tested,Huntington Beach,Orange County,33.741873999999996,-118.017903,
Santa Ana Unified,Segerstrom High,2301 West MacArthur Boulevard Santa Ana CA 92704-7168,,,False,tested,Santa Ana,Orange County,33.701906,-117.90053300000001,
Westminster,Sequoia Elementary,5900 Iroquois Road Westminster CA 92683-2460,,,False,tested,Westminster,Orange County,33.768388,-118.026902,
Orange Unified,Serrano Elementary,17741 Serrano Avenue Villa Park CA 92861-1213,,,False,tested,Villa Park,Orange County,33.821631,-117.82303700000001,
Saddleback Valley Unified,Serrano Intermediate,24642 Jeronimo Road Lake Forest CA 92630-3112,,,,not tested,Lake Forest,Orange County,33.632614000000004,-117.69681000000001,
Saddleback Valley Unified School Distict,Serrano Intermediate School,"24642 Jeronimo Rd, Lake Forest, CA 92630",,,,exempt,Lake Forest,Orange County,33.632614000000004,-117.69681000000001,
Los Alamitos Unified,Sharon Christa McAuliffe Middle,4112 Cerritos Avenue Los Alamitos CA 90720-2521,,,False,tested,,Orange County,33.810258000000005,-118.06165800000001,
Capistrano Unified,Shorecliffs Middle,240 Via Socorro San Clemente CA 92672-3714,,,False,tested,San Clemente,Orange County,33.441359000000006,-117.63798600000001,
Santa Ana Unified,Sierra Preparatory Academy,2021 North Grand Avenue Santa Ana CA 92705-1751,7.0,ppb,True,tested,Santa Ana,Orange County,33.76279,-117.85175500000001,7.0
Placentia-Yorba Linda Unified,Sierra Vista Elementary,1811 North Placentia Avenue Placentia CA 92870-2302,,,False,tested,Placentia,Orange County,33.890817999999996,-117.87401799999999,
La Habra City Elementary,Sierra Vista Elementary,1800 East Whittier Boulevard La Habra CA 90631-4171,,,False,tested,La Habra,Orange County,33.938544,-117.92790500000001,
Irvine Unified,Sierra Vista Middle,2 Liberty Irvine CA 92620-2536,,,False,tested,Irvine,Orange County,33.71624,-117.76803999999998,
Saddleback Valley Unified,Silverado Cont. HS,"25632 Peter A Hartman Way, Mission Viejo, CA 92691",,,,exempt,Mission Viejo,Orange County,33.620996999999996,-117.683403,
Newport-Mesa Unified,Sonora Elementary,966 Sonora Road Costa Mesa CA 92626-5710,,,False,tested,Costa Mesa,Orange County,33.675388,-117.895921,
Fullerton Joint Union High,Sonora High,401 South Palm Street La Habra CA 90631-5735,,,False,tested,La Habra,Orange County,33.928104,-117.926594,
South Bay Union School District,South Coast Regional Occupational Program,31522 El Camino Real San Juan Capistrano CA 92675-2631,,,,not tested,San Juan Capistrano,Orange County,33.505347,-117.662935,
Anaheim Union High,South Junior High,2320 East South Street Anaheim CA 92806-4599,,,False,tested,Anaheim,Orange County,33.832577,-117.88450700000001,
Irvine Unified,South Lake Middle,655 West Yale Loop Irvine CA 92614-7939,,,False,tested,Irvine,Orange County,33.669066,-117.80965,
Ocean View,Spring View Middle,16662 Trudy Lane Huntington Beach CA 92647-4261,,,False,tested,Huntington Beach,Orange County,33.720024,-118.01959699999999,
Irvine Unified,Springbrook Elementary,655 Springbrook North Irvine CA 92614-7568,7.885,ppb,True,tested,Irvine,Orange County,33.669925,-117.797627,9.52
Santa Ana Unified,Spurgeon Intermediate,2701 West Fifth Street Santa Ana CA 92703-1821,,,False,tested,Santa Ana,Orange County,33.750007000000004,-117.905303,
Private,St. Angela Merici Elementary,575 South Walnut Avenue Brea CA 92821,,,False,tested,Brea,Orange County,33.912094,-117.904174,
Private,St. Anne School,32451 Bear Brand Road Laguna Niguel CA 92677,,,False,tested,Laguna Niguel,Orange County,33.49456,-117.70030600000001,
Ocean View,Star View Elementary,8411 Worthy Drive Midway City CA 92655-1659,,,False,tested,Midway City,Orange County,33.735184999999994,-117.98196100000001,
Garden Grove Unified,Stephen R. Fitz Intermediate,4600 West McFadden Avenue Santa Ana CA 92704-1142,,,False,tested,Santa Ana,Orange County,33.737407,-117.930545,
Cypress Elementary,Steve Luther Elementary,4631 La Palma Ave La Palma CA 90623-1620,5.04,ppb,True,tested,La Palma,Orange County,33.846354999999996,-118.04108799999999,5.04
Anaheim Elementary,Stoddard (Alexander J.) Elementary,1841 South Ninth Street Anaheim CA 92802-3299,,,False,tested,Anaheim,Orange County,33.801664,-117.93320700000001,
Irvine Unified,Stone Creek Elementary,2 Stone Creek South Irvine CA 92604-4525,,,False,tested,Irvine,Orange County,33.685421000000005,-117.80273899999999,
Irvine Unified,Stonegate Elementary,100 Honors Irvine CA 92620-2128,,,False,tested,Irvine,Orange County,33.707,-117.73964699999999,
Ocean View,Sun View Elementary,7721 Juliette Low Drive Huntington Beach CA 92647-4181,,,False,tested,Huntington Beach,Orange County,33.724909999999994,-117.99430100000001,
El Centro Elementary,Sunflower Elementary,2450 Main Street El Centro CA 92243-3577,,,False,tested,Newport Beach,Orange County,33.614761,-117.92208600000001,
Anaheim Elementary,Sunkist Elementary,500 North Sunkist Street Anaheim CA 92806-3052,,,False,tested,Anaheim,Orange County,33.846025,-117.879301,
Fullerton Joint Union High,Sunny Hills High,1801 Warburton Way Fullerton CA 92833-2235,,,False,tested,Fullerton,Orange County,33.884334,-117.95265,
Garden Grove Unified,Sunnyside Elementary,9972 East Russell Avenue Garden Grove CA 92844-2431,,,False,tested,Garden Grove,Orange County,33.767697999999996,-117.95618400000001,
Fullerton Elementary,Sunset Lane Elementary,2030 Sunset Lane Fullerton CA 92833-1852,,,False,tested,Fullerton,Orange County,33.892140000000005,-117.958262,
Garden Grove Unified,Susan B. Anthony Elementary,15320 Pickford Street Westminster CA 92683-7015,,,False,tested,Westminster,Orange County,33.740756,-117.95133600000001,
Orange Unified,Sycamore Elementary,340 North Main Street Orange CA 92868-2408,,,False,tested,Orange,Orange County,33.792398999999996,-117.868104,
Anaheim Union High,Sycamore Junior High,1801 East Sycamore Street Anaheim CA 92805-3486,,,False,tested,Anaheim,Orange County,33.846005,-117.893653,
Santa Ana Unified,Taft Elementary,500 West Keller Santa Ana CA 92707-4823,,,False,tested,Santa Ana,Orange County,33.695769,-117.875739,
Orange Unified,Taft Elementary,1829 North Cambridge Orange CA 92865-4409,,,False,tested,Orange,Orange County,33.818298,-117.842656,
Fountain Valley Elementary,Talbert (Samuel E.) Middle,9101 Brabham Drive Huntington Beach CA 92646-2764,,,,not tested,Huntington Beach,Orange County,33.680802,-117.96919399999999,
Fountain Valley Elementary,Tamura (Hisamatsu) Elementary,17340 Santa Suzanne Street Fountain Valley CA 92708-3307,,,False,tested,Fountain Valley,Orange County,33.711794,-117.976083,
Private,Tarbut V Torah Community Day School,5 Federation Wy Irvine CA 92603,,,False,tested,Irvine,Orange County,33.631409999999995,-117.830708,
Capistrano Unified,Tesoro High,1 Tesoro Creek Road Las Flores CA 92688-4706,,,False,tested,Rancho Santa Margarita,Orange County,33.580797,-117.613374,
Santa Ana Unified,Theodore Roosevelt Elementary,501 South Halladay Santa Ana CA 92701-6114,,,False,tested,Santa Ana,Orange County,33.741539,-117.85889099999999,
Santa Ana Unified,Thomas A. Edison Elementary,2063 Orange Avenue Santa Ana CA 92707-2833,,,False,tested,Santa Ana,Orange County,33.720098,-117.864934,
Garden Grove Unified,Thomas Paine Elementary,15792 Ward Street Garden Grove CA 92843-5348,,,False,tested,Garden Grove,Orange County,33.734314000000005,-117.94591000000001,
Laguna Beach Unified,Thurston Middle,2100 Park Avenue Laguna Beach CA 92651-2240,,,,not tested,Laguna Beach,Orange County,33.549113,-117.76416599999999,
Laguna Beach Unified,Thurston Middle School,"2100 Park Ave, Laguna Beach, CA 92651",,,,exempt,Laguna Beach,Orange County,33.549113,-117.76416599999999,
Capistrano Unified,Tijeras Creek Elementary,23072 Avenida Empresa Rancho Santa Margarita CA 92688-8533,,,False,tested,Rancho Santa Margarita,Orange County,33.627919,-117.602636,
Laguna Beach Unified,Top of the World Elementary,21601 Tree Top Lane Laguna Beach CA 92651-2099,,,,not tested,Laguna Beach,Orange County,33.545524,-117.751778,
Laguna Beach Unified,Top of the World Elementary,"21601 Treetop Ln, Laguna Beach, CA 92651",,,,exempt,Laguna Beach,Orange County,33.545141,-117.751971,
Placentia-Yorba Linda Unified,Topaz Elementary,3232 Topaz Lane Fullerton CA 92831-2609,,,False,tested,Fullerton,Orange County,33.886041,-117.87006799999999,
Trabuco Canyon Water District,Trabuco Elementary,"31052 Trabuco Canyon Rd, Trabuco Canyon, CA 92679",,,,exempt,Rancho Santa Margarita,Orange County,33.657461,-117.57971599999999,
Saddleback Valley Unified,Trabuco Elementary,31052 Trabuco Canyon Road Trabuco Canyon CA 92678-0277,,,,not tested,Rancho Santa Margarita,Orange County,33.657461,-117.57971599999999,
Trabuco Canyon Water District,Trabuco Elementary,"31052 Trabuco Canyon Rd., Trabuco Canyon, CA 92679",,,,exempt,Rancho Santa Margarita,Orange County,33.657461,-117.57971599999999,
Saddleback Valley Unified,Trabuco Hills High,27501 Cordova Road Mission Viejo CA 92691-1027,,,False,tested,Mission Viejo,Orange County,33.653878999999996,-117.65207099999999,
Saddleback Valley Unified,Trabuco Hills High School,"27501 Mustang Run, Mission Viejo, CA 92691",,,,exempt,Mission Viejo,Orange County,33.652933000000004,-117.65059099999999,
Saddleback Valley Unified,Trabuco Hills High School,"27501 Mustang Run, Mission Viejo, CA 92691",,,,exempt,Mission Viejo,Orange County,33.652933000000004,-117.65059099999999,
Saddleback Valley Unified,Trabuco Hills High School,"27501 Mustang Run, Mission Viejo, CA 92691",,,,exempt,Mission Viejo,Orange County,33.652933000000004,-117.65059099999999,
Saddleback Valley Unified,Trabuco Hills High School,"27501 Mustang Run, Mission Viejo, CA 92691",,,,exempt,Mission Viejo,Orange County,33.652933000000004,-117.65059099999999,
Saddleback Valley Unified,Trabuco Mesa Elementary,"21301 Ave. de Las Flores, Rancho Santa Margarita, CA 92688",,,,exempt,Rancho Santa Margarita,Orange County,33.653185,-117.580081,
Saddleback Valley Unified,Trabuco Mesa Elementary,"21301 Ave. de Las Flores, Rancho Santa Margarita, CA 92688",,,,exempt,Rancho Santa Margarita,Orange County,33.653185,-117.580081,
Saddleback Valley Unified,Trabuco Mesa Elementary,"21301 Ave. de Las Flores, Rancho Santa Margarita, CA 92688",,,,exempt,Rancho Santa Margarita,Orange County,33.653185,-117.580081,
Saddleback Valley Unified,Trabuco Mesa Elementary,21301 Avenida de los Flores Rancho Santa Margarita CA 92688-5444,,,False,tested,Rancho Santa Margarita,Orange County,33.653428000000005,-117.579621,
Saddleback Valley Unified,Trabuco Mesa Elementary,"21301 Ave. de Las Flores, Rancho Santa Margarita, CA 92688",,,,exempt,Rancho Santa Margarita,Orange County,33.653185,-117.580081,
Placentia-Yorba Linda Unified,Travis Ranch,5200 Via de la Escuela Yorba Linda CA 92887-2556,5.9,ppb,True,tested,Yorba Linda,Orange County,33.885404,-117.76106899999999,5.9
Fullerton Joint Union High,Troy High,2200 East Dorothy Lane Fullerton CA 92831-3036,,,False,tested,Fullerton,Orange County,33.881375,-117.89500600000001,
Capistrano Unified,Truman Benedict Elementary,1251 Sarmentoso San Clemente CA 92673,,,False,tested,San Clemente,Orange County,33.474801,-117.6219,
Irvine Unified,Turtle Rock Elementary,5151 Amalfi Drive Irvine CA 92603-3443,,,False,tested,Irvine,Orange County,33.647835,-117.818615,
Tustin Unified,Tustin High,1171 El Camino Real Tustin CA 92780-4660,,,False,tested,Tustin,Orange County,33.737469,-117.81730800000001,
Tustin Unified,Tustin Memorial Elementary,12712 Browning Avenue Santa Ana CA 92705-3465,,,False,tested,Santa Ana,Orange County,33.743971,-117.79348300000001,
Tustin Unified,Tustin Ranch Elementary,12950 Robinson Drive Tustin CA 92782-0921,,,False,tested,Tustin,Orange County,33.73499,-117.78942099999999,
Savanna Elementary,Twila Reid Elementary,720 South Western Anaheim CA 92804-3831,,,False,tested,Anaheim,Orange County,33.821956,-118.001424,
Irvine Unified,University High,4771 Campus Drive Irvine CA 92612-3298,5.5,ppb,True,tested,Irvine,Orange County,33.650225,-117.824221,5.5
Irvine Unified,University Park Elementary,4572 Sandburg Way Irvine CA 92612-2735,,,False,tested,Irvine,Orange County,33.659096999999996,-117.821927,
Placentia-Yorba Linda Unified,Valadez Middle School Academy,161 East La Jolla Street Placentia CA 92870-7112,,,False,tested,Placentia,Orange County,33.85876,-117.872422,
Saddleback Valley Unified,Valencia Elem.,"25661 Paseo De Valencia, Laguna Hills, CA 92653",,,,exempt,Laguna Hills,Orange County,33.60586,-117.70508400000001,
Saddleback Valley Unified,Valencia Elementary,25661 Paseo de Valencia Laguna Hills CA 92653-5308,,,,not tested,Laguna Hills,Orange County,33.60586,-117.70508400000001,
Placentia-Yorba Linda Unified,Valencia High,500 North Bradford Avenue Placentia CA 92870-4844,,,False,tested,Placentia,Orange County,33.876259999999995,-117.86913799999999,
Fullerton Elementary,Valencia Park Elementary,3441 West Valencia Drive Fullerton CA 92833-3131,6.5,ppb,True,tested,Fullerton,Orange County,33.866484,-117.975626,6.5
Santa Ana Unified,Valley High,1801 South Greenville Street Santa Ana CA 92704-4005,,,False,tested,Santa Ana,Orange County,33.723019,-117.901475,
Huntington Beach Union High,Valley Vista High (Continuation),9600 Dolphin Street Fountain Valley CA 92708-4603,,,False,tested,Fountain Valley,Orange County,33.707806,-117.961099,
Placentia-Yorba Linda Unified,Van Buren Elementary,1245 North Van Buren Street Placentia CA 92870-4024,,,False,tested,Yorba Linda,Orange County,33.884021000000004,-117.83161399999999,
Irvine Unified,Venado Middle,4 Deerfield Avenue Irvine CA 92604-3048,,,False,tested,Irvine,Orange County,33.700131,-117.798956,
Newport-Mesa Unified,Victoria Elementary,1025 Victoria Street Costa Mesa CA 92627-3929,,,False,tested,Costa Mesa,Orange County,33.652241,-117.941985,
Capistrano Unified,Viejo Elementary,26782 Via Grande Mission Viejo CA 92691-6133,,,False,tested,Mission Viejo,Orange County,33.571543,-117.66881599999999,
Orange Unified,Villa Park Elementary,10551 Center Drive Villa Park CA 92861-5332,,,False,tested,Villa Park,Orange County,33.808546,-117.81376399999999,
Orange Unified,Villa Park High,18042 Taft Avenue Villa Park CA 92861-4148,5.9,ppb,True,tested,Villa Park,Orange County,33.81588,-117.81781299999999,5.9
Ocean View,Village View Elementary,5361 Sisson Drive Huntington Beach CA 92649-2442,6.4,ppb,True,tested,Huntington Beach,Orange County,33.726803000000004,-118.035427,6.4
Capistrano Unified,Vista del Mar Elementary,1130 Avenue Talega San Clemente CA 92673,,,,not tested,San Clemente,Orange County,33.46813,-117.596672,
Capistrano Unified,Vista del Mar Middle,1130 Ave Talega  San Clemente CA 92673,,,False,tested,San Clemente,Orange County,33.468423,-117.59818600000001,
Irvine Unified,Vista Verde,6 Federation Way Irvine CA 92603-0100,,,False,tested,Irvine,Orange County,33.629976,-117.82745,
Ocean View,Vista View Middle,16250 Hickory Street Fountain Valley CA 92708-1404,6.3,ppb,True,tested,Fountain Valley,Orange County,33.727256,-117.97074599999999,6.3
Tustin Unified,W. R. Nelson Elementary,14392 Browning Avenue Tustin CA 92780-6338,,,False,tested,Tustin,Orange County,33.723442999999996,-117.81266799999999,
Capistrano Unified,Wagon Wheel Elementary,30912 Bridle Path Coto De Caza CA 92679-5360,,,False,tested,Coto De Caza,Orange County,33.580766,-117.592005,
Garden Grove Unified,Wakeham Elementary,7772 Chapman Avenue Garden Grove CA 92841-3003,,,False,tested,Garden Grove,Orange County,33.788436,-117.97993000000001,
Private,Waldorf School of Orange County,2350 Canyon Drive Costa Mesa CA 92627,,,False,tested,Costa Mesa,Orange County,33.658932,-117.94072,
Santa Ana Unified,Walker Elementary,811 East Bishop Street Santa Ana CA 92701-6205,,,False,tested,Santa Ana,Orange County,33.740849,-117.85766799999999,
Anaheim Union High,Walker Junior High,8132 Walker Street La Palma CA 90623-2097,9.9,ppb,True,tested,La Palma,Orange County,33.843090999999994,-118.03704499999999,9.9
Santa Ana Unified,Wallace R. Davis Elementary,1405 French Street Santa Ana CA 92701-2414,,,False,tested,Santa Ana,Orange County,33.756896999999995,-117.863901,
La Habra City Elementary,Walnut Elementary,625 North Walnut Street La Habra CA 90631-3711,,,False,tested,La Habra,Orange County,33.938128000000006,-117.95166299999998,
Magnolia Elementary,Walt Disney,2323 West Orange Avenue Anaheim CA 92804-3474,,,False,tested,Anaheim,Orange County,33.825075,-117.964662,
Westminster,Warner Middle,14171 Newland Street Westminster CA 92683-4503,,,False,tested,Orange,Orange County,33.756253,-117.98114199999999,
Santa Ana Unified,Washington Elementary,910 West Anahurst Place Santa Ana CA 92707-2501,,,False,tested,Santa Ana,Orange County,33.717239,-117.875499,
La Habra City Elementary,Washington Middle,716 East La Habra Boulevard La Habra CA 90631-5530,8.1,ppb,True,tested,La Habra,Orange County,33.930403000000005,-117.938406,12.0
Westminster,Webber Elementary,14142 Hoover Street Westminster CA 92683-4312,,,False,tested,Westminster,Orange County,33.757965000000006,-117.998294,
Orange Unified,West Orange Elementary,243 South Bush Orange CA 92868-3802,,,False,tested,Orange,Orange County,33.785281,-117.865804,
Anaheim Union High,Western High,501 South Western Avenue Anaheim CA 92804-1699,11.0,ppb,True,tested,Anaheim,Orange County,33.824514,-118.002234,11.0
Huntington Beach Union High,Westminster High,14325 Goldenwest Street Westminster CA 92683-4905,,,False,tested,Westminster,Orange County,33.753195,-118.009772,
Ocean View,Westmont Elementary,8251 Heil Avenue Westminster CA 92683-7834,5.5,ppb,True,tested,Westminster,Orange County,33.723063,-117.984047,5.5
Anaheim Elementary,Westmont Elementary,1525 West Westmont Drive Anaheim CA 92801-4736,,,False,tested,Anaheim,Orange County,33.837628,-117.93589899999999,
Irvine Unified,Westpark Elementary,25 San Carlo Irvine CA 92614-7314,,,False,tested,Irvine,Orange County,33.680859000000005,-117.83098799999999,
Irvine Unified,Westwood Elementary,1 Liberty Irvine CA 92620,6.23,ppb,True,tested,Irvine,Orange County,33.716601000000004,-117.768592,10.2
Newport-Mesa Unified,Whittier Elementary,1800 Whittier Avenue Costa Mesa CA 92627-4558,,,False,tested,Costa Mesa,Orange County,33.641141,-117.940532,
Santa Ana Unified,Willard Intermediate,1342 North Ross Santa Ana CA 92706-3816,,,False,tested,Santa Ana,Orange County,33.756871000000004,-117.87358400000001,
Brea-Olinda Unified,William E. Fanning Elementary,650 North Apricot Brea CA 92821-3501,,,False,tested,Brea,Orange County,33.928276000000004,-117.887751,
Westminster,Willmore Elementary,7122 Maple Street Westminster CA 92683-5021,,,False,tested,Westminster,Orange County,33.753574,-118.005466,
Santa Ana Unified,Wilson Elementary,1317 North Baker Street Santa Ana CA 92706-3457,,,False,tested,Santa Ana,Orange County,33.756036,-117.882632,
Newport-Mesa Unified,Wilson Elementary,801 Wilson Street Costa Mesa CA 92627-3333,,,False,tested,Costa Mesa,Orange County,33.656301,-117.90423500000001,
Capistrano Unified,Wood Canyon Elementary,23431 Knollwood Aliso Viejo CA 92656-4240,,,False,tested,Aliso Viejo,Orange County,33.553540000000005,-117.72200900000001,
Irvine Unified,Woodbridge High,2 Meadowbrook Irvine CA 92604-4726,,,False,tested,Irvine,Orange County,33.677269,-117.806454,
Irvine Unified,Woodbury Elementary,125 Great Lawn Irvine CA 92620-3832,,,False,tested,Irvine,Orange County,33.696515999999995,-117.75047099999999,
Garden Grove Unified,Woodbury Elementary,11362 Woodbury Road Garden Grove CA 92843-3599,,,False,tested,Garden Grove,Orange County,33.763666,-117.931233,
Fullerton Elementary,Woodcrest Elementary,455 West Baker Avenue Fullerton CA 92832-3269,,,False,tested,Fullerton,Orange County,33.856915,-117.945004,
Newport-Mesa Unified,Woodland Elementary,2025 Garden Lane Costa Mesa CA 92627-2113,,,False,tested,Costa Mesa,Orange County,33.642201,-117.90284,
Placentia-Yorba Linda Unified,Woodsboro Elementary,7575 East Woodsboro Avenue Anaheim CA 92807-2441,,,False,tested,Anaheim,Orange County,33.868513,-117.772421,
Placentia-Yorba Linda Unified,Yorba Linda High,19900 Bastanchury Road Yorba Linda CA 92886-8417,,,False,tested,Yorba Linda,Orange County,33.899772999999996,-117.810367,
Placentia-Yorba Linda Unified,Yorba Linda Middle,4777 Casa Loma Avenue Yorba Linda CA 92886-3399,,,False,tested,Yorba Linda,Orange County,33.891484999999996,-117.824211,
Orange Unified,Yorba Middle,935 North Cambridge Orange CA 92867-5720,,,False,tested,Orange,Orange County,33.802811,-117.84423100000001,
